flag,stream_link,abstract,category,metar,location,fetch-time
kdfw1_app_124300,http://d.liveatc.net/kdfw1_app_124300,KDAL App/Dep (East Side North Low),US-Class-B,"KDFW 311953Z 12005KT 10SM OVC085 23/20 A3004 RMK AO2 LTG DSNT SW SLP167 T02330200
","Dallas, Texas, United States",2021-05-31 20:15:13 UTC
kdaa2_twr,http://d.liveatc.net/kdaa2_twr,KDAA/KADW Tower,US-Class-B,"KDAA 311956Z AUTO 02004KT 10SM CLR 24/08 A3025 RMK AO2 SLP246 T02360084 $
","Camp Springs, Maryland, United States",2021-05-31 20:15:13 UTC
kapa2_app,http://d.liveatc.net/kapa2_app,KAPA App/Dep,US-Class-B,"KAPA 311953Z 36003KT 10SM SCT018 BKN047 BKN075 14/07 A3029 RMK AO2 SLP232 T01390072
","Denver, Colorado, United States",2021-05-31 20:15:13 UTC
kryy1_atlapp_121000,http://d.liveatc.net/kryy1_atlapp_121000,Atlanta Approach (NW Satellite),US-Class-B,"KRYY 311950Z 16004KT 10SM BKN049 24/13 A3028 RMK AO2 SLP971 T02440128 $
","Atlanta, Georgia, United States",2021-05-31 20:15:13 UTC
kryy1_atlapp_128000,http://d.liveatc.net/kryy1_atlapp_128000,Atlanta Approach (TAR NW),US-Class-B,"KRYY 311950Z 16004KT 10SM BKN049 24/13 A3028 RMK AO2 SLP971 T02440128 $
","Atlanta, Georgia, United States",2021-05-31 20:15:13 UTC
kcco1_atl_app,http://d.liveatc.net/kcco1_atl_app,KATL Approach (Center Final),US-Class-B,"KCCO 311935Z AUTO 16008KT 10SM SCT050 27/10 A3026 RMK AO2 T02670099
","Atlanta, Georgia, United States",2021-05-31 20:15:13 UTC
katl_app_final,http://d.liveatc.net/katl_app_final,KATL Approach (Final),US-Class-B,"KATL 311952Z 13007KT 10SM BKN055 BKN250 24/12 A3026 RMK AO2 SLP242 T02440117
","Atlanta, Georgia, United States",2021-05-31 20:15:13 UTC
katl_atis_arr,http://d.liveatc.net/katl_atis_arr,KATL Arrival ATIS,US-Class-B,"KATL 311952Z 13007KT 10SM BKN055 BKN250 24/12 A3026 RMK AO2 SLP242 T02440117
","Atlanta, Georgia, United States",2021-05-31 20:15:13 UTC
katl_del,http://d.liveatc.net/katl_del,KATL Clearance Delivery,US-Class-B,"KATL 311952Z 13007KT 10SM BKN055 BKN250 24/12 A3026 RMK AO2 SLP242 T02440117
","Atlanta, Georgia, United States",2021-05-31 20:15:13 UTC
katl_dep_0826,http://d.liveatc.net/katl_dep_0826,KATL Departure (Rwys 8/26),US-Class-B,"KATL 311952Z 13007KT 10SM BKN055 BKN250 24/12 A3026 RMK AO2 SLP242 T02440117
","Atlanta, Georgia, United States",2021-05-31 20:15:13 UTC
katl_dep_0927,http://d.liveatc.net/katl_dep_0927,KATL Departure (Rwys 9/27),US-Class-B,"KATL 311952Z 13007KT 10SM BKN055 BKN250 24/12 A3026 RMK AO2 SLP242 T02440117
","Atlanta, Georgia, United States",2021-05-31 20:15:13 UTC
katl_atis_dep,http://d.liveatc.net/katl_atis_dep,KATL Departure ATIS,US-Class-B,"KATL 311952Z 13007KT 10SM BKN055 BKN250 24/12 A3026 RMK AO2 SLP242 T02440117
","Atlanta, Georgia, United States",2021-05-31 20:15:13 UTC
katl_gnd,http://d.liveatc.net/katl_gnd,KATL Ground,US-Class-B,"KATL 311952Z 13007KT 10SM BKN055 BKN250 24/12 A3026 RMK AO2 SLP242 T02440117
","Atlanta, Georgia, United States",2021-05-31 20:15:13 UTC
katl_gnd_lg,http://d.liveatc.net/katl_gnd_lg,KATL Ground (Rwys 8/26 9/27),US-Class-B,"KATL 311952Z 13007KT 10SM BKN055 BKN250 24/12 A3026 RMK AO2 SLP242 T02440117
","Atlanta, Georgia, United States",2021-05-31 20:15:13 UTC
katl_gnd_0826,http://d.liveatc.net/katl_gnd_0826,KATL Ground (Rwys 8/26),US-Class-B,"KATL 311952Z 13007KT 10SM BKN055 BKN250 24/12 A3026 RMK AO2 SLP242 T02440117
","Atlanta, Georgia, United States",2021-05-31 20:15:13 UTC
katl_gnd_0927,http://d.liveatc.net/katl_gnd_0927,KATL Ground (Rwys 9/27),US-Class-B,"KATL 311952Z 13007KT 10SM BKN055 BKN250 24/12 A3026 RMK AO2 SLP242 T02440117
","Atlanta, Georgia, United States",2021-05-31 20:15:13 UTC
katl_ramp,http://d.liveatc.net/katl_ramp,KATL Ramp,US-Class-B,"KATL 311952Z 13007KT 10SM BKN055 BKN250 24/12 A3026 RMK AO2 SLP242 T02440117
","Atlanta, Georgia, United States",2021-05-31 20:15:13 UTC
katl_twr,http://d.liveatc.net/katl_twr,KATL Tower,US-Class-B,"KATL 311952Z 13007KT 10SM BKN055 BKN250 24/12 A3026 RMK AO2 SLP242 T02440117
","Atlanta, Georgia, United States",2021-05-31 20:15:13 UTC
katl_twr_1028,http://d.liveatc.net/katl_twr_1028,KATL Tower (Rwy 10/28),US-Class-B,"KATL 311952Z 13007KT 10SM BKN055 BKN250 24/12 A3026 RMK AO2 SLP242 T02440117
","Atlanta, Georgia, United States",2021-05-31 20:15:13 UTC
katl_twr_08l26r,http://d.liveatc.net/katl_twr_08l26r,KATL Tower (Rwy 8L/26R),US-Class-B,"KATL 311952Z 13007KT 10SM BKN055 BKN250 24/12 A3026 RMK AO2 SLP242 T02440117
","Atlanta, Georgia, United States",2021-05-31 20:15:13 UTC
katl_twr_08r26l,http://d.liveatc.net/katl_twr_08r26l,KATL Tower (Rwy 8R/26L),US-Class-B,"KATL 311952Z 13007KT 10SM BKN055 BKN250 24/12 A3026 RMK AO2 SLP242 T02440117
","Atlanta, Georgia, United States",2021-05-31 20:15:13 UTC
katl_twr_08_both,http://d.liveatc.net/katl_twr_08_both,KATL Tower (Rwy 8R/8L/26L/26R),US-Class-B,"KATL 311952Z 13007KT 10SM BKN055 BKN250 24/12 A3026 RMK AO2 SLP242 T02440117
","Atlanta, Georgia, United States",2021-05-31 20:15:13 UTC
katl_twr_09l27r,http://d.liveatc.net/katl_twr_09l27r,KATL Tower (Rwy 9L/27R),US-Class-B,"KATL 311952Z 13007KT 10SM BKN055 BKN250 24/12 A3026 RMK AO2 SLP242 T02440117
","Atlanta, Georgia, United States",2021-05-31 20:15:13 UTC
katl_twr_09r27l,http://d.liveatc.net/katl_twr_09r27l,KATL Tower (Rwy 9R/27L),US-Class-B,"KATL 311952Z 13007KT 10SM BKN055 BKN250 24/12 A3026 RMK AO2 SLP242 T02440117
","Atlanta, Georgia, United States",2021-05-31 20:15:13 UTC
kbdr1,http://d.liveatc.net/kbdr1,KBDR Del/Gnd/Twr/App,US-Class-B,"KBDR 311952Z 34012KT 10SM OVC038 17/09 A3017 RMK AO2 SLP216 T01720094
","Bridgeport, Connecticut, United States",2021-05-31 20:15:13 UTC
kbdr_app,http://d.liveatc.net/kbdr_app,New York Approach (LOVES Sector),US-Class-B,"KBDR 311952Z 34012KT 10SM OVC038 17/09 A3017 RMK AO2 SLP216 T01720094
","Bridgeport, Connecticut, United States",2021-05-31 20:15:13 UTC
kbed_murp_app,http://d.liveatc.net/kbed_murp_app,Boston App/Dep (North Sat) #2,US-Class-B,"KBED 311951Z 29004KT 10SM OVC018 15/12 A3008 RMK AO2 SLP200 T01500117
","Bedford, Massachusetts, United States",2021-05-31 20:15:13 UTC
kbed4_app,http://d.liveatc.net/kbed4_app,Boston App/Dep (North Sat) #3,US-Class-B,"KBED 311951Z 29004KT 10SM OVC018 15/12 A3008 RMK AO2 SLP200 T01500117
","Bedford, Massachusetts, United States",2021-05-31 20:15:13 UTC
kbos_final,http://d.liveatc.net/kbos_final,KBOS App (Final Vector),US-Class-B,"KBOS 311954Z 27006KT 10SM FEW015 OVC020 16/11 A3009 RMK AO2 SLP190 T01610106
","Boston, Massachusetts, United States",2021-05-31 20:15:13 UTC
kbos_app_north,http://d.liveatc.net/kbos_app_north,KBOS App (North/Rockport),US-Class-B,"KBOS 311954Z 27006KT 10SM FEW015 OVC020 16/11 A3009 RMK AO2 SLP190 T01610106
","Boston, Massachusetts, United States",2021-05-31 20:15:13 UTC
kbos_app_south,http://d.liveatc.net/kbos_app_south,KBOS App (South/Plymouth),US-Class-B,"KBOS 311954Z 27006KT 10SM FEW015 OVC020 16/11 A3009 RMK AO2 SLP190 T01610106
","Boston, Massachusetts, United States",2021-05-31 20:15:13 UTC
kbos_heli,http://d.liveatc.net/kbos_heli,KBOS Area Heli/Air-to-Air,US-Class-B,"KBOS 311954Z 27006KT 10SM FEW015 OVC020 16/11 A3009 RMK AO2 SLP190 T01610106
","Boston, Massachusetts, United States",2021-05-31 20:15:13 UTC
kbos_arinc_fs,http://d.liveatc.net/kbos_arinc_fs,KBOS ARINC/Flight Service,US-Class-B,"KBOS 311954Z 27006KT 10SM FEW015 OVC020 16/11 A3009 RMK AO2 SLP190 T01610106
","Boston, Massachusetts, United States",2021-05-31 20:15:13 UTC
kbos_gnd,http://d.liveatc.net/kbos_gnd,KBOS Del/Gnd,US-Class-B,"KBOS 311954Z 27006KT 10SM FEW015 OVC020 16/11 A3009 RMK AO2 SLP190 T01610106
","Boston, Massachusetts, United States",2021-05-31 20:15:13 UTC
kbos_dep,http://d.liveatc.net/kbos_dep,KBOS Dep (ID/Lincoln),US-Class-B,"KBOS 311954Z 27006KT 10SM FEW015 OVC020 16/11 A3009 RMK AO2 SLP190 T01610106
","Boston, Massachusetts, United States",2021-05-31 20:15:13 UTC
kbos_murp_fs,http://d.liveatc.net/kbos_murp_fs,KBOS Flight Watch (FSS),US-Class-B,"KBOS 311954Z 27006KT 10SM FEW015 OVC020 16/11 A3009 RMK AO2 SLP190 T01610106
","Boston, Massachusetts, United States",2021-05-31 20:15:13 UTC
kbos_ramp,http://d.liveatc.net/kbos_ramp,KBOS Ramp,US-Class-B,"KBOS 311954Z 27006KT 10SM FEW015 OVC020 16/11 A3009 RMK AO2 SLP190 T01610106
","Boston, Massachusetts, United States",2021-05-31 20:15:13 UTC
kbos_twr,http://d.liveatc.net/kbos_twr,KBOS Tower,US-Class-B,"KBOS 311954Z 27006KT 10SM FEW015 OVC020 16/11 A3009 RMK AO2 SLP190 T01610106
","Boston, Massachusetts, United States",2021-05-31 20:15:13 UTC
kwhp1_app,http://d.liveatc.net/kwhp1_app,KWHP/KVNY/KBUR App/Dep,US-Class-B,"KWHP 311950Z 09005KT 10SM SKC 23/13 A2998
","Burbank, California, United States",2021-05-31 20:15:13 UTC
kbwi1_pi_atis,http://d.liveatc.net/kbwi1_pi_atis,KBWI ATIS,US-Class-B,"KBWI 311954Z VRB03KT 10SM FEW050 FEW250 24/07 A3023 RMK AO2 SLP237 T02440067
","Baltimore, Maryland, United States",2021-05-31 20:15:13 UTC
kbwi_gnd,http://d.liveatc.net/kbwi_gnd,KBWI Del/Gnd/FBO,US-Class-B,"KBWI 311954Z VRB03KT 10SM FEW050 FEW250 24/07 A3023 RMK AO2 SLP237 T02440067
","Baltimore, Maryland, United States",2021-05-31 20:15:13 UTC
kbwi_twr,http://d.liveatc.net/kbwi_twr,KBWI Tower,US-Class-B,"KBWI 311954Z VRB03KT 10SM FEW050 FEW250 24/07 A3023 RMK AO2 SLP237 T02440067
","Baltimore, Maryland, United States",2021-05-31 20:15:13 UTC
kmrb1_app_belay,http://d.liveatc.net/kmrb1_app_belay,Potomac App (BELAY),US-Class-B,"KMRB 311953Z VRB03KT 10SM CLR 23/05 A3024 RMK AO2 SLP239 T02280050
","Baltimore, Maryland, United States",2021-05-31 20:15:13 UTC
kbwi_adiz,http://d.liveatc.net/kbwi_adiz,Potomac App (DC ADIZ),US-Class-B,"KBWI 311954Z VRB03KT 10SM FEW050 FEW250 24/07 A3023 RMK AO2 SLP237 T02440067
","Baltimore, Maryland, United States",2021-05-31 20:15:13 UTC
kbwi_final,http://d.liveatc.net/kbwi_final,Potomac App (Final),US-Class-B,"KBWI 311954Z VRB03KT 10SM FEW050 FEW250 24/07 A3023 RMK AO2 SLP237 T02440067
","Baltimore, Maryland, United States",2021-05-31 20:15:13 UTC
kbwi_graco,http://d.liveatc.net/kbwi_graco,Potomac App (GRACO/PALEO),US-Class-B,"KBWI 311954Z VRB03KT 10SM FEW050 FEW250 24/07 A3023 RMK AO2 SLP237 T02440067
","Baltimore, Maryland, United States",2021-05-31 20:15:13 UTC
kbwi_wooly,http://d.liveatc.net/kbwi_wooly,Potomac App (WOOLY) #1,US-Class-B,"KBWI 311954Z VRB03KT 10SM FEW050 FEW250 24/07 A3023 RMK AO2 SLP237 T02440067
","Baltimore, Maryland, United States",2021-05-31 20:15:13 UTC
kbwi1_pi_wooly,http://d.liveatc.net/kbwi1_pi_wooly,Potomac App (WOOLY) #2,US-Class-B,"KBWI 311954Z VRB03KT 10SM FEW050 FEW250 24/07 A3023 RMK AO2 SLP237 T02440067
","Baltimore, Maryland, United States",2021-05-31 20:15:13 UTC
kmrb1_app_buffr,http://d.liveatc.net/kmrb1_app_buffr,Potomac App/Dep (BUFFR),US-Class-B,"KMRB 311953Z VRB03KT 10SM CLR 23/05 A3024 RMK AO2 SLP239 T02280050
","Baltimore, Maryland, United States",2021-05-31 20:15:13 UTC
kcco1_app,http://d.liveatc.net/kcco1_app,KATL Approach (South Sat),US-Class-B,"KCCO 311935Z AUTO 16008KT 10SM SCT050 27/10 A3026 RMK AO2 T02670099
","Atlanta, Georgia, United States",2021-05-31 20:15:13 UTC
kcle3_app,http://d.liveatc.net/kcle3_app,KCLE Approach,US-Class-B,"KCLE 311951Z 33006KT 10SM FEW150 BKN250 22/07 A3025 RMK AO2 SLP260 T02170067 $
","Cleveland, Ohio, United States",2021-05-31 20:15:13 UTC
kcle3_atis,http://d.liveatc.net/kcle3_atis,KCLE ATIS,US-Class-B,"KCLE 311951Z 33006KT 10SM FEW150 BKN250 22/07 A3025 RMK AO2 SLP260 T02170067 $
","Cleveland, Ohio, United States",2021-05-31 20:15:13 UTC
kcle3_del,http://d.liveatc.net/kcle3_del,KCLE Clearance Delivery,US-Class-B,"KCLE 311951Z 33006KT 10SM FEW150 BKN250 22/07 A3025 RMK AO2 SLP260 T02170067 $
","Cleveland, Ohio, United States",2021-05-31 20:15:13 UTC
kcle3_dep,http://d.liveatc.net/kcle3_dep,KCLE Departure,US-Class-B,"KCLE 311951Z 33006KT 10SM FEW150 BKN250 22/07 A3025 RMK AO2 SLP260 T02170067 $
","Cleveland, Ohio, United States",2021-05-31 20:15:13 UTC
kcle3_gnd,http://d.liveatc.net/kcle3_gnd,KCLE Ground,US-Class-B,"KCLE 311951Z 33006KT 10SM FEW150 BKN250 22/07 A3025 RMK AO2 SLP260 T02170067 $
","Cleveland, Ohio, United States",2021-05-31 20:15:13 UTC
kcle3_twr,http://d.liveatc.net/kcle3_twr,KCLE Tower,US-Class-B,"KCLE 311951Z 33006KT 10SM FEW150 BKN250 22/07 A3025 RMK AO2 SLP260 T02170067 $
","Cleveland, Ohio, United States",2021-05-31 20:15:13 UTC
kcle3_unicom,http://d.liveatc.net/kcle3_unicom,KCLE UNICOM,US-Class-B,"KCLE 311951Z 33006KT 10SM FEW150 BKN250 22/07 A3025 RMK AO2 SLP260 T02170067 $
","Cleveland, Ohio, United States",2021-05-31 20:15:13 UTC
kclt2,http://d.liveatc.net/kclt2,KCLT Approach/Departure,US-Class-B,"KCLT 311952Z 20004KT 10SM SCT050 BKN250 23/11 A3030 RMK AO2 SLP254 T02330106
","Charlotte, North Carolina, United States",2021-05-31 20:15:13 UTC
kclt_gnd,http://d.liveatc.net/kclt_gnd,KCLT Del/Gnd,US-Class-B,"KCLT 311952Z 20004KT 10SM SCT050 BKN250 23/11 A3030 RMK AO2 SLP254 T02330106
","Charlotte, North Carolina, United States",2021-05-31 20:15:13 UTC
kclt1,http://d.liveatc.net/kclt1,KCLT Del/Gnd/Twr,US-Class-B,"KCLT 311952Z 20004KT 10SM SCT050 BKN250 23/11 A3030 RMK AO2 SLP254 T02330106
","Charlotte, North Carolina, United States",2021-05-31 20:15:13 UTC
kclt_twr,http://d.liveatc.net/kclt_twr,KCLT Tower,US-Class-B,"KCLT 311952Z 20004KT 10SM SCT050 BKN250 23/11 A3030 RMK AO2 SLP254 T02330106
","Charlotte, North Carolina, United States",2021-05-31 20:15:13 UTC
kcvg1_app_classb,http://d.liveatc.net/kcvg1_app_classb,KCVG Approach (Class B),US-Class-B,"KCVG 311952Z 16008KT 10SM FEW180 BKN250 22/08 A3026 RMK AO2 SLP241 T02220078 VISNO 36R $
","Covington, Kentucky, United States",2021-05-31 20:15:13 UTC
kcvg1_app_final,http://d.liveatc.net/kcvg1_app_final,KCVG Approach (Final),US-Class-B,"KCVG 311952Z 16008KT 10SM FEW180 BKN250 22/08 A3026 RMK AO2 SLP241 T02220078 VISNO 36R $
","Covington, Kentucky, United States",2021-05-31 20:15:13 UTC
kcvg1_app_n,http://d.liveatc.net/kcvg1_app_n,KCVG Approach (North),US-Class-B,"KCVG 311952Z 16008KT 10SM FEW180 BKN250 22/08 A3026 RMK AO2 SLP241 T02220078 VISNO 36R $
","Covington, Kentucky, United States",2021-05-31 20:15:13 UTC
kcvg1_app_s,http://d.liveatc.net/kcvg1_app_s,KCVG Approach (South),US-Class-B,"KCVG 311952Z 16008KT 10SM FEW180 BKN250 22/08 A3026 RMK AO2 SLP241 T02220078 VISNO 36R $
","Covington, Kentucky, United States",2021-05-31 20:15:13 UTC
kcvg1_atis_arr,http://d.liveatc.net/kcvg1_atis_arr,KCVG ATIS (Arrival),US-Class-B,"KCVG 311952Z 16008KT 10SM FEW180 BKN250 22/08 A3026 RMK AO2 SLP241 T02220078 VISNO 36R $
","Covington, Kentucky, United States",2021-05-31 20:15:13 UTC
kcvg1_atis_dep,http://d.liveatc.net/kcvg1_atis_dep,KCVG ATIS (Departure),US-Class-B,"KCVG 311952Z 16008KT 10SM FEW180 BKN250 22/08 A3026 RMK AO2 SLP241 T02220078 VISNO 36R $
","Covington, Kentucky, United States",2021-05-31 20:15:13 UTC
kcvg2_del,http://d.liveatc.net/kcvg2_del,KCVG Clearance Delivery,US-Class-B,"KCVG 311952Z 16008KT 10SM FEW180 BKN250 22/08 A3026 RMK AO2 SLP241 T02220078 VISNO 36R $
","Covington, Kentucky, United States",2021-05-31 20:15:13 UTC
kcvg2_dep_e,http://d.liveatc.net/kcvg2_dep_e,KCVG Departure (East),US-Class-B,"KCVG 311952Z 16008KT 10SM FEW180 BKN250 22/08 A3026 RMK AO2 SLP241 T02220078 VISNO 36R $
","Covington, Kentucky, United States",2021-05-31 20:15:13 UTC
kcvg2_dep,http://d.liveatc.net/kcvg2_dep,KCVG Departure (East/West),US-Class-B,"KCVG 311952Z 16008KT 10SM FEW180 BKN250 22/08 A3026 RMK AO2 SLP241 T02220078 VISNO 36R $
","Covington, Kentucky, United States",2021-05-31 20:15:13 UTC
kcvg2_dep_w,http://d.liveatc.net/kcvg2_dep_w,KCVG Departure (West),US-Class-B,"KCVG 311952Z 16008KT 10SM FEW180 BKN250 22/08 A3026 RMK AO2 SLP241 T02220078 VISNO 36R $
","Covington, Kentucky, United States",2021-05-31 20:15:13 UTC
kcvg1_gnd,http://d.liveatc.net/kcvg1_gnd,KCVG Ground,US-Class-B,"KCVG 311952Z 16008KT 10SM FEW180 BKN250 22/08 A3026 RMK AO2 SLP241 T02220078 VISNO 36R $
","Covington, Kentucky, United States",2021-05-31 20:15:13 UTC
kcvg2_co,http://d.liveatc.net/kcvg2_co,KCVG Ramp/Company,US-Class-B,"KCVG 311952Z 16008KT 10SM FEW180 BKN250 22/08 A3026 RMK AO2 SLP241 T02220078 VISNO 36R $
","Covington, Kentucky, United States",2021-05-31 20:15:13 UTC
kcvg1_twr_all,http://d.liveatc.net/kcvg1_twr_all,KCVG Tower (All),US-Class-B,"KCVG 311952Z 16008KT 10SM FEW180 BKN250 22/08 A3026 RMK AO2 SLP241 T02220078 VISNO 36R $
","Covington, Kentucky, United States",2021-05-31 20:15:13 UTC
kcvg1_twr_c,http://d.liveatc.net/kcvg1_twr_c,KCVG Tower (Center),US-Class-B,"KCVG 311952Z 16008KT 10SM FEW180 BKN250 22/08 A3026 RMK AO2 SLP241 T02220078 VISNO 36R $
","Covington, Kentucky, United States",2021-05-31 20:15:13 UTC
kcvg1_twr_e,http://d.liveatc.net/kcvg1_twr_e,KCVG Tower (East),US-Class-B,"KCVG 311952Z 16008KT 10SM FEW180 BKN250 22/08 A3026 RMK AO2 SLP241 T02220078 VISNO 36R $
","Covington, Kentucky, United States",2021-05-31 20:15:13 UTC
kcvg1_twr_w,http://d.liveatc.net/kcvg1_twr_w,KCVG Tower (West),US-Class-B,"KCVG 311952Z 16008KT 10SM FEW180 BKN250 22/08 A3026 RMK AO2 SLP241 T02220078 VISNO 36R $
","Covington, Kentucky, United States",2021-05-31 20:15:13 UTC
kdaa2_twr,http://d.liveatc.net/kdaa2_twr,KDAA/KADW Tower,US-Class-B,"KDAA 311956Z AUTO 02004KT 10SM CLR 24/08 A3025 RMK AO2 SLP246 T02360084 $
","Fort Belvoir, Virginia, United States",2021-05-31 20:15:13 UTC
kdfw1_app_124300,http://d.liveatc.net/kdfw1_app_124300,KDAL App/Dep (East Side North Low),US-Class-B,"KDFW 311953Z 12005KT 10SM OVC085 23/20 A3004 RMK AO2 LTG DSNT SW SLP167 T02330200
","Dallas, Texas, United States",2021-05-31 20:15:13 UTC
kdal_atis,http://d.liveatc.net/kdal_atis,KDAL ATIS,US-Class-B,"KDAL 311953Z 12009KT 10SM FEW050 BKN080 OVC130 24/19 A3005 RMK AO2 SLP170 OCNL LTGIC CB DSNT S-SW MOV NE T02390194
","Dallas, Texas, United States",2021-05-31 20:15:13 UTC
kdal_del,http://d.liveatc.net/kdal_del,KDAL Clearance Delivery,US-Class-B,"KDAL 311953Z 12009KT 10SM FEW050 BKN080 OVC130 24/19 A3005 RMK AO2 SLP170 OCNL LTGIC CB DSNT S-SW MOV NE T02390194
","Dallas, Texas, United States",2021-05-31 20:15:13 UTC
kdal_guard,http://d.liveatc.net/kdal_guard,KDAL Emergency/Guard,US-Class-B,"KDAL 311953Z 12009KT 10SM FEW050 BKN080 OVC130 24/19 A3005 RMK AO2 SLP170 OCNL LTGIC CB DSNT S-SW MOV NE T02390194
","Dallas, Texas, United States",2021-05-31 20:15:13 UTC
kdal_gnd,http://d.liveatc.net/kdal_gnd,KDAL Ground,US-Class-B,"KDAL 311953Z 12009KT 10SM FEW050 BKN080 OVC130 24/19 A3005 RMK AO2 SLP170 OCNL LTGIC CB DSNT S-SW MOV NE T02390194
","Dallas, Texas, United States",2021-05-31 20:15:13 UTC
kdal_twr,http://d.liveatc.net/kdal_twr,KDAL Tower,US-Class-B,"KDAL 311953Z 12009KT 10SM FEW050 BKN080 OVC130 24/19 A3005 RMK AO2 SLP170 OCNL LTGIC CB DSNT S-SW MOV NE T02390194
","Dallas, Texas, United States",2021-05-31 20:15:13 UTC
kdca1_gnd,http://d.liveatc.net/kdca1_gnd,KDCA Ground,US-Class-B,"KDCA 311952Z 00000KT 10SM FEW050 SCT250 23/08 A3025 RMK AO2 SLP244 T02330078
","Washington, District of Columbia, United States",2021-05-31 20:15:13 UTC
kmrb1_app_luray,http://d.liveatc.net/kmrb1_app_luray,KDCA Potomac App (LURAY),US-Class-B,"KMRB 311953Z VRB03KT 10SM CLR 23/05 A3024 RMK AO2 SLP239 T02280050
","Washington, District of Columbia, United States",2021-05-31 20:15:13 UTC
kdca3,http://d.liveatc.net/kdca3,KDCA Potomac App/Dep,US-Class-B,"KDCA 311952Z 00000KT 10SM FEW050 SCT250 23/08 A3025 RMK AO2 SLP244 T02330078
","Washington, District of Columbia, United States",2021-05-31 20:15:13 UTC
kdca1_dep_e,http://d.liveatc.net/kdca1_dep_e,KDCA Potomac App/Dep (KRANT),US-Class-B,"KDCA 311952Z 00000KT 10SM FEW050 SCT250 23/08 A3025 RMK AO2 SLP244 T02330078
","Washington, District of Columbia, United States",2021-05-31 20:15:13 UTC
kdca1_app_final,http://d.liveatc.net/kdca1_app_final,KDCA Potomac Approach (DCA Final),US-Class-B,"KDCA 311952Z 00000KT 10SM FEW050 SCT250 23/08 A3025 RMK AO2 SLP244 T02330078
","Washington, District of Columbia, United States",2021-05-31 20:15:13 UTC
kdca1_dep,http://d.liveatc.net/kdca1_dep,KDCA Potomac Departure,US-Class-B,"KDCA 311952Z 00000KT 10SM FEW050 SCT250 23/08 A3025 RMK AO2 SLP244 T02330078
","Washington, District of Columbia, United States",2021-05-31 20:15:13 UTC
kdca2_twr,http://d.liveatc.net/kdca2_twr,KDCA Tower #1,US-Class-B,"KDCA 311952Z 00000KT 10SM FEW050 SCT250 23/08 A3025 RMK AO2 SLP244 T02330078
","Washington, District of Columbia, United States",2021-05-31 20:15:13 UTC
kdca1_twr,http://d.liveatc.net/kdca1_twr,KDCA Tower #2,US-Class-B,"KDCA 311952Z 00000KT 10SM FEW050 SCT250 23/08 A3025 RMK AO2 SLP244 T02330078
","Washington, District of Columbia, United States",2021-05-31 20:15:13 UTC
kdca1_heli,http://d.liveatc.net/kdca1_heli,KDCA Tower (Helicopters),US-Class-B,"KDCA 311952Z 00000KT 10SM FEW050 SCT250 23/08 A3025 RMK AO2 SLP244 T02330078
","Washington, District of Columbia, United States",2021-05-31 20:15:13 UTC
kdca,http://d.liveatc.net/kdca,KDCA Tower/Approach,US-Class-B,"KDCA 311952Z 00000KT 10SM FEW050 SCT250 23/08 A3025 RMK AO2 SLP244 T02330078
","Washington, District of Columbia, United States",2021-05-31 20:15:13 UTC
kdca1_twr_heli,http://d.liveatc.net/kdca1_twr_heli,KDCA Tower/Heli,US-Class-B,"KDCA 311952Z 00000KT 10SM FEW050 SCT250 23/08 A3025 RMK AO2 SLP244 T02330078
","Washington, District of Columbia, United States",2021-05-31 20:15:13 UTC
kden1_1,http://d.liveatc.net/kden1_1,KDEN Approach,US-Class-B,"KDEN 311953Z 04004KT 10SM SCT025 SCT033 BKN047 14/09 A3028 RMK AO2 SLP217 T01390089
","Denver, Colorado, United States",2021-05-31 20:15:13 UTC
kden1_9,http://d.liveatc.net/kden1_9,KDEN Clearance/Ground,US-Class-B,"KDEN 311953Z 04004KT 10SM SCT025 SCT033 BKN047 14/09 A3028 RMK AO2 SLP217 T01390089
","Denver, Colorado, United States",2021-05-31 20:15:13 UTC
kden1_2,http://d.liveatc.net/kden1_2,KDEN Departure,US-Class-B,"KDEN 311953Z 04004KT 10SM SCT025 SCT033 BKN047 14/09 A3028 RMK AO2 SLP217 T01390089
","Denver, Colorado, United States",2021-05-31 20:15:13 UTC
kden1_3,http://d.liveatc.net/kden1_3,KDEN Tower,US-Class-B,"KDEN 311953Z 04004KT 10SM SCT025 SCT033 BKN047 14/09 A3028 RMK AO2 SLP217 T01390089
","Denver, Colorado, United States",2021-05-31 20:15:13 UTC
kdfw1_atis_arr,http://d.liveatc.net/kdfw1_atis_arr,KDFW ATIS (Arrival),US-Class-B,"KDFW 311953Z 12005KT 10SM OVC085 23/20 A3004 RMK AO2 LTG DSNT SW SLP167 T02330200
","Dallas, Texas, United States",2021-05-31 20:15:13 UTC
kdfw2_del,http://d.liveatc.net/kdfw2_del,KDFW Clearance Delivery,US-Class-B,"KDFW 311953Z 12005KT 10SM OVC085 23/20 A3004 RMK AO2 LTG DSNT SW SLP167 T02330200
","Dallas, Texas, United States",2021-05-31 20:15:13 UTC
kdfw1_gnd_e_12165,http://d.liveatc.net/kdfw1_gnd_e_12165,KDFW Ground (East/121.65),US-Class-B,"KDFW 311953Z 12005KT 10SM OVC085 23/20 A3004 RMK AO2 LTG DSNT SW SLP167 T02330200
","Dallas, Texas, United States",2021-05-31 20:15:13 UTC
kdfw1_gnd_e_1218,http://d.liveatc.net/kdfw1_gnd_e_1218,KDFW Ground (East/121.8),US-Class-B,"KDFW 311953Z 12005KT 10SM OVC085 23/20 A3004 RMK AO2 LTG DSNT SW SLP167 T02330200
","Dallas, Texas, United States",2021-05-31 20:15:13 UTC
kdfw1_gnd_w,http://d.liveatc.net/kdfw1_gnd_w,KDFW Ground (West),US-Class-B,"KDFW 311953Z 12005KT 10SM OVC085 23/20 A3004 RMK AO2 LTG DSNT SW SLP167 T02330200
","Dallas, Texas, United States",2021-05-31 20:15:13 UTC
kdfw1_app_fin_17c,http://d.liveatc.net/kdfw1_app_fin_17c,KDFW Reg App 17/35C Final,US-Class-B,"KDFW 311953Z 12005KT 10SM OVC085 23/20 A3004 RMK AO2 LTG DSNT SW SLP167 T02330200
","Dallas, Texas, United States",2021-05-31 20:15:13 UTC
kdfw1_app_fin_17l,http://d.liveatc.net/kdfw1_app_fin_17l,KDFW Reg App 17L/35R Final,US-Class-B,"KDFW 311953Z 12005KT 10SM OVC085 23/20 A3004 RMK AO2 LTG DSNT SW SLP167 T02330200
","Dallas, Texas, United States",2021-05-31 20:15:13 UTC
kdfw1_app_fin_18r,http://d.liveatc.net/kdfw1_app_fin_18r,KDFW Reg App 18R/36L Final,US-Class-B,"KDFW 311953Z 12005KT 10SM OVC085 23/20 A3004 RMK AO2 LTG DSNT SW SLP167 T02330200
","Dallas, Texas, United States",2021-05-31 20:15:13 UTC
kdfw1_app_fe1,http://d.liveatc.net/kdfw1_app_fe1,KDFW Reg App Feeder (East),US-Class-B,"KDFW 311953Z 12005KT 10SM OVC085 23/20 A3004 RMK AO2 LTG DSNT SW SLP167 T02330200
","Dallas, Texas, United States",2021-05-31 20:15:13 UTC
kdfw1_app_feeder_west1,http://d.liveatc.net/kdfw1_app_feeder_west1,KDFW Reg App Feeder (West),US-Class-B,"KDFW 311953Z 12005KT 10SM OVC085 23/20 A3004 RMK AO2 LTG DSNT SW SLP167 T02330200
","Dallas, Texas, United States",2021-05-31 20:15:13 UTC
kdfw1_dep_east,http://d.liveatc.net/kdfw1_dep_east,KDFW Reg Dep (East),US-Class-B,"KDFW 311953Z 12005KT 10SM OVC085 23/20 A3004 RMK AO2 LTG DSNT SW SLP167 T02330200
","Dallas, Texas, United States",2021-05-31 20:15:13 UTC
kdfw1_dep_n_s,http://d.liveatc.net/kdfw1_dep_n_s,KDFW Reg Dep (North/South),US-Class-B,"KDFW 311953Z 12005KT 10SM OVC085 23/20 A3004 RMK AO2 LTG DSNT SW SLP167 T02330200
","Dallas, Texas, United States",2021-05-31 20:15:13 UTC
kdfw1_dep_w,http://d.liveatc.net/kdfw1_dep_w,KDFW Reg Dep (West),US-Class-B,"KDFW 311953Z 12005KT 10SM OVC085 23/20 A3004 RMK AO2 LTG DSNT SW SLP167 T02330200
","Dallas, Texas, United States",2021-05-31 20:15:13 UTC
kdfw1_twr1_e,http://d.liveatc.net/kdfw1_twr1_e,KDFW Tower (East),US-Class-B,"KDFW 311953Z 12005KT 10SM OVC085 23/20 A3004 RMK AO2 LTG DSNT SW SLP167 T02330200
","Dallas, Texas, United States",2021-05-31 20:15:13 UTC
kdfw1_twr1_w,http://d.liveatc.net/kdfw1_twr1_w,KDFW Tower (West),US-Class-B,"KDFW 311953Z 12005KT 10SM OVC085 23/20 A3004 RMK AO2 LTG DSNT SW SLP167 T02330200
","Dallas, Texas, United States",2021-05-31 20:15:13 UTC
kdfw2_twr2_w,http://d.liveatc.net/kdfw2_twr2_w,KDFW Tower (West/Rwy 13R/31L),US-Class-B,"KDFW 311953Z 12005KT 10SM OVC085 23/20 A3004 RMK AO2 LTG DSNT SW SLP167 T02330200
","Dallas, Texas, United States",2021-05-31 20:15:13 UTC
kord_app_dpa2,http://d.liveatc.net/kord_app_dpa2,KDPA Chicago Approach,US-Class-B,"KORD 311951Z 21011KT 10SM FEW060 SCT170 OVC250 21/07 A3022 RMK AO2 SLP233 VIRGA S T02110067
","Chicago, Illinois, United States",2021-05-31 20:15:13 UTC
kewr3_atis,http://d.liveatc.net/kewr3_atis,KEWR ATIS,US-Class-B,"KEWR 311951Z 32010G18KT 10SM FEW040 SCT049 22/08 A3017 RMK AO2 SLP217 T02220078
","Newark, New York, United States",2021-05-31 20:15:13 UTC
kewr2_del,http://d.liveatc.net/kewr2_del,KEWR Clearance Delivery,US-Class-B,"KEWR 311951Z 32010G18KT 10SM FEW040 SCT049 22/08 A3017 RMK AO2 SLP217 T02220078
","Newark, New Jersey, United States",2021-05-31 20:15:13 UTC
kewr2_gnd,http://d.liveatc.net/kewr2_gnd,KEWR Ground,US-Class-B,"KEWR 311951Z 32010G18KT 10SM FEW040 SCT049 22/08 A3017 RMK AO2 SLP217 T02220078
","Newark, New Jersey, United States",2021-05-31 20:15:13 UTC
kewr2_gnd2,http://d.liveatc.net/kewr2_gnd2,KEWR Ground (Pre-Taxi),US-Class-B,"KEWR 311951Z 32010G18KT 10SM FEW040 SCT049 22/08 A3017 RMK AO2 SLP217 T02220078
","Newark, New Jersey, United States",2021-05-31 20:15:13 UTC
kewr3_app_ard,http://d.liveatc.net/kewr3_app_ard,KEWR NY App (ARD Sector) #1,US-Class-B,"KEWR 311951Z 32010G18KT 10SM FEW040 SCT049 22/08 A3017 RMK AO2 SLP217 T02220078
","Newark, New York, United States",2021-05-31 20:15:13 UTC
kewr2_app_sat,http://d.liveatc.net/kewr2_app_sat,KEWR NY App (EWR Satellite),US-Class-B,"KEWR 311951Z 32010G18KT 10SM FEW040 SCT049 22/08 A3017 RMK AO2 SLP217 T02220078
","Newark, New Jersey, United States",2021-05-31 20:15:13 UTC
kewr2_app_mugzy,http://d.liveatc.net/kewr2_app_mugzy,KEWR NY App (MUGZY Sector) #1,US-Class-B,"KEWR 311951Z 32010G18KT 10SM FEW040 SCT049 22/08 A3017 RMK AO2 SLP217 T02220078
","Newark, New Jersey, United States",2021-05-31 20:15:13 UTC
kewr2_app_n_arr,http://d.liveatc.net/kewr2_app_n_arr,KEWR NY App (N. Arrival) #1,US-Class-B,"KEWR 311951Z 32010G18KT 10SM FEW040 SCT049 22/08 A3017 RMK AO2 SLP217 T02220078
","Newark, New Jersey, United States",2021-05-31 20:15:13 UTC
kewr2_dep,http://d.liveatc.net/kewr2_dep,KEWR NY Departure #2,US-Class-B,"KEWR 311951Z 32010G18KT 10SM FEW040 SCT049 22/08 A3017 RMK AO2 SLP217 T02220078
","Newark, New Jersey, United States",2021-05-31 20:15:13 UTC
kewr2_twr,http://d.liveatc.net/kewr2_twr,KEWR Tower #2,US-Class-B,"KEWR 311951Z 32010G18KT 10SM FEW040 SCT049 22/08 A3017 RMK AO2 SLP217 T02220078
","Newark, New Jersey, United States",2021-05-31 20:15:13 UTC
kewr2_twr_tca,http://d.liveatc.net/kewr2_twr_tca,KEWR Tower (TCA),US-Class-B,"KEWR 311951Z 32010G18KT 10SM FEW040 SCT049 22/08 A3017 RMK AO2 SLP217 T02220078
","Newark, New Jersey, United States",2021-05-31 20:15:13 UTC
kewr2_dep_lib_s,http://d.liveatc.net/kewr2_dep_lib_s,NY Departure (Liberty South) #1,US-Class-B,"KEWR 311951Z 32010G18KT 10SM FEW040 SCT049 22/08 A3017 RMK AO2 SLP217 T02220078
","Newark, New Jersey, United States",2021-05-31 20:15:13 UTC
kewr2_dep_lib_w,http://d.liveatc.net/kewr2_dep_lib_w,NY Departure (Liberty West) #1,US-Class-B,"KEWR 311951Z 32010G18KT 10SM FEW040 SCT049 22/08 A3017 RMK AO2 SLP217 T02220078
","Newark, New Jersey, United States",2021-05-31 20:15:13 UTC
kmia3_fll_dep,http://d.liveatc.net/kmia3_fll_dep,KFLL Departure,US-Class-B,"KMIA 311953Z 07013KT 10SM SCT024 SCT180 BKN250 29/22 A3010 RMK SLP193 T02890222
","Fort Lauderdale, Florida, United States",2021-05-31 20:15:13 UTC
kmia3_app_133775,http://d.liveatc.net/kmia3_app_133775,KMIA Approach (KFLL),US-Class-B,"KMIA 311953Z 07013KT 10SM SCT024 SCT180 BKN250 29/22 A3010 RMK SLP193 T02890222
","Miami, Florida, United States",2021-05-31 20:15:13 UTC
kryy1_atlapp_121000,http://d.liveatc.net/kryy1_atlapp_121000,Atlanta Approach (N. Sat),US-Class-B,"KRYY 311950Z 16004KT 10SM BKN049 24/13 A3028 RMK AO2 SLP971 T02440128 $
","Atlanta, Georgia, United States",2021-05-31 20:15:13 UTC
khou1,http://d.liveatc.net/khou1,KHOU Gnd/Twr/App,US-Class-B,"KHOU 311953Z 12010KT 10SM SCT030 BKN250 30/21 A3006 RMK AO2 SLP182 T03000206
","Houston, Texas, United States",2021-05-31 20:15:13 UTC
khpn2,http://d.liveatc.net/khpn2,NY Approach (NOBBI/NYACK/HAARP),US-Class-B,"KHPN 311956Z 32009KT 10SM BKN034 BKN045 18/11 A3018 RMK AO2 SLP218 T01780106
","New York, New York, United States",2021-05-31 20:15:13 UTC
kiad2_3,http://d.liveatc.net/kiad2_3,KIAD App (Final East),US-Class-B,"KIAD 311952Z 30007KT 10SM FEW050 FEW250 23/08 A3026 RMK AO2 SLP245 T02280083
","Washington, District of Columbia, United States",2021-05-31 20:15:13 UTC
kmrb1_kiad_n_arr,http://d.liveatc.net/kmrb1_kiad_n_arr,KIAD App (North Arr Hi),US-Class-B,"KMRB 311953Z VRB03KT 10SM CLR 23/05 A3024 RMK AO2 SLP239 T02280050
","Washington, District of Columbia, United States",2021-05-31 20:15:13 UTC
kiad2_1,http://d.liveatc.net/kiad2_1,KIAD Approach (North Arrival MULRR),US-Class-B,"KIAD 311952Z 30007KT 10SM FEW050 FEW250 23/08 A3026 RMK AO2 SLP245 T02280083
","Washington, District of Columbia, United States",2021-05-31 20:15:13 UTC
kiad2_4,http://d.liveatc.net/kiad2_4,KIAD Area - SFRA West,US-Class-B,"KIAD 311952Z 30007KT 10SM FEW050 FEW250 23/08 A3026 RMK AO2 SLP245 T02280083
","Washington, District of Columbia, United States",2021-05-31 20:15:13 UTC
kiad2_2,http://d.liveatc.net/kiad2_2,KIAD Departure,US-Class-B,"KIAD 311952Z 30007KT 10SM FEW050 FEW250 23/08 A3026 RMK AO2 SLP245 T02280083
","Washington, District of Columbia, United States",2021-05-31 20:15:13 UTC
kiah1_2,http://d.liveatc.net/kiah1_2,KIAH Approach,US-Class-B,"KIAH 311953Z 14014KT 10SM SCT034 BKN060 OVC250 31/22 A3006 RMK AO2 SLP178 T03060217
","Houston, Texas, United States",2021-05-31 20:15:13 UTC
kiah2_atis_const,http://d.liveatc.net/kiah2_atis_const,KIAH ATIS (Construction),US-Class-B,"KIAH 311953Z 14014KT 10SM SCT034 BKN060 OVC250 31/22 A3006 RMK AO2 SLP178 T03060217
","Houston, Texas, United States",2021-05-31 20:15:13 UTC
kiah2_atis_main,http://d.liveatc.net/kiah2_atis_main,KIAH ATIS (Main),US-Class-B,"KIAH 311953Z 14014KT 10SM SCT034 BKN060 OVC250 31/22 A3006 RMK AO2 SLP178 T03060217
","Houston, Texas, United States",2021-05-31 20:15:13 UTC
kiah3_del,http://d.liveatc.net/kiah3_del,KIAH Clearance Delivery,US-Class-B,"KIAH 311953Z 14014KT 10SM SCT034 BKN060 OVC250 31/22 A3006 RMK AO2 SLP178 T03060217
","Houston, Texas, United States",2021-05-31 20:15:13 UTC
kiah2_gnd_n,http://d.liveatc.net/kiah2_gnd_n,KIAH Gnd (North/Rwys 8/26LR),US-Class-B,"KIAH 311953Z 14014KT 10SM SCT034 BKN060 OVC250 31/22 A3006 RMK AO2 SLP178 T03060217
","Houston, Texas, United States",2021-05-31 20:15:13 UTC
kiah2_gnd_s,http://d.liveatc.net/kiah2_gnd_s,KIAH Gnd (South/Rwy 9/27),US-Class-B,"KIAH 311953Z 14014KT 10SM SCT034 BKN060 OVC250 31/22 A3006 RMK AO2 SLP178 T03060217
","Houston, Texas, United States",2021-05-31 20:15:13 UTC
kiah2_gnd_w,http://d.liveatc.net/kiah2_gnd_w,KIAH Gnd (West/Rwys 15/33LR),US-Class-B,"KIAH 311953Z 14014KT 10SM SCT034 BKN060 OVC250 31/22 A3006 RMK AO2 SLP178 T03060217
","Houston, Texas, United States",2021-05-31 20:15:13 UTC
kiah2_meter,http://d.liveatc.net/kiah2_meter,KIAH Metering,US-Class-B,"KIAH 311953Z 14014KT 10SM SCT034 BKN060 OVC250 31/22 A3006 RMK AO2 SLP178 T03060217
","Houston, Texas, United States",2021-05-31 20:15:13 UTC
kiah3_ramp_n,http://d.liveatc.net/kiah3_ramp_n,KIAH Ramp (North),US-Class-B,"KIAH 311953Z 14014KT 10SM SCT034 BKN060 OVC250 31/22 A3006 RMK AO2 SLP178 T03060217
","Houston, Texas, United States",2021-05-31 20:15:13 UTC
kiah3_ramp_s,http://d.liveatc.net/kiah3_ramp_s,KIAH Ramp (South),US-Class-B,"KIAH 311953Z 14014KT 10SM SCT034 BKN060 OVC250 31/22 A3006 RMK AO2 SLP178 T03060217
","Houston, Texas, United States",2021-05-31 20:15:13 UTC
kiah2_ramp_w,http://d.liveatc.net/kiah2_ramp_w,KIAH Ramp (West),US-Class-B,"KIAH 311953Z 14014KT 10SM SCT034 BKN060 OVC250 31/22 A3006 RMK AO2 SLP178 T03060217
","Houston, Texas, United States",2021-05-31 20:15:13 UTC
kiah1_1,http://d.liveatc.net/kiah1_1,KIAH Tower,US-Class-B,"KIAH 311953Z 14014KT 10SM SCT034 BKN060 OVC250 31/22 A3006 RMK AO2 SLP178 T03060217
","Houston, Texas, United States",2021-05-31 20:15:13 UTC
kiah2_twr_8l26r,http://d.liveatc.net/kiah2_twr_8l26r,KIAH Twr (Rwy 8L/26R),US-Class-B,"KIAH 311953Z 14014KT 10SM SCT034 BKN060 OVC250 31/22 A3006 RMK AO2 SLP178 T03060217
","Houston, Texas, United States",2021-05-31 20:15:13 UTC
kiah2_twr_8r26l,http://d.liveatc.net/kiah2_twr_8r26l,KIAH Twr (Rwy 8R/26L),US-Class-B,"KIAH 311953Z 14014KT 10SM SCT034 BKN060 OVC250 31/22 A3006 RMK AO2 SLP178 T03060217
","Houston, Texas, United States",2021-05-31 20:15:13 UTC
kiah3_twr_9_27,http://d.liveatc.net/kiah3_twr_9_27,KIAH Twr (Rwy 9/27),US-Class-B,"KIAH 311953Z 14014KT 10SM SCT034 BKN060 OVC250 31/22 A3006 RMK AO2 SLP178 T03060217
","Houston, Texas, United States",2021-05-31 20:15:13 UTC
kiah2_twr_15_33,http://d.liveatc.net/kiah2_twr_15_33,KIAH Twr (Rwys 15/33RL),US-Class-B,"KIAH 311953Z 14014KT 10SM SCT034 BKN060 OVC250 31/22 A3006 RMK AO2 SLP178 T03060217
","Houston, Texas, United States",2021-05-31 20:15:13 UTC
kjfk_arinc,http://d.liveatc.net/kjfk_arinc,ARINC (JFK/LGA Area),US-Class-B,"KJFK 311951Z 34013KT 10SM BKN043 BKN250 20/09 A3019 RMK AO2 SLP221 T02000089
","New York, New York, United States",2021-05-31 20:15:13 UTC
kjfk_del,http://d.liveatc.net/kjfk_del,KJFK Clearance Delivery,US-Class-B,"KJFK 311951Z 34013KT 10SM BKN043 BKN250 20/09 A3019 RMK AO2 SLP221 T02000089
","New York, New York, United States",2021-05-31 20:15:13 UTC
kjfk_co,http://d.liveatc.net/kjfk_co,KJFK Company Channels,US-Class-B,"KJFK 311951Z 34013KT 10SM BKN043 BKN250 20/09 A3019 RMK AO2 SLP221 T02000089
","New York, New York, United States",2021-05-31 20:15:13 UTC
kjfk_atis,http://d.liveatc.net/kjfk_atis,KJFK D-ATIS,US-Class-B,"KJFK 311951Z 34013KT 10SM BKN043 BKN250 20/09 A3019 RMK AO2 SLP221 T02000089
","New York, New York, United States",2021-05-31 20:15:13 UTC
kjfk_gnd_twr,http://d.liveatc.net/kjfk_gnd_twr,KJFK Gnd/Twr #1,US-Class-B,"KJFK 311951Z 34013KT 10SM BKN043 BKN250 20/09 A3019 RMK AO2 SLP221 T02000089
","New York, New York, United States",2021-05-31 20:15:13 UTC
kjfk9_s,http://d.liveatc.net/kjfk9_s,KJFK Gnd/Twr #2,US-Class-B,"KJFK 311951Z 34013KT 10SM BKN043 BKN250 20/09 A3019 RMK AO2 SLP221 T02000089
","New York, New York, United States",2021-05-31 20:15:13 UTC
kjfk_gnd,http://d.liveatc.net/kjfk_gnd,KJFK Ground,US-Class-B,"KJFK 311951Z 34013KT 10SM BKN043 BKN250 20/09 A3019 RMK AO2 SLP221 T02000089
","New York, New York, United States",2021-05-31 20:15:13 UTC
kjfk9_gnd,http://d.liveatc.net/kjfk9_gnd,KJFK Ground #2,US-Class-B,"KJFK 311951Z 34013KT 10SM BKN043 BKN250 20/09 A3019 RMK AO2 SLP221 T02000089
","New York, New York, United States",2021-05-31 20:15:13 UTC
kjfk_app_camrn,http://d.liveatc.net/kjfk_app_camrn,KJFK NY App (CAMRN),US-Class-B,"KJFK 311951Z 34013KT 10SM BKN043 BKN250 20/09 A3019 RMK AO2 SLP221 T02000089
","New York, New York, United States",2021-05-31 20:15:13 UTC
kjfk_app_final,http://d.liveatc.net/kjfk_app_final,KJFK NY App (Final),US-Class-B,"KJFK 311951Z 34013KT 10SM BKN043 BKN250 20/09 A3019 RMK AO2 SLP221 T02000089
","New York, New York, United States",2021-05-31 20:15:13 UTC
kjfk_app_rober,http://d.liveatc.net/kjfk_app_rober,KJFK NY App (ROBER),US-Class-B,"KJFK 311951Z 34013KT 10SM BKN043 BKN250 20/09 A3019 RMK AO2 SLP221 T02000089
","New York, New York, United States",2021-05-31 20:15:13 UTC
kjfk_dep,http://d.liveatc.net/kjfk_dep,KJFK NY Dep (JFK),US-Class-B,"KJFK 311951Z 34013KT 10SM BKN043 BKN250 20/09 A3019 RMK AO2 SLP221 T02000089
","New York, New York, United States",2021-05-31 20:15:13 UTC
kjfk_twr,http://d.liveatc.net/kjfk_twr,KJFK Tower,US-Class-B,"KJFK 311951Z 34013KT 10SM BKN043 BKN250 20/09 A3019 RMK AO2 SLP221 T02000089
","New York, New York, United States",2021-05-31 20:15:13 UTC
kjfk_twr3,http://d.liveatc.net/kjfk_twr3,KJFK Tower #2,US-Class-B,"KJFK 311951Z 34013KT 10SM BKN043 BKN250 20/09 A3019 RMK AO2 SLP221 T02000089
","New York, New York, United States",2021-05-31 20:15:13 UTC
kjfk9_twr,http://d.liveatc.net/kjfk9_twr,KJFK Tower #3,US-Class-B,"KJFK 311951Z 34013KT 10SM BKN043 BKN250 20/09 A3019 RMK AO2 SLP221 T02000089
","New York, New York, United States",2021-05-31 20:15:13 UTC
kjfk_twr_1191,http://d.liveatc.net/kjfk_twr_1191,KJFK Tower 119.1,US-Class-B,"KJFK 311951Z 34013KT 10SM BKN043 BKN250 20/09 A3019 RMK AO2 SLP221 T02000089
","New York, New York, United States",2021-05-31 20:15:13 UTC
kjfk_twr_1239,http://d.liveatc.net/kjfk_twr_1239,KJFK Tower 123.9,US-Class-B,"KJFK 311951Z 34013KT 10SM BKN043 BKN250 20/09 A3019 RMK AO2 SLP221 T02000089
","New York, New York, United States",2021-05-31 20:15:13 UTC
ny_app_lib_north,http://d.liveatc.net/ny_app_lib_north,NY Dep (Liberty North) #1,US-Class-B,,"New York, New York, United States",2021-05-31 20:15:13 UTC
klas5_app_final,http://d.liveatc.net/klas5_app_final,KLAS Approach (Final),US-Class-B,"KLAS 311956Z VRB03KT 10SM FEW110 FEW150 SCT250 34/M10 A2992 RMK AO2 SLP101 T03441100
","Las Vegas, Nevada, United States",2021-05-31 20:15:13 UTC
klas4_app_ne,http://d.liveatc.net/klas4_app_ne,KLAS Approach (NE),US-Class-B,"KLAS 311956Z VRB03KT 10SM FEW110 FEW150 SCT250 34/M10 A2992 RMK AO2 SLP101 T03441100
","Las Vegas, Nevada, United States",2021-05-31 20:15:13 UTC
klas4_app_nw,http://d.liveatc.net/klas4_app_nw,KLAS Approach (NW),US-Class-B,"KLAS 311956Z VRB03KT 10SM FEW110 FEW150 SCT250 34/M10 A2992 RMK AO2 SLP101 T03441100
","Las Vegas, Nevada, United States",2021-05-31 20:15:13 UTC
klas4_app_se,http://d.liveatc.net/klas4_app_se,KLAS Approach (SE),US-Class-B,"KLAS 311956Z VRB03KT 10SM FEW110 FEW150 SCT250 34/M10 A2992 RMK AO2 SLP101 T03441100
","Las Vegas, Nevada, United States",2021-05-31 20:15:13 UTC
klas4_app_sw,http://d.liveatc.net/klas4_app_sw,KLAS Approach (SW),US-Class-B,"KLAS 311956Z VRB03KT 10SM FEW110 FEW150 SCT250 34/M10 A2992 RMK AO2 SLP101 T03441100
","Las Vegas, Nevada, United States",2021-05-31 20:15:13 UTC
klas5_atis,http://d.liveatc.net/klas5_atis,KLAS ATIS,US-Class-B,"KLAS 311956Z VRB03KT 10SM FEW110 FEW150 SCT250 34/M10 A2992 RMK AO2 SLP101 T03441100
","Las Vegas, Nevada, United States",2021-05-31 20:15:13 UTC
klas4_del,http://d.liveatc.net/klas4_del,KLAS Clearance Delivery,US-Class-B,"KLAS 311956Z VRB03KT 10SM FEW110 FEW150 SCT250 34/M10 A2992 RMK AO2 SLP101 T03441100
","Las Vegas, Nevada, United States",2021-05-31 20:15:13 UTC
klas5_dep_0108,http://d.liveatc.net/klas5_dep_0108,KLAS Departure (Rwys 01/08),US-Class-B,"KLAS 311956Z VRB03KT 10SM FEW110 FEW150 SCT250 34/M10 A2992 RMK AO2 SLP101 T03441100
","Las Vegas, Nevada, United States",2021-05-31 20:15:13 UTC
klas4_dep_1926,http://d.liveatc.net/klas4_dep_1926,KLAS Departure (Rwys 19/26),US-Class-B,"KLAS 311956Z VRB03KT 10SM FEW110 FEW150 SCT250 34/M10 A2992 RMK AO2 SLP101 T03441100
","Las Vegas, Nevada, United States",2021-05-31 20:15:13 UTC
klas4_gnd_e,http://d.liveatc.net/klas4_gnd_e,KLAS Ground (East),US-Class-B,"KLAS 311956Z VRB03KT 10SM FEW110 FEW150 SCT250 34/M10 A2992 RMK AO2 SLP101 T03441100
","Las Vegas, Nevada, United States",2021-05-31 20:15:13 UTC
klas4_gnd_w,http://d.liveatc.net/klas4_gnd_w,KLAS Ground (West),US-Class-B,"KLAS 311956Z VRB03KT 10SM FEW110 FEW150 SCT250 34/M10 A2992 RMK AO2 SLP101 T03441100
","Las Vegas, Nevada, United States",2021-05-31 20:15:13 UTC
klas4_heli,http://d.liveatc.net/klas4_heli,KLAS Helicopter Control,US-Class-B,"KLAS 311956Z VRB03KT 10SM FEW110 FEW150 SCT250 34/M10 A2992 RMK AO2 SLP101 T03441100
","Las Vegas, Nevada, United States",2021-05-31 20:15:13 UTC
klas4_ramp,http://d.liveatc.net/klas4_ramp,KLAS Ramp Control,US-Class-B,"KLAS 311956Z VRB03KT 10SM FEW110 FEW150 SCT250 34/M10 A2992 RMK AO2 SLP101 T03441100
","Las Vegas, Nevada, United States",2021-05-31 20:15:13 UTC
klas4_ramp,http://d.liveatc.net/klas4_ramp,KLAS Ramp Control,US-Class-B,"KLAS 311956Z VRB03KT 10SM FEW110 FEW150 SCT250 34/M10 A2992 RMK AO2 SLP101 T03441100
","Las Vegas, Nevada, United States",2021-05-31 20:15:13 UTC
klas4_twr,http://d.liveatc.net/klas4_twr,KLAS Tower (Both),US-Class-B,"KLAS 311956Z VRB03KT 10SM FEW110 FEW150 SCT250 34/M10 A2992 RMK AO2 SLP101 T03441100
","Las Vegas, Nevada, United States",2021-05-31 20:15:13 UTC
klas4_twr_0119,http://d.liveatc.net/klas4_twr_0119,KLAS Tower (Rwys 01/19),US-Class-B,"KLAS 311956Z VRB03KT 10SM FEW110 FEW150 SCT250 34/M10 A2992 RMK AO2 SLP101 T03441100
","Las Vegas, Nevada, United States",2021-05-31 20:15:13 UTC
klas4_twr_0826,http://d.liveatc.net/klas4_twr_0826,KLAS Tower (Rwys 08/26),US-Class-B,"KLAS 311956Z VRB03KT 10SM FEW110 FEW150 SCT250 34/M10 A2992 RMK AO2 SLP101 T03441100
","Las Vegas, Nevada, United States",2021-05-31 20:15:13 UTC
kpoc2_klax_app_east_feeder,http://d.liveatc.net/kpoc2_klax_app_east_feeder,KLAX App (East Feeder),US-Class-B,"KPOC 311947Z 24006KT 10SM CLR 22/13 A2998
","Los Angeles, California, United States",2021-05-31 20:15:13 UTC
klax3n_nw_feeder,http://d.liveatc.net/klax3n_nw_feeder,KLAX App (Zuma/NW Arr),US-Class-B,"KLAX 311953Z 24010KT 9SM FEW019 SCT024 19/13 A2996 RMK AO2 SLP146 T01890133
","Los Angeles, California, United States",2021-05-31 20:15:13 UTC
klax4n_arinc,http://d.liveatc.net/klax4n_arinc,KLAX ARINC 128.9,US-Class-B,"KLAX 311953Z 24010KT 9SM FEW019 SCT024 19/13 A2996 RMK AO2 SLP146 T01890133
","Los Angeles, California, United States",2021-05-31 20:15:13 UTC
klax4n_atis_arr,http://d.liveatc.net/klax4n_atis_arr,KLAX ATIS (Arrival),US-Class-B,"KLAX 311953Z 24010KT 9SM FEW019 SCT024 19/13 A2996 RMK AO2 SLP146 T01890133
","Los Angeles, California, United States",2021-05-31 20:15:13 UTC
klax4n_atis_dep,http://d.liveatc.net/klax4n_atis_dep,KLAX ATIS (Departure),US-Class-B,"KLAX 311953Z 24010KT 9SM FEW019 SCT024 19/13 A2996 RMK AO2 SLP146 T01890133
","Los Angeles, California, United States",2021-05-31 20:15:13 UTC
klax3n_del,http://d.liveatc.net/klax3n_del,KLAX Clearance Delivery,US-Class-B,"KLAX 311953Z 24010KT 9SM FEW019 SCT024 19/13 A2996 RMK AO2 SLP146 T01890133
","Los Angeles, California, United States",2021-05-31 20:15:13 UTC
klax7,http://d.liveatc.net/klax7,KLAX Dep/West App,US-Class-B,"KLAX 311953Z 24010KT 9SM FEW019 SCT024 19/13 A2996 RMK AO2 SLP146 T01890133
","Los Angeles, California, United States",2021-05-31 20:15:13 UTC
klax4n_app_fin_n,http://d.liveatc.net/klax4n_app_fin_n,KLAX Final App (North),US-Class-B,"KLAX 311953Z 24010KT 9SM FEW019 SCT024 19/13 A2996 RMK AO2 SLP146 T01890133
","Los Angeles, California, United States",2021-05-31 20:15:13 UTC
klax6,http://d.liveatc.net/klax6,KLAX Final App (North/South),US-Class-B,"KLAX 311953Z 24010KT 9SM FEW019 SCT024 19/13 A2996 RMK AO2 SLP146 T01890133
","Los Angeles, California, United States",2021-05-31 20:15:13 UTC
klax4n_app_fin_s,http://d.liveatc.net/klax4n_app_fin_s,KLAX Final App (South),US-Class-B,"KLAX 311953Z 24010KT 9SM FEW019 SCT024 19/13 A2996 RMK AO2 SLP146 T01890133
","Los Angeles, California, United States",2021-05-31 20:15:13 UTC
klax1,http://d.liveatc.net/klax1,KLAX Ground (North),US-Class-B,"KLAX 311953Z 24010KT 9SM FEW019 SCT024 19/13 A2996 RMK AO2 SLP146 T01890133
","Los Angeles, California, United States",2021-05-31 20:15:13 UTC
klax_gnd,http://d.liveatc.net/klax_gnd,KLAX Ground (North/South),US-Class-B,"KLAX 311953Z 24010KT 9SM FEW019 SCT024 19/13 A2996 RMK AO2 SLP146 T01890133
","Los Angeles, California, United States",2021-05-31 20:15:13 UTC
klax5,http://d.liveatc.net/klax5,KLAX Ground (South),US-Class-B,"KLAX 311953Z 24010KT 9SM FEW019 SCT024 19/13 A2996 RMK AO2 SLP146 T01890133
","Los Angeles, California, United States",2021-05-31 20:15:13 UTC
klax4n_sfra,http://d.liveatc.net/klax4n_sfra,KLAX SFRA,US-Class-B,"KLAX 311953Z 24010KT 9SM FEW019 SCT024 19/13 A2996 RMK AO2 SLP146 T01890133
","Los Angeles, California, United States",2021-05-31 20:15:13 UTC
klax3n_heli,http://d.liveatc.net/klax3n_heli,KLAX Tower (Helicopters),US-Class-B,"KLAX 311953Z 24010KT 9SM FEW019 SCT024 19/13 A2996 RMK AO2 SLP146 T01890133
","Los Angeles, California, United States",2021-05-31 20:15:13 UTC
klax3,http://d.liveatc.net/klax3,KLAX Tower (North),US-Class-B,"KLAX 311953Z 24010KT 9SM FEW019 SCT024 19/13 A2996 RMK AO2 SLP146 T01890133
","Los Angeles, California, United States",2021-05-31 20:15:13 UTC
klax_twr,http://d.liveatc.net/klax_twr,KLAX Tower (North/South),US-Class-B,"KLAX 311953Z 24010KT 9SM FEW019 SCT024 19/13 A2996 RMK AO2 SLP146 T01890133
","Los Angeles, California, United States",2021-05-31 20:15:13 UTC
klax4,http://d.liveatc.net/klax4,KLAX Tower (South),US-Class-B,"KLAX 311953Z 24010KT 9SM FEW019 SCT024 19/13 A2996 RMK AO2 SLP146 T01890133
","Los Angeles, California, United States",2021-05-31 20:15:13 UTC
ksmo2_app_124500,http://d.liveatc.net/ksmo2_app_124500,SOCAL App (Zuma Sector),US-Class-B,"KSMO 311951Z 22008KT 10SM FEW014 19/13 A2996 RMK AO2 SLP145 T01890133 $
","Los Angeles, California, United States",2021-05-31 20:15:13 UTC
ksmo2_dep_125200,http://d.liveatc.net/ksmo2_dep_125200,SOCAL Dep (Malibu Sector),US-Class-B,"KSMO 311951Z 22008KT 10SM FEW014 19/13 A2996 RMK AO2 SLP145 T01890133 $
","Los Angeles, California, United States",2021-05-31 20:15:13 UTC
ksmo2_dep_124300,http://d.liveatc.net/ksmo2_dep_124300,SOCAL Dep (Manhattan Sector),US-Class-B,"KSMO 311951Z 22008KT 10SM FEW014 19/13 A2996 RMK AO2 SLP145 T01890133 $
","Los Angeles, California, United States",2021-05-31 20:15:13 UTC
klee1_app,http://d.liveatc.net/klee1_app,KLEE App/Dep,US-Class-B,"KLEE 311953Z 06012KT 10SM CLR 31/18 A3015 RMK AO2 SLP210 T03110183
","Leesburg, Florida, United States",2021-05-31 20:15:13 UTC
klga_atis_dep,http://d.liveatc.net/klga_atis_dep,KLGA ATIS,US-Class-B,"KLGA 311951Z 34010G17KT 10SM BKN041 BKN048 19/08 A3018 RMK AO2 SLP218 T01940078
","New York, New York, United States",2021-05-31 20:15:13 UTC
klga_del,http://d.liveatc.net/klga_del,KLGA Del/ARINC/TCA,US-Class-B,"KLGA 311951Z 34010G17KT 10SM BKN041 BKN048 19/08 A3018 RMK AO2 SLP218 T01940078
","New York, New York, United States",2021-05-31 20:15:13 UTC
klga_gnd,http://d.liveatc.net/klga_gnd,KLGA Ground #1,US-Class-B,"KLGA 311951Z 34010G17KT 10SM BKN041 BKN048 19/08 A3018 RMK AO2 SLP218 T01940078
","New York, New York, United States",2021-05-31 20:15:13 UTC
klga_118_gnd,http://d.liveatc.net/klga_118_gnd,KLGA Ground #2,US-Class-B,"KLGA 311951Z 34010G17KT 10SM BKN041 BKN048 19/08 A3018 RMK AO2 SLP218 T01940078
","New York, New York, United States",2021-05-31 20:15:13 UTC
kewr2_lga_app_empyr,http://d.liveatc.net/kewr2_lga_app_empyr,KLGA NY App (EMPYR) #1,US-Class-B,"KEWR 311951Z 32010G18KT 10SM FEW040 SCT049 22/08 A3017 RMK AO2 SLP217 T02220078
","New York, New York, United States",2021-05-31 20:15:13 UTC
klga_final,http://d.liveatc.net/klga_final,KLGA NY App (Final) #1,US-Class-B,"KLGA 311951Z 34010G17KT 10SM BKN041 BKN048 19/08 A3018 RMK AO2 SLP218 T01940078
","New York, New York, United States",2021-05-31 20:15:13 UTC
klga_final2,http://d.liveatc.net/klga_final2,KLGA NY App (Final) #2,US-Class-B,"KLGA 311951Z 34010G17KT 10SM BKN041 BKN048 19/08 A3018 RMK AO2 SLP218 T01940078
","New York, New York, United States",2021-05-31 20:15:13 UTC
kewr3_app_lga_final,http://d.liveatc.net/kewr3_app_lga_final,KLGA NY App (Final) #3,US-Class-B,"KEWR 311951Z 32010G18KT 10SM FEW040 SCT049 22/08 A3017 RMK AO2 SLP217 T02220078
","New York, New York, United States",2021-05-31 20:15:13 UTC
klga_ny_app,http://d.liveatc.net/klga_ny_app,KLGA NY App (HAARP),US-Class-B,"KLGA 311951Z 34010G17KT 10SM BKN041 BKN048 19/08 A3018 RMK AO2 SLP218 T01940078
","New York, New York, United States",2021-05-31 20:15:13 UTC
klga_ny_dep,http://d.liveatc.net/klga_ny_dep,KLGA NY Dep,US-Class-B,"KLGA 311951Z 34010G17KT 10SM BKN041 BKN048 19/08 A3018 RMK AO2 SLP218 T01940078
","New York, New York, United States",2021-05-31 20:15:13 UTC
klga_twr,http://d.liveatc.net/klga_twr,KLGA Tower #1,US-Class-B,"KLGA 311951Z 34010G17KT 10SM BKN041 BKN048 19/08 A3018 RMK AO2 SLP218 T01940078
","New York, New York, United States",2021-05-31 20:15:13 UTC
klga_118_twr,http://d.liveatc.net/klga_118_twr,KLGA Tower #2,US-Class-B,"KLGA 311951Z 34010G17KT 10SM BKN041 BKN048 19/08 A3018 RMK AO2 SLP218 T01940078
","New York, New York, United States",2021-05-31 20:15:13 UTC
klga_twr2,http://d.liveatc.net/klga_twr2,KLGA Tower (TCA/Heli),US-Class-B,"KLGA 311951Z 34010G17KT 10SM BKN041 BKN048 19/08 A3018 RMK AO2 SLP218 T01940078
","New York, New York, United States",2021-05-31 20:15:13 UTC
ny_app_lib_north,http://d.liveatc.net/ny_app_lib_north,NY Dep (Liberty North),US-Class-B,,"New York, New York, United States",2021-05-31 20:15:13 UTC
klzu4_app,http://d.liveatc.net/klzu4_app,Atlanta App/Dep (SAT-P),US-Class-B,"KLZU 311956Z 12005KT 10SM BKN047 BKN055 23/13 A3028 RMK AO2 SLP259 T02330128
","Lawrenceville, Georgia, United States",2021-05-31 20:15:13 UTC
kmci1_app,http://d.liveatc.net/kmci1_app,KMCI App/Dep,US-Class-B,"KMCI 311953Z 14004KT 10SM FEW009 SCT013 OVC018 17/14 A3023 RMK AO2 RAE51 SLP230 P0002 T01720139 $
","Kansas City, Missouri, United States",2021-05-31 20:15:13 UTC
kmci1_local,http://d.liveatc.net/kmci1_local,KMCI Del/Gnd/Twr,US-Class-B,"KMCI 311953Z 14004KT 10SM FEW009 SCT013 OVC018 17/14 A3023 RMK AO2 RAE51 SLP230 P0002 T01720139 $
","Kansas City, Missouri, United States",2021-05-31 20:15:13 UTC
kmci1,http://d.liveatc.net/kmci1,KMCI Del/Gnd/Twr/App,US-Class-B,"KMCI 311953Z 14004KT 10SM FEW009 SCT013 OVC018 17/14 A3023 RMK AO2 RAE51 SLP230 P0002 T01720139 $
","Kansas City, Missouri, United States",2021-05-31 20:15:13 UTC
korl_kmco_app_120150,http://d.liveatc.net/korl_kmco_app_120150,KMCO App/Dep (120.15),US-Class-B,"KORL 311953Z 07014KT 10SM FEW039 31/19 A3016 RMK AO2 SLP214 T03110194
","Orlando, Florida, United States",2021-05-31 20:15:13 UTC
korl_kmco_app_124800,http://d.liveatc.net/korl_kmco_app_124800,KMCO App/Dep (124.8),US-Class-B,"KORL 311953Z 07014KT 10SM FEW039 31/19 A3016 RMK AO2 SLP214 T03110194
","Orlando, Florida, United States",2021-05-31 20:15:13 UTC
korl_kmco_app_128375,http://d.liveatc.net/korl_kmco_app_128375,KMCO App/Dep (128.375),US-Class-B,"KORL 311953Z 07014KT 10SM FEW039 31/19 A3016 RMK AO2 SLP214 T03110194
","Orlando, Florida, United States",2021-05-31 20:15:13 UTC
korl_app_119400,http://d.liveatc.net/korl_app_119400,KMCO App/Dep (Disney Sector),US-Class-B,"KORL 311953Z 07014KT 10SM FEW039 31/19 A3016 RMK AO2 SLP214 T03110194
","Orlando, Florida, United States",2021-05-31 20:15:13 UTC
korl_kmco_app_135300,http://d.liveatc.net/korl_kmco_app_135300,KMCO App/Dep (North Satellite),US-Class-B,"KORL 311953Z 07014KT 10SM FEW039 31/19 A3016 RMK AO2 SLP214 T03110194
","Orlando, Florida, United States",2021-05-31 20:15:13 UTC
korl_app_119775,http://d.liveatc.net/korl_app_119775,KMCO App/Dep (OVIDO Sector),US-Class-B,"KORL 311953Z 07014KT 10SM FEW039 31/19 A3016 RMK AO2 SLP214 T03110194
","Orlando, Florida, United States",2021-05-31 20:15:13 UTC
korl_kmco_app_final,http://d.liveatc.net/korl_kmco_app_final,KMCO Approach (Final),US-Class-B,"KORL 311953Z 07014KT 10SM FEW039 31/19 A3016 RMK AO2 SLP214 T03110194
","Orlando, Florida, United States",2021-05-31 20:15:13 UTC
korl_kmco_gnd_126400,http://d.liveatc.net/korl_kmco_gnd_126400,KMCO Ground (East),US-Class-B,"KORL 311953Z 07014KT 10SM FEW039 31/19 A3016 RMK AO2 SLP214 T03110194
","Orlando, Florida, United States",2021-05-31 20:15:13 UTC
korl_kmco_gnd_121800,http://d.liveatc.net/korl_kmco_gnd_121800,KMCO Ground (West),US-Class-B,"KORL 311953Z 07014KT 10SM FEW039 31/19 A3016 RMK AO2 SLP214 T03110194
","Orlando, Florida, United States",2021-05-31 20:15:13 UTC
korl_kmco_twr_both,http://d.liveatc.net/korl_kmco_twr_both,KMCO Tower (Both),US-Class-B,"KORL 311953Z 07014KT 10SM FEW039 31/19 A3016 RMK AO2 SLP214 T03110194
","Orlando, Florida, United States",2021-05-31 20:15:13 UTC
korl_kmco_twr_118450,http://d.liveatc.net/korl_kmco_twr_118450,KMCO Tower (East) #1,US-Class-B,"KORL 311953Z 07014KT 10SM FEW039 31/19 A3016 RMK AO2 SLP214 T03110194
","Orlando, Florida, United States",2021-05-31 20:15:13 UTC
korl_kmco_twr_124300,http://d.liveatc.net/korl_kmco_twr_124300,KMCO Tower (West) #1,US-Class-B,"KORL 311953Z 07014KT 10SM FEW039 31/19 A3016 RMK AO2 SLP214 T03110194
","Orlando, Florida, United States",2021-05-31 20:15:13 UTC
korl_kmco_twr_west,http://d.liveatc.net/korl_kmco_twr_west,KMCO Tower (West) #2,US-Class-B,"KORL 311953Z 07014KT 10SM FEW039 31/19 A3016 RMK AO2 SLP214 T03110194
","Orlando, Florida, United States",2021-05-31 20:15:13 UTC
kryy1_atlapp_121000,http://d.liveatc.net/kryy1_atlapp_121000,Atlanta Approach (N. Sat),US-Class-B,"KRYY 311950Z 16004KT 10SM BKN049 24/13 A3028 RMK AO2 SLP971 T02440128 $
","Marietta, Georgia, United States",2021-05-31 20:15:13 UTC
kmia_app,http://d.liveatc.net/kmia_app,KMIA Approach #1,US-Class-B,"KMIA 311953Z 07013KT 10SM SCT024 SCT180 BKN250 29/22 A3010 RMK SLP193 T02890222
","Miami, Florida, United States",2021-05-31 20:15:13 UTC
kmia_app2,http://d.liveatc.net/kmia_app2,KMIA Approach #2,US-Class-B,"KMIA 311953Z 07013KT 10SM SCT024 SCT180 BKN250 29/22 A3010 RMK SLP193 T02890222
","Miami, Florida, United States",2021-05-31 20:15:13 UTC
kmia3_app_133775,http://d.liveatc.net/kmia3_app_133775,KMIA Approach (KFLL),US-Class-B,"KMIA 311953Z 07013KT 10SM SCT024 SCT180 BKN250 29/22 A3010 RMK SLP193 T02890222
","Miami, Florida, United States",2021-05-31 20:15:13 UTC
kmia3_app_12575,http://d.liveatc.net/kmia3_app_12575,KMIA Approach (North Arr Backup),US-Class-B,"KMIA 311953Z 07013KT 10SM SCT024 SCT180 BKN250 29/22 A3010 RMK SLP193 T02890222
","Miami, Florida, United States",2021-05-31 20:15:13 UTC
kmia3_app_12485,http://d.liveatc.net/kmia3_app_12485,KMIA Approach (North Arr),US-Class-B,"KMIA 311953Z 07013KT 10SM SCT024 SCT180 BKN250 29/22 A3010 RMK SLP193 T02890222
","Miami, Florida, United States",2021-05-31 20:15:13 UTC
kmia3_app_1205,http://d.liveatc.net/kmia3_app_1205,KMIA Approach (South Arr),US-Class-B,"KMIA 311953Z 07013KT 10SM SCT024 SCT180 BKN250 29/22 A3010 RMK SLP193 T02890222
","Miami, Florida, United States",2021-05-31 20:15:13 UTC
kmia3_atis_arr,http://d.liveatc.net/kmia3_atis_arr,KMIA ATIS (Arrival),US-Class-B,"KMIA 311953Z 07013KT 10SM SCT024 SCT180 BKN250 29/22 A3010 RMK SLP193 T02890222
","Miami, Florida, United States",2021-05-31 20:15:13 UTC
kmia3_atis_dep,http://d.liveatc.net/kmia3_atis_dep,KMIA ATIS (Departure),US-Class-B,"KMIA 311953Z 07013KT 10SM SCT024 SCT180 BKN250 29/22 A3010 RMK SLP193 T02890222
","Miami, Florida, United States",2021-05-31 20:15:13 UTC
kmia3_del,http://d.liveatc.net/kmia3_del,KMIA Clearance Delivery,US-Class-B,"KMIA 311953Z 07013KT 10SM SCT024 SCT180 BKN250 29/22 A3010 RMK SLP193 T02890222
","Miami, Florida, United States",2021-05-31 20:15:13 UTC
kmia3_app_11945,http://d.liveatc.net/kmia3_app_11945,KMIA Departure (North),US-Class-B,"KMIA 311953Z 07013KT 10SM SCT024 SCT180 BKN250 29/22 A3010 RMK SLP193 T02890222
","Miami, Florida, United States",2021-05-31 20:15:13 UTC
kmia3_dep_1255,http://d.liveatc.net/kmia3_dep_1255,KMIA Departure (South),US-Class-B,"KMIA 311953Z 07013KT 10SM SCT024 SCT180 BKN250 29/22 A3010 RMK SLP193 T02890222
","Miami, Florida, United States",2021-05-31 20:15:13 UTC
kmia_dep,http://d.liveatc.net/kmia_dep,KMIA Departure/Approach,US-Class-B,"KMIA 311953Z 07013KT 10SM SCT024 SCT180 BKN250 29/22 A3010 RMK SLP193 T02890222
","Miami, Florida, United States",2021-05-31 20:15:13 UTC
kmia3_gate_hold,http://d.liveatc.net/kmia3_gate_hold,KMIA Gate Hold,US-Class-B,"KMIA 311953Z 07013KT 10SM SCT024 SCT180 BKN250 29/22 A3010 RMK SLP193 T02890222
","Miami, Florida, United States",2021-05-31 20:15:13 UTC
kmia3_gnd,http://d.liveatc.net/kmia3_gnd,KMIA Ground (8L/8R/12/26L/26R),US-Class-B,"KMIA 311953Z 07013KT 10SM SCT024 SCT180 BKN250 29/22 A3010 RMK SLP193 T02890222
","Miami, Florida, United States",2021-05-31 20:15:13 UTC
kmia_twr,http://d.liveatc.net/kmia_twr,KMIA Tower #1,US-Class-B,"KMIA 311953Z 07013KT 10SM SCT024 SCT180 BKN250 29/22 A3010 RMK SLP193 T02890222
","Miami, Florida, United States",2021-05-31 20:15:13 UTC
kmia3_twr,http://d.liveatc.net/kmia3_twr,KMIA Tower #2,US-Class-B,"KMIA 311953Z 07013KT 10SM SCT024 SCT180 BKN250 29/22 A3010 RMK SLP193 T02890222
","Miami, Florida, United States",2021-05-31 20:15:13 UTC
kmia3_twr_1183,http://d.liveatc.net/kmia3_twr_1183,KMIA Tower (North),US-Class-B,"KMIA 311953Z 07013KT 10SM SCT024 SCT180 BKN250 29/22 A3010 RMK SLP193 T02890222
","Miami, Florida, United States",2021-05-31 20:15:13 UTC
kmia3_twr_1239,http://d.liveatc.net/kmia3_twr_1239,KMIA Tower (South),US-Class-B,"KMIA 311953Z 07013KT 10SM SCT024 SCT180 BKN250 29/22 A3010 RMK SLP193 T02890222
","Miami, Florida, United States",2021-05-31 20:15:13 UTC
kmia_fss_misc,http://d.liveatc.net/kmia_fss_misc,Miami FSS/Misc,US-Class-B,"KMIA 311953Z 07013KT 10SM SCT024 SCT180 BKN250 29/22 A3010 RMK SLP193 T02890222
","Miami, Florida, United States",2021-05-31 20:15:13 UTC
kmia_fss_app,http://d.liveatc.net/kmia_fss_app,Miami FSS/Misc/App,US-Class-B,"KMIA 311953Z 07013KT 10SM SCT024 SCT180 BKN250 29/22 A3010 RMK SLP193 T02890222
","Miami, Florida, United States",2021-05-31 20:15:13 UTC
kmrb1_app_lucke,http://d.liveatc.net/kmrb1_app_lucke,KMRB Potomac App/Dep (LUCKE),US-Class-B,"KMRB 311953Z VRB03KT 10SM CLR 23/05 A3024 RMK AO2 SLP239 T02280050
","Martinsburg, West Virginia, United States",2021-05-31 20:15:13 UTC
kmrb1_app_buffr,http://d.liveatc.net/kmrb1_app_buffr,Potomac App/Dep (BUFFR),US-Class-B,"KMRB 311953Z VRB03KT 10SM CLR 23/05 A3024 RMK AO2 SLP239 T02280050
","Martinsburg, West Virginia, United States",2021-05-31 20:15:13 UTC
kmsp3_app_121200,http://d.liveatc.net/kmsp3_app_121200,KMSP Approach (121.2),US-Class-B,"KMSP 311953Z 28011KT 10SM SCT060 SCT070 SCT160 23/09 A3010 RMK AO2 SLP190 TCU DSNT SE / S T02330089
","Minneapolis, Minnesota, United States",2021-05-31 20:15:13 UTC
kmsp3_app_feed_n,http://d.liveatc.net/kmsp3_app_feed_n,KMSP Approach (Feeder North),US-Class-B,"KMSP 311953Z 28011KT 10SM SCT060 SCT070 SCT160 23/09 A3010 RMK AO2 SLP190 TCU DSNT SE / S T02330089
","Minneapolis, Minnesota, United States",2021-05-31 20:15:13 UTC
kmsp4_app_feed_s,http://d.liveatc.net/kmsp4_app_feed_s,KMSP Approach (Feeder South),US-Class-B,"KMSP 311953Z 28011KT 10SM SCT060 SCT070 SCT160 23/09 A3010 RMK AO2 SLP190 TCU DSNT SE / S T02330089
","Minneapolis, Minnesota, United States",2021-05-31 20:15:13 UTC
kmsp3_app_n_low,http://d.liveatc.net/kmsp3_app_n_low,KMSP Approach (North Low),US-Class-B,"KMSP 311953Z 28011KT 10SM SCT060 SCT070 SCT160 23/09 A3010 RMK AO2 SLP190 TCU DSNT SE / S T02330089
","Minneapolis, Minnesota, United States",2021-05-31 20:15:13 UTC
kmsp3_app_ne,http://d.liveatc.net/kmsp3_app_ne,KMSP Approach (North/East),US-Class-B,"KMSP 311953Z 28011KT 10SM SCT060 SCT070 SCT160 23/09 A3010 RMK AO2 SLP190 TCU DSNT SE / S T02330089
","Minneapolis, Minnesota, United States",2021-05-31 20:15:13 UTC
kmsp3_app_sw,http://d.liveatc.net/kmsp3_app_sw,KMSP Approach (South/West),US-Class-B,"KMSP 311953Z 28011KT 10SM SCT060 SCT070 SCT160 23/09 A3010 RMK AO2 SLP190 TCU DSNT SE / S T02330089
","Minneapolis, Minnesota, United States",2021-05-31 20:15:13 UTC
kmsp4_atis_arr,http://d.liveatc.net/kmsp4_atis_arr,KMSP ATIS (Arrival),US-Class-B,"KMSP 311953Z 28011KT 10SM SCT060 SCT070 SCT160 23/09 A3010 RMK AO2 SLP190 TCU DSNT SE / S T02330089
","Minneapolis, Minnesota, United States",2021-05-31 20:15:13 UTC
kmsp3_atis_dep,http://d.liveatc.net/kmsp3_atis_dep,KMSP ATIS (Departure),US-Class-B,"KMSP 311953Z 28011KT 10SM SCT060 SCT070 SCT160 23/09 A3010 RMK AO2 SLP190 TCU DSNT SE / S T02330089
","Minneapolis, Minnesota, United States",2021-05-31 20:15:13 UTC
kmsp4_del,http://d.liveatc.net/kmsp4_del,KMSP Clearance Delivery,US-Class-B,"KMSP 311953Z 28011KT 10SM SCT060 SCT070 SCT160 23/09 A3010 RMK AO2 SLP190 TCU DSNT SE / S T02330089
","Minneapolis, Minnesota, United States",2021-05-31 20:15:13 UTC
kmsp3_dep_ne,http://d.liveatc.net/kmsp3_dep_ne,KMSP Departure (North/East),US-Class-B,"KMSP 311953Z 28011KT 10SM SCT060 SCT070 SCT160 23/09 A3010 RMK AO2 SLP190 TCU DSNT SE / S T02330089
","Minneapolis, Minnesota, United States",2021-05-31 20:15:13 UTC
kmsp4_dep_se,http://d.liveatc.net/kmsp4_dep_se,KMSP Departure (South/West),US-Class-B,"KMSP 311953Z 28011KT 10SM SCT060 SCT070 SCT160 23/09 A3010 RMK AO2 SLP190 TCU DSNT SE / S T02330089
","Minneapolis, Minnesota, United States",2021-05-31 20:15:13 UTC
kmsp3_guard,http://d.liveatc.net/kmsp3_guard,KMSP Emergency/Guard,US-Class-B,"KMSP 311953Z 28011KT 10SM SCT060 SCT070 SCT160 23/09 A3010 RMK AO2 SLP190 TCU DSNT SE / S T02330089
","Minneapolis, Minnesota, United States",2021-05-31 20:15:13 UTC
kmsp3_gnd_n,http://d.liveatc.net/kmsp3_gnd_n,KMSP Ground (North),US-Class-B,"KMSP 311953Z 28011KT 10SM SCT060 SCT070 SCT160 23/09 A3010 RMK AO2 SLP190 TCU DSNT SE / S T02330089
","Minneapolis, Minnesota, United States",2021-05-31 20:15:13 UTC
kmsp3_gnd_s,http://d.liveatc.net/kmsp3_gnd_s,KMSP Ground (South),US-Class-B,"KMSP 311953Z 28011KT 10SM SCT060 SCT070 SCT160 23/09 A3010 RMK AO2 SLP190 TCU DSNT SE / S T02330089
","Minneapolis, Minnesota, United States",2021-05-31 20:15:13 UTC
kmsp3_gnd_w,http://d.liveatc.net/kmsp3_gnd_w,KMSP Ground (West),US-Class-B,"KMSP 311953Z 28011KT 10SM SCT060 SCT070 SCT160 23/09 A3010 RMK AO2 SLP190 TCU DSNT SE / S T02330089
","Minneapolis, Minnesota, United States",2021-05-31 20:15:13 UTC
kmsp4_meter,http://d.liveatc.net/kmsp4_meter,KMSP Metering,US-Class-B,"KMSP 311953Z 28011KT 10SM SCT060 SCT070 SCT160 23/09 A3010 RMK AO2 SLP190 TCU DSNT SE / S T02330089
","Minneapolis, Minnesota, United States",2021-05-31 20:15:13 UTC
kmsp3_twr_12l,http://d.liveatc.net/kmsp3_twr_12l,KMSP Tower (Rwy 12L/30R),US-Class-B,"KMSP 311953Z 28011KT 10SM SCT060 SCT070 SCT160 23/09 A3010 RMK AO2 SLP190 TCU DSNT SE / S T02330089
","Minneapolis, Minnesota, United States",2021-05-31 20:15:13 UTC
kmsp3_twr_1735,http://d.liveatc.net/kmsp3_twr_1735,KMSP Tower (Rwy 17/35),US-Class-B,"KMSP 311953Z 28011KT 10SM SCT060 SCT070 SCT160 23/09 A3010 RMK AO2 SLP190 TCU DSNT SE / S T02330089
","Minneapolis, Minnesota, United States",2021-05-31 20:15:13 UTC
kmsp3_twr_12r,http://d.liveatc.net/kmsp3_twr_12r,"KMSP Tower (Rwys 12R/30L,4/22)",US-Class-B,"KMSP 311953Z 28011KT 10SM SCT060 SCT070 SCT160 23/09 A3010 RMK AO2 SLP190 TCU DSNT SE / S T02330089
","Minneapolis, Minnesota, United States",2021-05-31 20:15:13 UTC
kmsy2,http://d.liveatc.net/kmsy2,KMSY Del/Gnd/Twr/App,US-Class-B,"KMSY 311953Z 04013KT 10SM FEW048 SCT250 29/21 A3013 RMK AO2 SLP205 T02940206
","New Orleans, Louisiana, United States",2021-05-31 20:15:13 UTC
kolm1_app,http://d.liveatc.net/kolm1_app,Seattle App/Dep,US-Class-B,"KOLM 311954Z 36006KT 10SM CLR 23/08 A3018 RMK AO2 SLP220 T02330078
","Olympia, Washington, United States",2021-05-31 20:15:13 UTC
kord5,http://d.liveatc.net/kord5,KORD App (10R/28C),US-Class-B,"KORD 311951Z 21011KT 10SM FEW060 SCT170 OVC250 21/07 A3022 RMK AO2 SLP233 VIRGA S T02110067
","Chicago, Illinois, United States",2021-05-31 20:15:13 UTC
kord12,http://d.liveatc.net/kord12,KORD App (27L/09R/10C),US-Class-B,"KORD 311951Z 21011KT 10SM FEW060 SCT170 OVC250 21/07 A3022 RMK AO2 SLP233 VIRGA S T02110067
","Chicago, Illinois, United States",2021-05-31 20:15:13 UTC
kord6,http://d.liveatc.net/kord6,KORD App (27R/9L),US-Class-B,"KORD 311951Z 21011KT 10SM FEW060 SCT170 OVC250 21/07 A3022 RMK AO2 SLP233 VIRGA S T02110067
","Chicago, Illinois, United States",2021-05-31 20:15:13 UTC
kord1n1_app_132175,http://d.liveatc.net/kord1n1_app_132175,KORD App (28C),US-Class-B,"KORD 311951Z 21011KT 10SM FEW060 SCT170 OVC250 21/07 A3022 RMK AO2 SLP233 VIRGA S T02110067
","Chicago, Illinois, United States",2021-05-31 20:15:13 UTC
kord13,http://d.liveatc.net/kord13,KORD ATIS,US-Class-B,"KORD 311951Z 21011KT 10SM FEW060 SCT170 OVC250 21/07 A3022 RMK AO2 SLP233 VIRGA S T02110067
","Chicago, Illinois, United States",2021-05-31 20:15:13 UTC
kord9,http://d.liveatc.net/kord9,KORD Clearance/Metering,US-Class-B,"KORD 311951Z 21011KT 10SM FEW060 SCT170 OVC250 21/07 A3022 RMK AO2 SLP233 VIRGA S T02110067
","Chicago, Illinois, United States",2021-05-31 20:15:13 UTC
kord2n_dep_125000,http://d.liveatc.net/kord2n_dep_125000,KORD Dep (125.0),US-Class-B,"KORD 311951Z 21011KT 10SM FEW060 SCT170 OVC250 21/07 A3022 RMK AO2 SLP233 VIRGA S T02110067
","Chicago, Illinois, United States",2021-05-31 20:15:13 UTC
kord1n1_dep_125400,http://d.liveatc.net/kord1n1_dep_125400,KORD Dep (125.4),US-Class-B,"KORD 311951Z 21011KT 10SM FEW060 SCT170 OVC250 21/07 A3022 RMK AO2 SLP233 VIRGA S T02110067
","Chicago, Illinois, United States",2021-05-31 20:15:13 UTC
kord8,http://d.liveatc.net/kord8,KORD Departure,US-Class-B,"KORD 311951Z 21011KT 10SM FEW060 SCT170 OVC250 21/07 A3022 RMK AO2 SLP233 VIRGA S T02110067
","Chicago, Illinois, United States",2021-05-31 20:15:13 UTC
kord1,http://d.liveatc.net/kord1,KORD Ground,US-Class-B,"KORD 311951Z 21011KT 10SM FEW060 SCT170 OVC250 21/07 A3022 RMK AO2 SLP233 VIRGA S T02110067
","Chicago, Illinois, United States",2021-05-31 20:15:13 UTC
kord2n_gnd_in,http://d.liveatc.net/kord2n_gnd_in,KORD Ground (Inbound),US-Class-B,"KORD 311951Z 21011KT 10SM FEW060 SCT170 OVC250 21/07 A3022 RMK AO2 SLP233 VIRGA S T02110067
","Chicago, Illinois, United States",2021-05-31 20:15:13 UTC
kord2n_gnd_out,http://d.liveatc.net/kord2n_gnd_out,KORD Ground (Outbound),US-Class-B,"KORD 311951Z 21011KT 10SM FEW060 SCT170 OVC250 21/07 A3022 RMK AO2 SLP233 VIRGA S T02110067
","Chicago, Illinois, United States",2021-05-31 20:15:13 UTC
kord7,http://d.liveatc.net/kord7,KORD Tower,US-Class-B,"KORD 311951Z 21011KT 10SM FEW060 SCT170 OVC250 21/07 A3022 RMK AO2 SLP233 VIRGA S T02110067
","Chicago, Illinois, United States",2021-05-31 20:15:13 UTC
kord2,http://d.liveatc.net/kord2,KORD Tower (Center),US-Class-B,"KORD 311951Z 21011KT 10SM FEW060 SCT170 OVC250 21/07 A3022 RMK AO2 SLP233 VIRGA S T02110067
","Chicago, Illinois, United States",2021-05-31 20:15:13 UTC
kord4,http://d.liveatc.net/kord4,KORD Tower (North),US-Class-B,"KORD 311951Z 21011KT 10SM FEW060 SCT170 OVC250 21/07 A3022 RMK AO2 SLP233 VIRGA S T02110067
","Chicago, Illinois, United States",2021-05-31 20:15:13 UTC
kord3,http://d.liveatc.net/kord3,KORD Tower (South),US-Class-B,"KORD 311951Z 21011KT 10SM FEW060 SCT170 OVC250 21/07 A3022 RMK AO2 SLP233 VIRGA S T02110067
","Chicago, Illinois, United States",2021-05-31 20:15:13 UTC
korl_app_119400,http://d.liveatc.net/korl_app_119400,KMCO App/Dep (Disney Sector),US-Class-B,"KORL 311953Z 07014KT 10SM FEW039 31/19 A3016 RMK AO2 SLP214 T03110194
","Orlando, Florida, United States",2021-05-31 20:15:13 UTC
korl_app_dep,http://d.liveatc.net/korl_app_dep,KMCO App/Dep (Disney/OVIDO Sectors) #1,US-Class-B,"KORL 311953Z 07014KT 10SM FEW039 31/19 A3016 RMK AO2 SLP214 T03110194
","Orlando, Florida, United States",2021-05-31 20:15:13 UTC
korl_app_dis_ovi,http://d.liveatc.net/korl_app_dis_ovi,KMCO App/Dep (Disney/OVIDO Sectors) #2,US-Class-B,"KORL 311953Z 07014KT 10SM FEW039 31/19 A3016 RMK AO2 SLP214 T03110194
","Orlando, Florida, United States",2021-05-31 20:15:13 UTC
korl_kmco_app_135300,http://d.liveatc.net/korl_kmco_app_135300,KMCO App/Dep (North Satellite),US-Class-B,"KORL 311953Z 07014KT 10SM FEW039 31/19 A3016 RMK AO2 SLP214 T03110194
","Orlando, Florida, United States",2021-05-31 20:15:13 UTC
korl_app_119775,http://d.liveatc.net/korl_app_119775,KMCO App/Dep (OVIDO Sector),US-Class-B,"KORL 311953Z 07014KT 10SM FEW039 31/19 A3016 RMK AO2 SLP214 T03110194
","Orlando, Florida, United States",2021-05-31 20:15:13 UTC
klzu4_app,http://d.liveatc.net/klzu4_app,Atlanta App/Dep (SAT-P),US-Class-B,"KLZU 311956Z 12005KT 10SM BKN047 BKN055 23/13 A3028 RMK AO2 SLP259 T02330128
","Atlanta, Georgia, United States",2021-05-31 20:15:13 UTC
kphl_final,http://d.liveatc.net/kphl_final,KPHL App (Final),US-Class-B,"KPHL 311954Z 33010KT 10SM SCT055 SCT260 22/07 A3021 RMK AO2 WSHFT 1900 SLP229 T02220072 $
","Philadelphia, Pennsylvania, United States",2021-05-31 20:15:13 UTC
kphl_n_arr,http://d.liveatc.net/kphl_n_arr,KPHL App (N. Arrival),US-Class-B,"KPHL 311954Z 33010KT 10SM SCT055 SCT260 22/07 A3021 RMK AO2 WSHFT 1900 SLP229 T02220072 $
","Philadelphia, Pennsylvania, United States",2021-05-31 20:15:13 UTC
kphl_app,http://d.liveatc.net/kphl_app,KPHL App (N/S Arrival),US-Class-B,"KPHL 311954Z 33010KT 10SM SCT055 SCT260 22/07 A3021 RMK AO2 WSHFT 1900 SLP229 T02220072 $
","Philadelphia, Pennsylvania, United States",2021-05-31 20:15:13 UTC
kphl_s_arr,http://d.liveatc.net/kphl_s_arr,KPHL App (S. Arrival),US-Class-B,"KPHL 311954Z 33010KT 10SM SCT055 SCT260 22/07 A3021 RMK AO2 WSHFT 1900 SLP229 T02220072 $
","Philadelphia, Pennsylvania, United States",2021-05-31 20:15:13 UTC
kphl_del,http://d.liveatc.net/kphl_del,KPHL Clearance,US-Class-B,"KPHL 311954Z 33010KT 10SM SCT055 SCT260 22/07 A3021 RMK AO2 WSHFT 1900 SLP229 T02220072 $
","Philadelphia, Pennsylvania, United States",2021-05-31 20:15:13 UTC
kphl_n_dep,http://d.liveatc.net/kphl_n_dep,KPHL Dep (N. Departure),US-Class-B,"KPHL 311954Z 33010KT 10SM SCT055 SCT260 22/07 A3021 RMK AO2 WSHFT 1900 SLP229 T02220072 $
","Philadelphia, Pennsylvania, United States",2021-05-31 20:15:13 UTC
kphl_dep,http://d.liveatc.net/kphl_dep,KPHL Dep (N/S Dep),US-Class-B,"KPHL 311954Z 33010KT 10SM SCT055 SCT260 22/07 A3021 RMK AO2 WSHFT 1900 SLP229 T02220072 $
","Philadelphia, Pennsylvania, United States",2021-05-31 20:15:13 UTC
kphl_s_dep,http://d.liveatc.net/kphl_s_dep,KPHL Dep (S. Departure),US-Class-B,"KPHL 311954Z 33010KT 10SM SCT055 SCT260 22/07 A3021 RMK AO2 WSHFT 1900 SLP229 T02220072 $
","Philadelphia, Pennsylvania, United States",2021-05-31 20:15:13 UTC
kphl_gnd_ramp,http://d.liveatc.net/kphl_gnd_ramp,KPHL Ground/Ramp Control,US-Class-B,"KPHL 311954Z 33010KT 10SM SCT055 SCT260 22/07 A3021 RMK AO2 WSHFT 1900 SLP229 T02220072 $
","Philadelphia, Pennsylvania, United States",2021-05-31 20:15:13 UTC
kphl_twr,http://d.liveatc.net/kphl_twr,KPHL Tower,US-Class-B,"KPHL 311954Z 33010KT 10SM SCT055 SCT260 22/07 A3021 RMK AO2 WSHFT 1900 SLP229 T02220072 $
","Philadelphia, Pennsylvania, United States",2021-05-31 20:15:13 UTC
kphl_twr1,http://d.liveatc.net/kphl_twr1,KPHL Tower (East),US-Class-B,"KPHL 311954Z 33010KT 10SM SCT055 SCT260 22/07 A3021 RMK AO2 WSHFT 1900 SLP229 T02220072 $
","Philadelphia, Pennsylvania, United States",2021-05-31 20:15:13 UTC
kphl_twr2,http://d.liveatc.net/kphl_twr2,KPHL Tower (West),US-Class-B,"KPHL 311954Z 33010KT 10SM SCT055 SCT260 22/07 A3021 RMK AO2 WSHFT 1900 SLP229 T02220072 $
","Philadelphia, Pennsylvania, United States",2021-05-31 20:15:13 UTC
kphx_app_s,http://d.liveatc.net/kphx_app_s,KPHX Approach (N/S)/S Final,US-Class-B,"KPHX 311951Z 28006KT 10SM FEW120 FEW250 36/03 A2986 RMK AO2 SLP090 CB DSNT NE T03560028 $
","Phoenix, Arizona, United States",2021-05-31 20:15:13 UTC
kphx_app_nf,http://d.liveatc.net/kphx_app_nf,KPHX Approach (North Final),US-Class-B,"KPHX 311951Z 28006KT 10SM FEW120 FEW250 36/03 A2986 RMK AO2 SLP090 CB DSNT NE T03560028 $
","Phoenix, Arizona, United States",2021-05-31 20:15:13 UTC
kphx_app_sat,http://d.liveatc.net/kphx_app_sat,KPHX Approach (SDL/Tempe/West),US-Class-B,"KPHX 311951Z 28006KT 10SM FEW120 FEW250 36/03 A2986 RMK AO2 SLP090 CB DSNT NE T03560028 $
","Phoenix, Arizona, United States",2021-05-31 20:15:13 UTC
kphx_dep,http://d.liveatc.net/kphx_dep,KPHX Departure,US-Class-B,"KPHX 311951Z 28006KT 10SM FEW120 FEW250 36/03 A2986 RMK AO2 SLP090 CB DSNT NE T03560028 $
","Phoenix, Arizona, United States",2021-05-31 20:15:13 UTC
kphx_gnd_n1,http://d.liveatc.net/kphx_gnd_n1,KPHX Ground (North/Pri),US-Class-B,"KPHX 311951Z 28006KT 10SM FEW120 FEW250 36/03 A2986 RMK AO2 SLP090 CB DSNT NE T03560028 $
","Phoenix, Arizona, United States",2021-05-31 20:15:13 UTC
kphx_gnd_n2,http://d.liveatc.net/kphx_gnd_n2,KPHX Ground (North/Sec),US-Class-B,"KPHX 311951Z 28006KT 10SM FEW120 FEW250 36/03 A2986 RMK AO2 SLP090 CB DSNT NE T03560028 $
","Phoenix, Arizona, United States",2021-05-31 20:15:13 UTC
kphx_gnd_s,http://d.liveatc.net/kphx_gnd_s,KPHX Ground (South),US-Class-B,"KPHX 311951Z 28006KT 10SM FEW120 FEW250 36/03 A2986 RMK AO2 SLP090 CB DSNT NE T03560028 $
","Phoenix, Arizona, United States",2021-05-31 20:15:13 UTC
kphx_twr_n,http://d.liveatc.net/kphx_twr_n,KPHX Tower (North),US-Class-B,"KPHX 311951Z 28006KT 10SM FEW120 FEW250 36/03 A2986 RMK AO2 SLP090 CB DSNT NE T03560028 $
","Phoenix, Arizona, United States",2021-05-31 20:15:13 UTC
kphx_twr_s,http://d.liveatc.net/kphx_twr_s,KPHX Tower (South),US-Class-B,"KPHX 311951Z 28006KT 10SM FEW120 FEW250 36/03 A2986 RMK AO2 SLP090 CB DSNT NE T03560028 $
","Phoenix, Arizona, United States",2021-05-31 20:15:13 UTC
kpit1_app,http://d.liveatc.net/kpit1_app,KPIT App/Dep #1,US-Class-B,"KPIT 311951Z 20005KT 10SM FEW050 BKN200 20/06 A3027 RMK AO2 SLP259 T02000056
","Pittsburgh, Pennsylvania, United States",2021-05-31 20:15:13 UTC
kpit2_atis,http://d.liveatc.net/kpit2_atis,KPIT ATIS,US-Class-B,"KPIT 311951Z 20005KT 10SM FEW050 BKN200 20/06 A3027 RMK AO2 SLP259 T02000056
","Pittsburgh, Pennsylvania, United States",2021-05-31 20:15:13 UTC
kpit1_del_gnd,http://d.liveatc.net/kpit1_del_gnd,KPIT Del/Gnd/Ramp #1,US-Class-B,"KPIT 311951Z 20005KT 10SM FEW050 BKN200 20/06 A3027 RMK AO2 SLP259 T02000056
","Pittsburgh, Pennsylvania, United States",2021-05-31 20:15:13 UTC
kpit2_del_gnd,http://d.liveatc.net/kpit2_del_gnd,KPIT Del/Gnd/Ramp #2,US-Class-B,"KPIT 311951Z 20005KT 10SM FEW050 BKN200 20/06 A3027 RMK AO2 SLP259 T02000056
","Pittsburgh, Pennsylvania, United States",2021-05-31 20:15:13 UTC
kpit1_twr,http://d.liveatc.net/kpit1_twr,KPIT Tower #1,US-Class-B,"KPIT 311951Z 20005KT 10SM FEW050 BKN200 20/06 A3027 RMK AO2 SLP259 T02000056
","Pittsburgh, Pennsylvania, United States",2021-05-31 20:15:13 UTC
kpit2_twr,http://d.liveatc.net/kpit2_twr,KPIT Tower #2,US-Class-B,"KPIT 311951Z 20005KT 10SM FEW050 BKN200 20/06 A3027 RMK AO2 SLP259 T02000056
","Pittsburgh, Pennsylvania, United States",2021-05-31 20:15:13 UTC
kptk1_app,http://d.liveatc.net/kptk1_app,KPTK App/Dep,US-Class-B,"KPTK 311953Z 18007KT 10SM SCT100 BKN170 OVC250 21/04 A3022 RMK AO2 SLP234 T02110039
","Pontiac, Michigan, United States",2021-05-31 20:15:13 UTC
kugn_app,http://d.liveatc.net/kugn_app,Chicago Approach (North),US-Class-B,"KUGN 311955Z 23008KT 10SM SCT100 22/08 A3021 RMK AO2 SLP227 T02170078
","Chicago/Prospect Heights/Wheeling, Illinois, United States",2021-05-31 20:15:13 UTC
kryy1_atlapp_121000,http://d.liveatc.net/kryy1_atlapp_121000,Atlanta Approach (N. Sat),US-Class-B,"KRYY 311950Z 16004KT 10SM BKN049 24/13 A3028 RMK AO2 SLP971 T02440128 $
","Atlanta, Georgia, United States",2021-05-31 20:15:13 UTC
ksan1_del,http://d.liveatc.net/ksan1_del,KSAN Clearance Delivery,US-Class-B,"KSAN 311951Z 27006KT 10SM SCT021 20/12 A2997 RMK AO2 SLP148 T02000122
","San Diego, California, United States",2021-05-31 20:15:13 UTC
ksan1_gnd,http://d.liveatc.net/ksan1_gnd,KSAN Ground #1,US-Class-B,"KSAN 311951Z 27006KT 10SM SCT021 20/12 A2997 RMK AO2 SLP148 T02000122
","San Diego, California, United States",2021-05-31 20:15:13 UTC
ksan1_ramp,http://d.liveatc.net/ksan1_ramp,KSAN Ramp,US-Class-B,"KSAN 311951Z 27006KT 10SM SCT021 20/12 A2997 RMK AO2 SLP148 T02000122
","San Diego, California, United States",2021-05-31 20:15:13 UTC
ksan1_all,http://d.liveatc.net/ksan1_all,KSAN Ramp/Del/Gnd/Twr,US-Class-B,"KSAN 311951Z 27006KT 10SM SCT021 20/12 A2997 RMK AO2 SLP148 T02000122
","San Diego, California, United States",2021-05-31 20:15:13 UTC
ksan_app_east,http://d.liveatc.net/ksan_app_east,KSAN SOCAL App/Dep (East),US-Class-B,"KSAN 311951Z 27006KT 10SM SCT021 20/12 A2997 RMK AO2 SLP148 T02000122
","San Diego, California, United States",2021-05-31 20:15:13 UTC
ksan_app_nw,http://d.liveatc.net/ksan_app_nw,KSAN SOCAL App/Dep (NW),US-Class-B,"KSAN 311951Z 27006KT 10SM SCT021 20/12 A2997 RMK AO2 SLP148 T02000122
","San Diego, California, United States",2021-05-31 20:15:13 UTC
ksan_app_west,http://d.liveatc.net/ksan_app_west,KSAN SOCAL App/Dep (West),US-Class-B,"KSAN 311951Z 27006KT 10SM SCT021 20/12 A2997 RMK AO2 SLP148 T02000122
","San Diego, California, United States",2021-05-31 20:15:13 UTC
ksan_dep_125150,http://d.liveatc.net/ksan_dep_125150,KSAN SOCAL Dep (South Bay),US-Class-B,"KSAN 311951Z 27006KT 10SM SCT021 20/12 A2997 RMK AO2 SLP148 T02000122
","San Diego, California, United States",2021-05-31 20:15:13 UTC
ksan1_twr,http://d.liveatc.net/ksan1_twr,KSAN Tower #1,US-Class-B,"KSAN 311951Z 27006KT 10SM SCT021 20/12 A2997 RMK AO2 SLP148 T02000122
","San Diego, California, United States",2021-05-31 20:15:13 UTC
ksan2,http://d.liveatc.net/ksan2,KSAN Tower #2,US-Class-B,"KSAN 311951Z 27006KT 10SM SCT021 20/12 A2997 RMK AO2 SLP148 T02000122
","San Diego, California, United States",2021-05-31 20:15:13 UTC
ksck,http://d.liveatc.net/ksck,KSCK Gnd/Tower/NORCAL App,US-Class-B,"KSCK 311955Z VRB03KT 10SM CLR 33/11 A2986 RMK AO2 SLP109 T03330106
","Stockton, California, United States",2021-05-31 20:15:13 UTC
ksea2_air,http://d.liveatc.net/ksea2_air,KSEA Air-to-Air,US-Class-B,"KSEA 311953Z 34007KT 10SM FEW090 BKN200 24/11 A3019 RMK AO2 SLP226 T02390111
","Seattle, Washington, United States",2021-05-31 20:15:13 UTC
ksea2_app_arr,http://d.liveatc.net/ksea2_app_arr,KSEA App/Arrivals,US-Class-B,"KSEA 311953Z 34007KT 10SM FEW090 BKN200 24/11 A3019 RMK AO2 SLP226 T02390111
","Seattle, Washington, United States",2021-05-31 20:15:13 UTC
ksea2_app_chins,http://d.liveatc.net/ksea2_app_chins,KSEA App/CHINS STAR,US-Class-B,"KSEA 311953Z 34007KT 10SM FEW090 BKN200 24/11 A3019 RMK AO2 SLP226 T02390111
","Seattle, Washington, United States",2021-05-31 20:15:13 UTC
ksea2_app_nw,http://d.liveatc.net/ksea2_app_nw,KSEA Approach (NW),US-Class-B,"KSEA 311953Z 34007KT 10SM FEW090 BKN200 24/11 A3019 RMK AO2 SLP226 T02390111
","Seattle, Washington, United States",2021-05-31 20:15:13 UTC
ksea2_app_kpae,http://d.liveatc.net/ksea2_app_kpae,KSEA Approach (PAE),US-Class-B,"KSEA 311953Z 34007KT 10SM FEW090 BKN200 24/11 A3019 RMK AO2 SLP226 T02390111
","Seattle, Washington, United States",2021-05-31 20:15:13 UTC
ksea2_app_s,http://d.liveatc.net/ksea2_app_s,KSEA Approach (South),US-Class-B,"KSEA 311953Z 34007KT 10SM FEW090 BKN200 24/11 A3019 RMK AO2 SLP226 T02390111
","Seattle, Washington, United States",2021-05-31 20:15:13 UTC
ksea2_app_parallel,http://d.liveatc.net/ksea2_app_parallel,KSEA Approach (TBD),US-Class-B,"KSEA 311953Z 34007KT 10SM FEW090 BKN200 24/11 A3019 RMK AO2 SLP226 T02390111
","Seattle, Washington, United States",2021-05-31 20:15:13 UTC
ksea2_app_w,http://d.liveatc.net/ksea2_app_w,KSEA Approach (West),US-Class-B,"KSEA 311953Z 34007KT 10SM FEW090 BKN200 24/11 A3019 RMK AO2 SLP226 T02390111
","Seattle, Washington, United States",2021-05-31 20:15:13 UTC
ksea2_app_w_arr,http://d.liveatc.net/ksea2_app_w_arr,KSEA Approach (West/Arrival),US-Class-B,"KSEA 311953Z 34007KT 10SM FEW090 BKN200 24/11 A3019 RMK AO2 SLP226 T02390111
","Seattle, Washington, United States",2021-05-31 20:15:13 UTC
ksea2_atis,http://d.liveatc.net/ksea2_atis,KSEA ATIS,US-Class-B,"KSEA 311953Z 34007KT 10SM FEW090 BKN200 24/11 A3019 RMK AO2 SLP226 T02390111
","Seattle, Washington, United States",2021-05-31 20:15:13 UTC
ksea2_fss_1222,http://d.liveatc.net/ksea2_fss_1222,KSEA FSS (122.2),US-Class-B,"KSEA 311953Z 34007KT 10SM FEW090 BKN200 24/11 A3019 RMK AO2 SLP226 T02390111
","Seattle, Washington, United States",2021-05-31 20:15:13 UTC
ksea2_fss_1225,http://d.liveatc.net/ksea2_fss_1225,KSEA FSS (122.5),US-Class-B,"KSEA 311953Z 34007KT 10SM FEW090 BKN200 24/11 A3019 RMK AO2 SLP226 T02390111
","Seattle, Washington, United States",2021-05-31 20:15:13 UTC
ksea2_gnd,http://d.liveatc.net/ksea2_gnd,KSEA Ground,US-Class-B,"KSEA 311953Z 34007KT 10SM FEW090 BKN200 24/11 A3019 RMK AO2 SLP226 T02390111
","Seattle, Washington, United States",2021-05-31 20:15:13 UTC
ksea2_guard,http://d.liveatc.net/ksea2_guard,KSEA Guard,US-Class-B,"KSEA 311953Z 34007KT 10SM FEW090 BKN200 24/11 A3019 RMK AO2 SLP226 T02390111
","Seattle, Washington, United States",2021-05-31 20:15:13 UTC
ksea2_ramp_hold,http://d.liveatc.net/ksea2_ramp_hold,KSEA Ramp (Hold),US-Class-B,"KSEA 311953Z 34007KT 10SM FEW090 BKN200 24/11 A3019 RMK AO2 SLP226 T02390111
","Seattle, Washington, United States",2021-05-31 20:15:13 UTC
ksea2_ramp_n,http://d.liveatc.net/ksea2_ramp_n,KSEA Ramp (North),US-Class-B,"KSEA 311953Z 34007KT 10SM FEW090 BKN200 24/11 A3019 RMK AO2 SLP226 T02390111
","Seattle, Washington, United States",2021-05-31 20:15:13 UTC
ksea2_ramp_s,http://d.liveatc.net/ksea2_ramp_s,KSEA Ramp (South),US-Class-B,"KSEA 311953Z 34007KT 10SM FEW090 BKN200 24/11 A3019 RMK AO2 SLP226 T02390111
","Seattle, Washington, United States",2021-05-31 20:15:13 UTC
kbfi_ksea_twr1,http://d.liveatc.net/kbfi_ksea_twr1,"KSEA Tower (16L/34R,16C/34C) #1",US-Class-B,"KBFI 311953Z 33007KT 300V010 10SM FEW090 SCT200 23/10 A3018 RMK AO2 SLP218 T02330100
","Seattle, Washington, United States",2021-05-31 20:15:13 UTC
ksea2_twr_e,http://d.liveatc.net/ksea2_twr_e,"KSEA Tower (16L/34R,16C/34C) #2",US-Class-B,"KSEA 311953Z 34007KT 10SM FEW090 BKN200 24/11 A3019 RMK AO2 SLP226 T02390111
","Seattle, Washington, United States",2021-05-31 20:15:13 UTC
kbfi_ksea_twr2,http://d.liveatc.net/kbfi_ksea_twr2,KSEA Tower (16R/34L) #1,US-Class-B,"KBFI 311953Z 33007KT 300V010 10SM FEW090 SCT200 23/10 A3018 RMK AO2 SLP218 T02330100
","Seattle, Washington, United States",2021-05-31 20:15:13 UTC
ksea2_twr_w,http://d.liveatc.net/ksea2_twr_w,KSEA Tower (16R/34L) #2,US-Class-B,"KSEA 311953Z 34007KT 10SM FEW090 BKN200 24/11 A3019 RMK AO2 SLP226 T02390111
","Seattle, Washington, United States",2021-05-31 20:15:13 UTC
korl_kmco_app_135300,http://d.liveatc.net/korl_kmco_app_135300,KMCO App/Dep (North Satellite),US-Class-B,"KORL 311953Z 07014KT 10SM FEW039 31/19 A3016 RMK AO2 SLP214 T03110194
","Orlando, Florida, United States",2021-05-31 20:15:13 UTC
ksfo_co,http://d.liveatc.net/ksfo_co,KSFO Company Channels,US-Class-B,"KSFO 311956Z 30015KT 10SM FEW200 24/10 A2990 RMK AO2 SLP126 T02390100 $
","San Francisco, California, United States",2021-05-31 20:15:13 UTC
ksfo_atis,http://d.liveatc.net/ksfo_atis,KSFO D-ATIS,US-Class-B,"KSFO 311956Z 30015KT 10SM FEW200 24/10 A2990 RMK AO2 SLP126 T02390100 $
","San Francisco, California, United States",2021-05-31 20:15:13 UTC
ksfo_gnd2,http://d.liveatc.net/ksfo_gnd2,KSFO Del/Gnd (Alt)/Twr (Alt),US-Class-B,"KSFO 311956Z 30015KT 10SM FEW200 24/10 A2990 RMK AO2 SLP126 T02390100 $
","San Francisco, California, United States",2021-05-31 20:15:13 UTC
ksfo_dep1,http://d.liveatc.net/ksfo_dep1,KSFO Dep 120.9/127.0,US-Class-B,"KSFO 311956Z 30015KT 10SM FEW200 24/10 A2990 RMK AO2 SLP126 T02390100 $
","San Francisco, California, United States",2021-05-31 20:15:13 UTC
ksfo_dep2,http://d.liveatc.net/ksfo_dep2,KSFO Dep 135.1,US-Class-B,"KSFO 311956Z 30015KT 10SM FEW200 24/10 A2990 RMK AO2 SLP126 T02390100 $
","San Francisco, California, United States",2021-05-31 20:15:13 UTC
ksfo_gnd,http://d.liveatc.net/ksfo_gnd,KSFO Ground,US-Class-B,"KSFO 311956Z 30015KT 10SM FEW200 24/10 A2990 RMK AO2 SLP126 T02390100 $
","San Francisco, California, United States",2021-05-31 20:15:13 UTC
ksfo_gnd_twr,http://d.liveatc.net/ksfo_gnd_twr,KSFO Ground/Tower,US-Class-B,"KSFO 311956Z 30015KT 10SM FEW200 24/10 A2990 RMK AO2 SLP126 T02390100 $
","San Francisco, California, United States",2021-05-31 20:15:13 UTC
ksfo_app2_l,http://d.liveatc.net/ksfo_app2_l,KSFO NORCAL App 28L/R,US-Class-B,"KSFO 311956Z 30015KT 10SM FEW200 24/10 A2990 RMK AO2 SLP126 T02390100 $
","San Francisco, California, United States",2021-05-31 20:15:13 UTC
ksfo_app2,http://d.liveatc.net/ksfo_app2,KSFO NORCAL App 28L/R + BSR/MOD STARs,US-Class-B,"KSFO 311956Z 30015KT 10SM FEW200 24/10 A2990 RMK AO2 SLP126 T02390100 $
","San Francisco, California, United States",2021-05-31 20:15:13 UTC
ksfo_app2_r,http://d.liveatc.net/ksfo_app2_r,KSFO NORCAL BSR2/MOD2 Arrivals,US-Class-B,"KSFO 311956Z 30015KT 10SM FEW200 24/10 A2990 RMK AO2 SLP126 T02390100 $
","San Francisco, California, United States",2021-05-31 20:15:13 UTC
ksfo_ramp,http://d.liveatc.net/ksfo_ramp,KSFO Ramp,US-Class-B,"KSFO 311956Z 30015KT 10SM FEW200 24/10 A2990 RMK AO2 SLP126 T02390100 $
","San Francisco, California, United States",2021-05-31 20:15:13 UTC
ksfo_twr,http://d.liveatc.net/ksfo_twr,KSFO Tower,US-Class-B,"KSFO 311956Z 30015KT 10SM FEW200 24/10 A2990 RMK AO2 SLP126 T02390100 $
","San Francisco, California, United States",2021-05-31 20:15:13 UTC
ksfo_twr2,http://d.liveatc.net/ksfo_twr2,KSFO Tower/Ground,US-Class-B,"KSFO 311956Z 30015KT 10SM FEW200 24/10 A2990 RMK AO2 SLP126 T02390100 $
","San Francisco, California, United States",2021-05-31 20:15:13 UTC
kslc_app,http://d.liveatc.net/kslc_app,KSLC Approach/Departure,US-Class-B,"KSLC 311954Z 34007KT 10SM FEW095 FEW130 FEW230 28/00 A3010 RMK AO2 SLP144 CB DSNT SW TCU DSNT N-NE AND E T02780000 $
","Salt Lake City, Utah, United States",2021-05-31 20:15:13 UTC
kslc_vfr,http://d.liveatc.net/kslc_vfr,KSLC Tower Rwy 34L/16R ,US-Class-B,"KSLC 311954Z 34007KT 10SM FEW095 FEW130 FEW230 28/00 A3010 RMK AO2 SLP144 CB DSNT SW TCU DSNT N-NE AND E T02780000 $
","Salt Lake City, Utah, United States",2021-05-31 20:15:13 UTC
ksmo2_app_124500,http://d.liveatc.net/ksmo2_app_124500,SOCAL App (Zuma Sector),US-Class-B,"KSMO 311951Z 22008KT 10SM FEW014 19/13 A2996 RMK AO2 SLP145 T01890133 $
","Santa Monica, California, United States",2021-05-31 20:15:13 UTC
ksmo2_dep_125200,http://d.liveatc.net/ksmo2_dep_125200,SOCAL Dep (Malibu Sector),US-Class-B,"KSMO 311951Z 22008KT 10SM FEW014 19/13 A2996 RMK AO2 SLP145 T01890133 $
","Santa Monica, California, United States",2021-05-31 20:15:13 UTC
ksmo2_dep_124300,http://d.liveatc.net/ksmo2_dep_124300,SOCAL Dep (Manhattan Sector),US-Class-B,"KSMO 311951Z 22008KT 10SM FEW014 19/13 A2996 RMK AO2 SLP145 T01890133 $
","Santa Monica, California, United States",2021-05-31 20:15:13 UTC
kstl_app,http://d.liveatc.net/kstl_app,KSTL Approach,US-Class-B,"KSTL 311951Z VRB03KT 10SM FEW060 FEW150 BKN250 24/07 A3022 RMK AO2 SLP228 T02390072 $
","St. Louis, Missouri, United States",2021-05-31 20:15:13 UTC
kstl2,http://d.liveatc.net/kstl2,KSTL Del/Gnd/Twr,US-Class-B,"KSTL 311951Z VRB03KT 10SM FEW060 FEW150 BKN250 24/07 A3022 RMK AO2 SLP228 T02390072 $
","St. Louis, Missouri, United States",2021-05-31 20:15:13 UTC
ny_app_catskills,http://d.liveatc.net/ny_app_catskills,NY Approach (Liberty/Catskills),US-Class-B,,"Newburgh, New York, United States",2021-05-31 20:15:13 UTC
ktpa3_app_118500,http://d.liveatc.net/ktpa3_app_118500,KTPA App/Dep 118.5,US-Class-B,"KTPA 311953Z VRB06KT 10SM BKN070 34/18 A3011 RMK AO2 SLP195 T03390183
","Tampa, Florida, United States",2021-05-31 20:15:13 UTC
ktpa3_dep_118800,http://d.liveatc.net/ktpa3_dep_118800,KTPA App/Dep 118.8,US-Class-B,"KTPA 311953Z VRB06KT 10SM BKN070 34/18 A3011 RMK AO2 SLP195 T03390183
","Tampa, Florida, United States",2021-05-31 20:15:13 UTC
ktpa3_gnd,http://d.liveatc.net/ktpa3_gnd,KTPA Ground,US-Class-B,"KTPA 311953Z VRB06KT 10SM BKN070 34/18 A3011 RMK AO2 SLP195 T03390183
","Tampa, Florida, United States",2021-05-31 20:15:13 UTC
ktpa3_twr,http://d.liveatc.net/ktpa3_twr,KTPA Tower,US-Class-B,"KTPA 311953Z VRB06KT 10SM BKN070 34/18 A3011 RMK AO2 SLP195 T03390183
","Tampa, Florida, United States",2021-05-31 20:15:13 UTC
kugn_app,http://d.liveatc.net/kugn_app,Chicago Approach (North),US-Class-B,"KUGN 311955Z 23008KT 10SM SCT100 22/08 A3021 RMK AO2 SLP227 T02170078
","Chicago/Waukegan, Illinois, United States",2021-05-31 20:15:13 UTC
kwhp1_app,http://d.liveatc.net/kwhp1_app,KWHP/KVNY/KBUR App/Dep,US-Class-B,"KWHP 311950Z 09005KT 10SM SKC 23/13 A2998
","Van Nuys, California, United States",2021-05-31 20:15:13 UTC
kwhp1_app,http://d.liveatc.net/kwhp1_app,KWHP/KVNY/KBUR App/Dep,US-Class-B,"KWHP 311950Z 09005KT 10SM SKC 23/13 A2998
","Los Angeles, California, United States",2021-05-31 20:15:13 UTC
kvny_app,http://d.liveatc.net/kvny_app,L70 CTAF/Misc,US-Class-B,"KVNY 311951Z 20005KT 10SM CLR 23/13 A2994 RMK AO2 SLP131 T02330128 $
","Agua Dulce, California, United States",2021-05-31 20:15:13 UTC
hnl1_atis,http://d.liveatc.net/hnl1_atis,PHNL ATIS,US-Class-B,,"Honolulu, Hawaii, United States",2021-05-31 20:15:13 UTC
hnl1_del,http://d.liveatc.net/hnl1_del,PHNL Clearance Delivery,US-Class-B,,"Honolulu, Hawaii, United States",2021-05-31 20:15:13 UTC
hnl1_dgr,http://d.liveatc.net/hnl1_dgr,PHNL Del/Gnd/Ramp,US-Class-B,,"Honolulu, Hawaii, United States",2021-05-31 20:15:13 UTC
hnl1_guard,http://d.liveatc.net/hnl1_guard,PHNL Emergency/Guard,US-Class-B,,"Honolulu, Hawaii, United States",2021-05-31 20:15:13 UTC
hnl1_gnd,http://d.liveatc.net/hnl1_gnd,PHNL Ground,US-Class-B,,"Honolulu, Hawaii, United States",2021-05-31 20:15:13 UTC
hnl1_app,http://d.liveatc.net/hnl1_app,PHNL HCF App/Dep,US-Class-B,,"Honolulu, Hawaii, United States",2021-05-31 20:15:13 UTC
hnl1_app_119100,http://d.liveatc.net/hnl1_app_119100,PHNL HCF App/Dep (119.1),US-Class-B,,"Honolulu, Hawaii, United States",2021-05-31 20:15:13 UTC
hnl1_app_e,http://d.liveatc.net/hnl1_app_e,PHNL HCF App/Dep (East),US-Class-B,,"Honolulu, Hawaii, United States",2021-05-31 20:15:13 UTC
hnl1_app_w,http://d.liveatc.net/hnl1_app_w,PHNL HCF App/Dep (West),US-Class-B,,"Honolulu, Hawaii, United States",2021-05-31 20:15:13 UTC
hnl1_ramp,http://d.liveatc.net/hnl1_ramp,PHNL Ramp Advisory,US-Class-B,,"Honolulu, Hawaii, United States",2021-05-31 20:15:13 UTC
hnl1_twr,http://d.liveatc.net/hnl1_twr,PHNL Tower (Both),US-Class-B,,"Honolulu, Hawaii, United States",2021-05-31 20:15:13 UTC
hnl1_twr_pri,http://d.liveatc.net/hnl1_twr_pri,PHNL Tower (Primary),US-Class-B,,"Honolulu, Hawaii, United States",2021-05-31 20:15:13 UTC
hnl1_twr_08r26l,http://d.liveatc.net/hnl1_twr_08r26l,PHNL Tower (Rwy 08R/26L),US-Class-B,,"Honolulu, Hawaii, United States",2021-05-31 20:15:13 UTC
kabq2_3,http://d.liveatc.net/kabq2_3,KABQ App/Dep (Main),US-Class-C,"KABQ 311952Z 13020KT 10SM TS FEW030 SCT050CB BKN140 21/09 A3011 RMK AO2 LTG DSNT SW-N RAB36E50 TSB41 SLP130 OCNL LTGIC SW TS SW MOV NE VIRGA MTN TOPS OBSC NE AND SE P0000 T02110089
","Albuquerque, New Mexico, United States",2021-05-31 20:15:21 UTC
kabq2_4,http://d.liveatc.net/kabq2_4,KABQ App/Dep (Other),US-Class-C,"KABQ 311952Z 13020KT 10SM TS FEW030 SCT050CB BKN140 21/09 A3011 RMK AO2 LTG DSNT SW-N RAB36E50 TSB41 SLP130 OCNL LTGIC SW TS SW MOV NE VIRGA MTN TOPS OBSC NE AND SE P0000 T02110089
","Albuquerque, New Mexico, United States",2021-05-31 20:15:21 UTC
kabq2_1,http://d.liveatc.net/kabq2_1,KABQ Del/Gnd,US-Class-C,"KABQ 311952Z 13020KT 10SM TS FEW030 SCT050CB BKN140 21/09 A3011 RMK AO2 LTG DSNT SW-N RAB36E50 TSB41 SLP130 OCNL LTGIC SW TS SW MOV NE VIRGA MTN TOPS OBSC NE AND SE P0000 T02110089
","Albuquerque, New Mexico, United States",2021-05-31 20:15:21 UTC
kabq2_2,http://d.liveatc.net/kabq2_2,KABQ Tower,US-Class-C,"KABQ 311952Z 13020KT 10SM TS FEW030 SCT050CB BKN140 21/09 A3011 RMK AO2 LTG DSNT SW-N RAB36E50 TSB41 SLP130 OCNL LTGIC SW TS SW MOV NE VIRGA MTN TOPS OBSC NE AND SE P0000 T02110089
","Albuquerque, New Mexico, United States",2021-05-31 20:15:21 UTC
kabq2_twr2,http://d.liveatc.net/kabq2_twr2,KABQ Tower #2,US-Class-C,"KABQ 311952Z 13020KT 10SM TS FEW030 SCT050CB BKN140 21/09 A3011 RMK AO2 LTG DSNT SW-N RAB36E50 TSB41 SLP130 OCNL LTGIC SW TS SW MOV NE VIRGA MTN TOPS OBSC NE AND SE P0000 T02110089
","Albuquerque, New Mexico, United States",2021-05-31 20:15:21 UTC
kabq1_1,http://d.liveatc.net/kabq1_1,KABQ Twr/App/ZAB,US-Class-C,"KABQ 311952Z 13020KT 10SM TS FEW030 SCT050CB BKN140 21/09 A3011 RMK AO2 LTG DSNT SW-N RAB36E50 TSB41 SLP130 OCNL LTGIC SW TS SW MOV NE VIRGA MTN TOPS OBSC NE AND SE P0000 T02110089
","Albuquerque, New Mexico, United States",2021-05-31 20:15:21 UTC
kacy_a_app,http://d.liveatc.net/kacy_a_app,KACY App/Dep,US-Class-C,"KACY 311954Z AUTO 28008KT 240V330 10SM OVC047 21/09 A3021 RMK AO2 SLP230 T02060094 TSNO
","Atlantic City, New Jersey, United States",2021-05-31 20:15:21 UTC
kacy_a_atis,http://d.liveatc.net/kacy_a_atis,KACY ATIS,US-Class-C,"KACY 311954Z AUTO 28008KT 240V330 10SM OVC047 21/09 A3021 RMK AO2 SLP230 T02060094 TSNO
","Atlantic City, New Jersey, United States",2021-05-31 20:15:21 UTC
kacy_a_del,http://d.liveatc.net/kacy_a_del,KACY Clearance Delivery,US-Class-C,"KACY 311954Z AUTO 28008KT 240V330 10SM OVC047 21/09 A3021 RMK AO2 SLP230 T02060094 TSNO
","Atlantic City, New Jersey, United States",2021-05-31 20:15:21 UTC
kacy_gk,http://d.liveatc.net/kacy_gk,KACY GIANT KILLER,US-Class-C,"KACY 311954Z AUTO 28008KT 240V330 10SM OVC047 21/09 A3021 RMK AO2 SLP230 T02060094 TSNO
","Atlantic City, New Jersey, United States",2021-05-31 20:15:21 UTC
kacy_a_gnd,http://d.liveatc.net/kacy_a_gnd,KACY Ground,US-Class-C,"KACY 311954Z AUTO 28008KT 240V330 10SM OVC047 21/09 A3021 RMK AO2 SLP230 T02060094 TSNO
","Atlantic City, New Jersey, United States",2021-05-31 20:15:21 UTC
kacy_a_twr,http://d.liveatc.net/kacy_a_twr,KACY Tower,US-Class-C,"KACY 311954Z AUTO 28008KT 240V330 10SM OVC047 21/09 A3021 RMK AO2 SLP230 T02060094 TSNO
","Atlantic City, New Jersey, United States",2021-05-31 20:15:21 UTC
kalb1_app,http://d.liveatc.net/kalb1_app,KALB Approach/Departure,US-Class-C,"KALB 311951Z 30004KT 10SM SCT028 SCT044 BKN080 16/10 A3018 RMK AO2 SLP219 T01610100
","Albany, New York, United States",2021-05-31 20:15:21 UTC
kalb1_atis,http://d.liveatc.net/kalb1_atis,KALB ATIS,US-Class-C,"KALB 311951Z 30004KT 10SM SCT028 SCT044 BKN080 16/10 A3018 RMK AO2 SLP219 T01610100
","Albany, New York, United States",2021-05-31 20:15:21 UTC
kalb1_gnd,http://d.liveatc.net/kalb1_gnd,KALB Ground,US-Class-C,"KALB 311951Z 30004KT 10SM SCT028 SCT044 BKN080 16/10 A3018 RMK AO2 SLP219 T01610100
","Albany, New York, United States",2021-05-31 20:15:21 UTC
kalb1_gnd_twr,http://d.liveatc.net/kalb1_gnd_twr,KALB Ground/Tower,US-Class-C,"KALB 311951Z 30004KT 10SM SCT028 SCT044 BKN080 16/10 A3018 RMK AO2 SLP219 T01610100
","Albany, New York, United States",2021-05-31 20:15:21 UTC
kalb1_twr,http://d.liveatc.net/kalb1_twr,KALB Tower,US-Class-C,"KALB 311951Z 30004KT 10SM SCT028 SCT044 BKN080 16/10 A3018 RMK AO2 SLP219 T01610100
","Albany, New York, United States",2021-05-31 20:15:21 UTC
kaug_app,http://d.liveatc.net/kaug_app,KAUG App/Center,US-Class-C,"KAUG 311953Z AUTO 35007KT 1 1/2SM -RA BR BKN006 OVC011 12/12 A3006 RMK AO2 RAB29 SLP182 P0001 T01220122
","Augusta, Maine, United States",2021-05-31 20:15:21 UTC
kaus1_app,http://d.liveatc.net/kaus1_app,KAUS App/Dep #2,US-Class-C,"KAUS 311953Z 15014KT 10SM SCT034 BKN050 BKN110 28/22 A2999 RMK AO2 SLP147 T02830217
","Austin, Texas, United States",2021-05-31 20:15:21 UTC
kaus3_app_dep,http://d.liveatc.net/kaus3_app_dep,KAUS App/Dep #3,US-Class-C,"KAUS 311953Z 15014KT 10SM SCT034 BKN050 BKN110 28/22 A2999 RMK AO2 SLP147 T02830217
","Austin, Texas, United States",2021-05-31 20:15:21 UTC
kaus3_app_e,http://d.liveatc.net/kaus3_app_e,KAUS App/Dep (East) #1,US-Class-C,"KAUS 311953Z 15014KT 10SM SCT034 BKN050 BKN110 28/22 A2999 RMK AO2 SLP147 T02830217
","Austin, Texas, United States",2021-05-31 20:15:21 UTC
kaus1_app_e,http://d.liveatc.net/kaus1_app_e,KAUS App/Dep (East) #2,US-Class-C,"KAUS 311953Z 15014KT 10SM SCT034 BKN050 BKN110 28/22 A2999 RMK AO2 SLP147 T02830217
","Austin, Texas, United States",2021-05-31 20:15:21 UTC
kaus3_app_se,http://d.liveatc.net/kaus3_app_se,KAUS App/Dep (SE),US-Class-C,"KAUS 311953Z 15014KT 10SM SCT034 BKN050 BKN110 28/22 A2999 RMK AO2 SLP147 T02830217
","Austin, Texas, United States",2021-05-31 20:15:21 UTC
kaus3_app_s,http://d.liveatc.net/kaus3_app_s,KAUS App/Dep (South) #1,US-Class-C,"KAUS 311953Z 15014KT 10SM SCT034 BKN050 BKN110 28/22 A2999 RMK AO2 SLP147 T02830217
","Austin, Texas, United States",2021-05-31 20:15:21 UTC
kaus1_app_s,http://d.liveatc.net/kaus1_app_s,KAUS App/Dep (South) #2,US-Class-C,"KAUS 311953Z 15014KT 10SM SCT034 BKN050 BKN110 28/22 A2999 RMK AO2 SLP147 T02830217
","Austin, Texas, United States",2021-05-31 20:15:21 UTC
kaus3_app_w,http://d.liveatc.net/kaus3_app_w,KAUS App/Dep (West) #1,US-Class-C,"KAUS 311953Z 15014KT 10SM SCT034 BKN050 BKN110 28/22 A2999 RMK AO2 SLP147 T02830217
","Austin, Texas, United States",2021-05-31 20:15:21 UTC
kaus1_app_w,http://d.liveatc.net/kaus1_app_w,KAUS App/Dep (West) #2,US-Class-C,"KAUS 311953Z 15014KT 10SM SCT034 BKN050 BKN110 28/22 A2999 RMK AO2 SLP147 T02830217
","Austin, Texas, United States",2021-05-31 20:15:21 UTC
kaus1_app_final,http://d.liveatc.net/kaus1_app_final,KAUS Approach (Final) #2,US-Class-C,"KAUS 311953Z 15014KT 10SM SCT034 BKN050 BKN110 28/22 A2999 RMK AO2 SLP147 T02830217
","Austin, Texas, United States",2021-05-31 20:15:21 UTC
kaus3_atis,http://d.liveatc.net/kaus3_atis,KAUS ATIS,US-Class-C,"KAUS 311953Z 15014KT 10SM SCT034 BKN050 BKN110 28/22 A2999 RMK AO2 SLP147 T02830217
","Austin, Texas, United States",2021-05-31 20:15:21 UTC
kaus3_del,http://d.liveatc.net/kaus3_del,KAUS Clearance Delivery #1,US-Class-C,"KAUS 311953Z 15014KT 10SM SCT034 BKN050 BKN110 28/22 A2999 RMK AO2 SLP147 T02830217
","Austin, Texas, United States",2021-05-31 20:15:21 UTC
kaus1_del,http://d.liveatc.net/kaus1_del,KAUS Clearance Delivery #2,US-Class-C,"KAUS 311953Z 15014KT 10SM SCT034 BKN050 BKN110 28/22 A2999 RMK AO2 SLP147 T02830217
","Austin, Texas, United States",2021-05-31 20:15:21 UTC
kaus3_gnd,http://d.liveatc.net/kaus3_gnd,KAUS Ground #1,US-Class-C,"KAUS 311953Z 15014KT 10SM SCT034 BKN050 BKN110 28/22 A2999 RMK AO2 SLP147 T02830217
","Austin, Texas, United States",2021-05-31 20:15:21 UTC
kaus1_gnd,http://d.liveatc.net/kaus1_gnd,KAUS Ground #2,US-Class-C,"KAUS 311953Z 15014KT 10SM SCT034 BKN050 BKN110 28/22 A2999 RMK AO2 SLP147 T02830217
","Austin, Texas, United States",2021-05-31 20:15:21 UTC
kaus1_gnd1,http://d.liveatc.net/kaus1_gnd1,KAUS Ground (Primary) #2,US-Class-C,"KAUS 311953Z 15014KT 10SM SCT034 BKN050 BKN110 28/22 A2999 RMK AO2 SLP147 T02830217
","Austin, Texas, United States",2021-05-31 20:15:21 UTC
kaus1_gnd2,http://d.liveatc.net/kaus1_gnd2,KAUS Ground (Secondary) #2,US-Class-C,"KAUS 311953Z 15014KT 10SM SCT034 BKN050 BKN110 28/22 A2999 RMK AO2 SLP147 T02830217
","Austin, Texas, United States",2021-05-31 20:15:21 UTC
kaus3_twr,http://d.liveatc.net/kaus3_twr,KAUS Tower #1,US-Class-C,"KAUS 311953Z 15014KT 10SM SCT034 BKN050 BKN110 28/22 A2999 RMK AO2 SLP147 T02830217
","Austin, Texas, United States",2021-05-31 20:15:21 UTC
kaus1_twr,http://d.liveatc.net/kaus1_twr,KAUS Tower #2,US-Class-C,"KAUS 311953Z 15014KT 10SM SCT034 BKN050 BKN110 28/22 A2999 RMK AO2 SLP147 T02830217
","Austin, Texas, United States",2021-05-31 20:15:21 UTC
kaus1_twr1,http://d.liveatc.net/kaus1_twr1,KAUS Tower (Main) #2,US-Class-C,"KAUS 311953Z 15014KT 10SM SCT034 BKN050 BKN110 28/22 A2999 RMK AO2 SLP147 T02830217
","Austin, Texas, United States",2021-05-31 20:15:21 UTC
kaus1_twr2,http://d.liveatc.net/kaus1_twr2,KAUS Tower (Secondary) #2,US-Class-C,"KAUS 311953Z 15014KT 10SM SCT034 BKN050 BKN110 28/22 A2999 RMK AO2 SLP147 T02830217
","Austin, Texas, United States",2021-05-31 20:15:21 UTC
kavl2,http://d.liveatc.net/kavl2,KAVL Gnd/Twr/App,US-Class-C,"KAVL 311954Z AUTO VRB04KT 10SM CLR 22/11 A3030 RMK AO2 SLP245 T02220106
","Asheville, North Carolina, United States",2021-05-31 20:15:21 UTC
kbtl,http://d.liveatc.net/kbtl,KBTL/KAZO Gnd/Twr/App,US-Class-C,KBTL Airport Info,"Kalamazoo, Michigan, United States",2021-05-31 20:15:21 UTC
kbdl2_app,http://d.liveatc.net/kbdl2_app,KBDL Approach/ANG,US-Class-C,"KBDL 311951Z 32014KT 10SM SCT028 OVC034 16/08 A3016 RMK AO2 SLP211 T01560083
","Windsor Locks, Connecticut, United States",2021-05-31 20:15:21 UTC
kbdl2_atis,http://d.liveatc.net/kbdl2_atis,KBDL ATIS,US-Class-C,"KBDL 311951Z 32014KT 10SM SCT028 OVC034 16/08 A3016 RMK AO2 SLP211 T01560083
","Windsor Locks, Connecticut, United States",2021-05-31 20:15:21 UTC
kbdl2_del_gnd,http://d.liveatc.net/kbdl2_del_gnd,KBDL Del/Gnd,US-Class-C,"KBDL 311951Z 32014KT 10SM SCT028 OVC034 16/08 A3016 RMK AO2 SLP211 T01560083
","Windsor Locks, Connecticut, United States",2021-05-31 20:15:21 UTC
kbdl2_twr,http://d.liveatc.net/kbdl2_twr,KBDL Tower,US-Class-C,"KBDL 311951Z 32014KT 10SM SCT028 OVC034 16/08 A3016 RMK AO2 SLP211 T01560083
","Windsor Locks, Connecticut, United States",2021-05-31 20:15:21 UTC
kbdl2_twr_app,http://d.liveatc.net/kbdl2_twr_app,KBDL Twr/App,US-Class-C,"KBDL 311951Z 32014KT 10SM SCT028 OVC034 16/08 A3016 RMK AO2 SLP211 T01560083
","Windsor Locks, Connecticut, United States",2021-05-31 20:15:21 UTC
kbfm_atis,http://d.liveatc.net/kbfm_atis,KBFM ATIS,US-Class-C,"KBFM 311953Z 19006KT 10SM FEW050 29/14 A3018 RMK AO2 SLP219 T02940144
","Mobile, Alabama, United States",2021-05-31 20:15:21 UTC
kbgr_app,http://d.liveatc.net/kbgr_app,KBGR App/Dep,US-Class-C,"KBGR 311953Z 36007KT 1SM R15/6000VP6000FT -DZ BR OVC004 14/13 A3004 RMK AO2 DZB09 SLP172 P0000 T01390133 $
","Bangor, Maine, United States",2021-05-31 20:15:21 UTC
kbgr_atis,http://d.liveatc.net/kbgr_atis,KBGR ATIS,US-Class-C,"KBGR 311953Z 36007KT 1SM R15/6000VP6000FT -DZ BR OVC004 14/13 A3004 RMK AO2 DZB09 SLP172 P0000 T01390133 $
","Bangor, Maine, United States",2021-05-31 20:15:21 UTC
kbgr,http://d.liveatc.net/kbgr,KBGR Del/Gnd/Twr,US-Class-C,"KBGR 311953Z 36007KT 1SM R15/6000VP6000FT -DZ BR OVC004 14/13 A3004 RMK AO2 DZB09 SLP172 P0000 T01390133 $
","Bangor, Maine, United States",2021-05-31 20:15:21 UTC
kbhm,http://d.liveatc.net/kbhm,KBHM Gnd/Twr/App,US-Class-C,"KBHM 311953Z 11010KT 10SM FEW055 SCT250 27/13 A3024 RMK AO2 SLP231 T02720133 $
","Birmingham, Alabama, United States",2021-05-31 20:15:21 UTC
kbil_app_w,http://d.liveatc.net/kbil_app_w,KBIL Approach (West),US-Class-C,"KBIL 311953Z 23007KT 10SM FEW065 FEW100 26/M01 A3011 RMK AO2 SLP172 ACSL SW-NE T02561011
","Billings, Montana, United States",2021-05-31 20:15:21 UTC
kbil_gnd,http://d.liveatc.net/kbil_gnd,KBIL Ground,US-Class-C,"KBIL 311953Z 23007KT 10SM FEW065 FEW100 26/M01 A3011 RMK AO2 SLP172 ACSL SW-NE T02561011
","Billings, Montana, United States",2021-05-31 20:15:21 UTC
kbil_twr,http://d.liveatc.net/kbil_twr,KBIL Tower,US-Class-C,"KBIL 311953Z 23007KT 10SM FEW065 FEW100 26/M01 A3011 RMK AO2 SLP172 ACSL SW-NE T02561011
","Billings, Montana, United States",2021-05-31 20:15:21 UTC
kbna_app,http://d.liveatc.net/kbna_app,KBNA App/Dep,US-Class-C,"KBNA 311953Z VRB04KT 10SM SCT250 27/09 A3024 RMK AO2 SLP235 T02670094 $
","Nashville, Tennessee, United States",2021-05-31 20:15:21 UTC
kbna_app_east,http://d.liveatc.net/kbna_app_east,KBNA App/Dep (East),US-Class-C,"KBNA 311953Z VRB04KT 10SM SCT250 27/09 A3024 RMK AO2 SLP235 T02670094 $
","Nashville, Tennessee, United States",2021-05-31 20:15:21 UTC
kbna3_2,http://d.liveatc.net/kbna3_2,KBNA Gnd/Twr,US-Class-C,"KBNA 311953Z VRB04KT 10SM SCT250 27/09 A3024 RMK AO2 SLP235 T02670094 $
","Nashville, Tennessee, United States",2021-05-31 20:15:21 UTC
kboi_gnd,http://d.liveatc.net/kboi_gnd,KBOI Del/Gnd,US-Class-C,"KBOI 311953Z 34008G17KT 10SM CLR 27/01 A3012 RMK AO2 SLP177 T02720011
","Boise, Idaho, United States",2021-05-31 20:15:21 UTC
kboi,http://d.liveatc.net/kboi,KBOI Twr/App,US-Class-C,"KBOI 311953Z 34008G17KT 10SM CLR 27/01 A3012 RMK AO2 SLP177 T02720011
","Boise, Idaho, United States",2021-05-31 20:15:21 UTC
kbtl,http://d.liveatc.net/kbtl,KBTL/KAZO Gnd/Twr/App,US-Class-C,KBTL Airport Info,"Battle Creek, Michigan, United States",2021-05-31 20:15:21 UTC
kbtr,http://d.liveatc.net/kbtr,KBTR/KHZR/L38 Del/Gnd/Twr/App/CTAF,US-Class-C,"KBTR 311953Z 08006KT 10SM FEW050 30/19 A3012 RMK AO2 SLP198 T03000189
","Baton Rouge, Louisiana, United States",2021-05-31 20:15:21 UTC
kbtv_app,http://d.liveatc.net/kbtv_app,KBTV App/Dep,US-Class-C,"KBTV 311954Z 04007KT 10SM SCT036 BKN090 14/09 A3017 RMK AO2 SLP216 T01440089
","Burlington, Vermont, United States",2021-05-31 20:15:21 UTC
kbtv_atis,http://d.liveatc.net/kbtv_atis,KBTV ATIS,US-Class-C,"KBTV 311954Z 04007KT 10SM SCT036 BKN090 14/09 A3017 RMK AO2 SLP216 T01440089
","Burlington, Vermont, United States",2021-05-31 20:15:21 UTC
kbtv_del_gnd_twr,http://d.liveatc.net/kbtv_del_gnd_twr,KBTV Del/Gnd/Twr,US-Class-C,"KBTV 311954Z 04007KT 10SM SCT036 BKN090 14/09 A3017 RMK AO2 SLP216 T01440089
","Burlington, Vermont, United States",2021-05-31 20:15:21 UTC
kbtv,http://d.liveatc.net/kbtv,KBTV Del/Gnd/Twr/App,US-Class-C,"KBTV 311954Z 04007KT 10SM SCT036 BKN090 14/09 A3017 RMK AO2 SLP216 T01440089
","Burlington, Vermont, United States",2021-05-31 20:15:21 UTC
kbtv_twr_app,http://d.liveatc.net/kbtv_twr_app,KBTV Twr/App,US-Class-C,"KBTV 311954Z 04007KT 10SM SCT036 BKN090 14/09 A3017 RMK AO2 SLP216 T01440089
","Burlington, Vermont, United States",2021-05-31 20:15:21 UTC
kbuf_app,http://d.liveatc.net/kbuf_app,KBUF Twr/App/Dep,US-Class-C,"KBUF 311954Z 23012KT 10SM FEW055 SCT250 19/04 A3025 RMK AO2 SLP246 T01940044 $
","Buffalo, New York, United States",2021-05-31 20:15:21 UTC
kbur3,http://d.liveatc.net/kbur3,KBUR Gnd/Twr/App,US-Class-C,"KBUR 311953Z VRB05KT 10SM CLR 23/12 A2994 RMK AO2 SLP126 T02280122 $
","Burbank, California, United States",2021-05-31 20:15:21 UTC
kcae,http://d.liveatc.net/kcae,KCAE Gnd/Twr/App,US-Class-C,"KCAE 311956Z 03004KT 10SM SCT049 SCT200 25/10 A3027 RMK AO2 SLP248 T02500100 $
","Columbia, South Carolina, United States",2021-05-31 20:15:21 UTC
kcak_app,http://d.liveatc.net/kcak_app,KCAK App/Dep,US-Class-C,"KCAK 311951Z 24003KT 10SM FEW100 SCT180 22/04 A3027 RMK AO2 SLP250 T02170039
","Akron, Ohio, United States",2021-05-31 20:15:21 UTC
kcak_atis,http://d.liveatc.net/kcak_atis,KCAK ATIS,US-Class-C,"KCAK 311951Z 24003KT 10SM FEW100 SCT180 22/04 A3027 RMK AO2 SLP250 T02170039
","Akron, Ohio, United States",2021-05-31 20:15:21 UTC
kcak_del_gnd_twr,http://d.liveatc.net/kcak_del_gnd_twr,KCAK Del/Gnd/Twr,US-Class-C,"KCAK 311951Z 24003KT 10SM FEW100 SCT180 22/04 A3027 RMK AO2 SLP250 T02170039
","Akron, Ohio, United States",2021-05-31 20:15:21 UTC
kcak,http://d.liveatc.net/kcak,KCAK Del/Gnd/Twr/App,US-Class-C,"KCAK 311951Z 24003KT 10SM FEW100 SCT180 22/04 A3027 RMK AO2 SLP250 T02170039
","Akron, Ohio, United States",2021-05-31 20:15:21 UTC
kcha,http://d.liveatc.net/kcha,KCHA Twr/App,US-Class-C,"KCHA 311953Z 19009G16KT 10SM SCT055 BKN300 27/11 A3025 RMK AO2 SLP237 T02720111
","Chattanooga, Tennessee, United States",2021-05-31 20:15:21 UTC
kchs,http://d.liveatc.net/kchs,KCHS Gnd/Twr/App,US-Class-C,"KCHS 311956Z 10006KT 10SM SCT055 BKN250 24/13 A3026 RMK AO2 SLP247 T02390128
","Charleston, South Carolina, United States",2021-05-31 20:15:21 UTC
kcid2,http://d.liveatc.net/kcid2,KCID Del/Gnd/Twr/App,US-Class-C,"KCID 311952Z VRB05KT 10SM FEW047 20/09 A3020 RMK AO2 SLP226 T02000094
","Cedar Rapids, Iowa, United States",2021-05-31 20:15:21 UTC
kcid,http://d.liveatc.net/kcid,KCID Gnd/Twr/App/KIOW,US-Class-C,"KCID 311952Z VRB05KT 10SM FEW047 20/09 A3020 RMK AO2 SLP226 T02000094
","Cedar Rapids, Iowa, United States",2021-05-31 20:15:21 UTC
kcmh1_app,http://d.liveatc.net/kcmh1_app,KCMH App/Dep,US-Class-C,"KCMH 311951Z 15007KT 10SM SCT170 BKN250 22/02 A3025 RMK AO2 SLP244 T02220022
","Columbus, Ohio, United States",2021-05-31 20:15:21 UTC
kcmh1_del_gnd,http://d.liveatc.net/kcmh1_del_gnd,KCMH Del/Gnd,US-Class-C,"KCMH 311951Z 15007KT 10SM SCT170 BKN250 22/02 A3025 RMK AO2 SLP244 T02220022
","Columbus, Ohio, United States",2021-05-31 20:15:21 UTC
kcmh1_twr,http://d.liveatc.net/kcmh1_twr,KCMH Tower,US-Class-C,"KCMH 311951Z 15007KT 10SM SCT170 BKN250 22/02 A3025 RMK AO2 SLP244 T02220022
","Columbus, Ohio, United States",2021-05-31 20:15:21 UTC
kcos3,http://d.liveatc.net/kcos3,KCOS Gnd/Twr/App/Dep,US-Class-C,"KCOS 311954Z 13012KT 7SM -RA SCT026 BKN036 OVC050 12/08 A3031 RMK AO2 RAB31 SLP233 P0001 T01170078 $
","Colorado Springs, Colorado, United States",2021-05-31 20:15:21 UTC
kcrp1,http://d.liveatc.net/kcrp1,KCRP App/Dep,US-Class-C,"KCRP 311951Z 16010KT 10SM FEW030 SCT035 SCT044 BKN250 30/23 A3000 RMK AO2 SLP157 T03000228 $
","Corpus Christi, Texas, United States",2021-05-31 20:15:21 UTC
kcrp1_gnd_twr,http://d.liveatc.net/kcrp1_gnd_twr,KCRP Del/Gnd/Twr,US-Class-C,"KCRP 311951Z 16010KT 10SM FEW030 SCT035 SCT044 BKN250 30/23 A3000 RMK AO2 SLP157 T03000228 $
","Corpus Christi, Texas, United States",2021-05-31 20:15:21 UTC
kcrw,http://d.liveatc.net/kcrw,KCRW Tower/Approach,US-Class-C,"KCRW 311954Z 00000KT 10SM CLR 21/09 A3028 RMK AO2 SLP251 T02060094
","Charleston, West Virginia, United States",2021-05-31 20:15:21 UTC
kdab_app_dep,http://d.liveatc.net/kdab_app_dep,KDAB App/Dep,US-Class-C,"KDAB 311953Z 05009G17KT 020V080 10SM SCT033 SCT200 27/18 A3019 RMK AO2 SLP223 T02720178 $
","Daytona Beach, Florida, United States",2021-05-31 20:15:21 UTC
kdab_app_all,http://d.liveatc.net/kdab_app_all,KDAB App/Dep (All),US-Class-C,"KDAB 311953Z 05009G17KT 020V080 10SM SCT033 SCT200 27/18 A3019 RMK AO2 SLP223 T02720178 $
","Daytona Beach, Florida, United States",2021-05-31 20:15:21 UTC
kdab_app_nl,http://d.liveatc.net/kdab_app_nl,KDAB Approach (North/Low),US-Class-C,"KDAB 311953Z 05009G17KT 020V080 10SM SCT033 SCT200 27/18 A3019 RMK AO2 SLP223 T02720178 $
","Daytona Beach, Florida, United States",2021-05-31 20:15:21 UTC
kdab_atis2,http://d.liveatc.net/kdab_atis2,KDAB ATIS,US-Class-C,"KDAB 311953Z 05009G17KT 020V080 10SM SCT033 SCT200 27/18 A3019 RMK AO2 SLP223 T02720178 $
","Daytona Beach, Florida, United States",2021-05-31 20:15:21 UTC
kdab_del_gnd,http://d.liveatc.net/kdab_del_gnd,KDAB Clearance/Ground,US-Class-C,"KDAB 311953Z 05009G17KT 020V080 10SM SCT033 SCT200 27/18 A3019 RMK AO2 SLP223 T02720178 $
","Daytona Beach, Florida, United States",2021-05-31 20:15:21 UTC
kdab_tmp,http://d.liveatc.net/kdab_tmp,KDAB Ground/Tower,US-Class-C,"KDAB 311953Z 05009G17KT 020V080 10SM SCT033 SCT200 27/18 A3019 RMK AO2 SLP223 T02720178 $
","Daytona Beach, Florida, United States",2021-05-31 20:15:21 UTC
kdab_twr_pri,http://d.liveatc.net/kdab_twr_pri,KDAB Tower (120.7),US-Class-C,"KDAB 311953Z 05009G17KT 020V080 10SM SCT033 SCT200 27/18 A3019 RMK AO2 SLP223 T02720178 $
","Daytona Beach, Florida, United States",2021-05-31 20:15:21 UTC
kdab_twr,http://d.liveatc.net/kdab_twr,KDAB Tower (Both),US-Class-C,"KDAB 311953Z 05009G17KT 020V080 10SM SCT033 SCT200 27/18 A3019 RMK AO2 SLP223 T02720178 $
","Daytona Beach, Florida, United States",2021-05-31 20:15:21 UTC
kday,http://d.liveatc.net/kday,KDAY Del/Gnd/Twr/App,US-Class-C,"KDAY 311956Z 00000KT 10SM FEW065 SCT160 BKN200 22/07 A3027 RMK AO2 SLP248 T02170072 $
","Dayton, Ohio, United States",2021-05-31 20:15:21 UTC
ktus,http://d.liveatc.net/ktus,KDMA/KTUS Twr/Ops/ZAB,US-Class-C,"KTUS 311953Z AUTO 00000KT 10SM FEW110 34/02 A2997 RMK AO2 SLP095 T03440017
","Tucson, Arizona, United States",2021-05-31 20:15:21 UTC
ktus2,http://d.liveatc.net/ktus2,KTUS Del/Gnd/Twr/App/KDMA,US-Class-C,"KTUS 311953Z AUTO 00000KT 10SM FEW110 34/02 A2997 RMK AO2 SLP095 T03440017
","Tucson, Arizona, United States",2021-05-31 20:15:21 UTC
kelp1_app_n,http://d.liveatc.net/kelp1_app_n,KELP App/Dep (North),US-Class-C,"KELP 311951Z VRB06KT 10SM FEW130 FEW180 32/M02 A3000 RMK AO2 SLP082 TCU DSNT NE-E AND NW T03221017
","El Paso, Texas, United States",2021-05-31 20:15:21 UTC
kelp1_app_e,http://d.liveatc.net/kelp1_app_e,KELP Approach,US-Class-C,"KELP 311951Z VRB06KT 10SM FEW130 FEW180 32/M02 A3000 RMK AO2 SLP082 TCU DSNT NE-E AND NW T03221017
","El Paso, Texas, United States",2021-05-31 20:15:21 UTC
kelp1,http://d.liveatc.net/kelp1,KELP Gnd/Twr/App/Dep,US-Class-C,"KELP 311951Z VRB06KT 10SM FEW130 FEW180 32/M02 A3000 RMK AO2 SLP082 TCU DSNT NE-E AND NW T03221017
","El Paso, Texas, United States",2021-05-31 20:15:21 UTC
kelp1_gnd,http://d.liveatc.net/kelp1_gnd,KELP Ground,US-Class-C,"KELP 311951Z VRB06KT 10SM FEW130 FEW180 32/M02 A3000 RMK AO2 SLP082 TCU DSNT NE-E AND NW T03221017
","El Paso, Texas, United States",2021-05-31 20:15:21 UTC
kelp1_twr,http://d.liveatc.net/kelp1_twr,KELP Tower,US-Class-C,"KELP 311951Z VRB06KT 10SM FEW130 FEW180 32/M02 A3000 RMK AO2 SLP082 TCU DSNT NE-E AND NW T03221017
","El Paso, Texas, United States",2021-05-31 20:15:21 UTC
kfat2,http://d.liveatc.net/kfat2,KFAT App/Dep,US-Class-C,"KFAT 311953Z 22005KT 10SM FEW070 SCT250 34/11 A2986 RMK AO2 SLP105 CU OMTNS DSNT N-E-S T03440106
","Fresno, California, United States",2021-05-31 20:15:21 UTC
kfat_atis,http://d.liveatc.net/kfat_atis,KFAT ATIS,US-Class-C,"KFAT 311953Z 22005KT 10SM FEW070 SCT250 34/11 A2986 RMK AO2 SLP105 CU OMTNS DSNT N-E-S T03440106
","Fresno, California, United States",2021-05-31 20:15:21 UTC
kfat1,http://d.liveatc.net/kfat1,KFAT Del/Gnd/Twr,US-Class-C,"KFAT 311953Z 22005KT 10SM FEW070 SCT250 34/11 A2986 RMK AO2 SLP105 CU OMTNS DSNT N-E-S T03440106
","Fresno, California, United States",2021-05-31 20:15:21 UTC
kfat1_s,http://d.liveatc.net/kfat1_s,KFAT Del/Gnd/Twr/App,US-Class-C,"KFAT 311953Z 22005KT 10SM FEW070 SCT250 34/11 A2986 RMK AO2 SLP105 CU OMTNS DSNT N-E-S T03440106
","Fresno, California, United States",2021-05-31 20:15:21 UTC
kfll1_final,http://d.liveatc.net/kfll1_final,KFLL App (Final),US-Class-C,"KFLL 311953Z 05014KT 10SM FEW021 FEW100 BKN250 29/22 A3010 RMK AO2 SLP191 T02890217
","Fort Lauderdale, Florida, United States",2021-05-31 20:15:21 UTC
kfll1_atis,http://d.liveatc.net/kfll1_atis,KFLL ATIS,US-Class-C,"KFLL 311953Z 05014KT 10SM FEW021 FEW100 BKN250 29/22 A3010 RMK AO2 SLP191 T02890217
","Fort Lauderdale, Florida, United States",2021-05-31 20:15:21 UTC
kfll1_del,http://d.liveatc.net/kfll1_del,KFLL Clearance Delivery,US-Class-C,"KFLL 311953Z 05014KT 10SM FEW021 FEW100 BKN250 29/22 A3010 RMK AO2 SLP191 T02890217
","Fort Lauderdale, Florida, United States",2021-05-31 20:15:21 UTC
kmia3_fll_dep,http://d.liveatc.net/kmia3_fll_dep,KFLL Departure,US-Class-C,"KMIA 311953Z 07013KT 10SM SCT024 SCT180 BKN250 29/22 A3010 RMK SLP193 T02890222
","Fort Lauderdale, Florida, United States",2021-05-31 20:15:21 UTC
kfll1_gnd,http://d.liveatc.net/kfll1_gnd,KFLL Ground,US-Class-C,"KFLL 311953Z 05014KT 10SM FEW021 FEW100 BKN250 29/22 A3010 RMK AO2 SLP191 T02890217
","Fort Lauderdale, Florida, United States",2021-05-31 20:15:21 UTC
kfll1_gnd1,http://d.liveatc.net/kfll1_gnd1,KFLL Ground (Main),US-Class-C,"KFLL 311953Z 05014KT 10SM FEW021 FEW100 BKN250 29/22 A3010 RMK AO2 SLP191 T02890217
","Fort Lauderdale, Florida, United States",2021-05-31 20:15:21 UTC
kfll1_gnd2,http://d.liveatc.net/kfll1_gnd2,KFLL Ground (Secondary),US-Class-C,"KFLL 311953Z 05014KT 10SM FEW021 FEW100 BKN250 29/22 A3010 RMK AO2 SLP191 T02890217
","Fort Lauderdale, Florida, United States",2021-05-31 20:15:21 UTC
kfll1_ramp,http://d.liveatc.net/kfll1_ramp,KFLL Ramp,US-Class-C,"KFLL 311953Z 05014KT 10SM FEW021 FEW100 BKN250 29/22 A3010 RMK AO2 SLP191 T02890217
","Fort Lauderdale, Florida, United States",2021-05-31 20:15:21 UTC
kfll1_twr,http://d.liveatc.net/kfll1_twr,KFLL Tower,US-Class-C,"KFLL 311953Z 05014KT 10SM FEW021 FEW100 BKN250 29/22 A3010 RMK AO2 SLP191 T02890217
","Fort Lauderdale, Florida, United States",2021-05-31 20:15:21 UTC
kfll1_twr1,http://d.liveatc.net/kfll1_twr1,KFLL Tower (Main),US-Class-C,"KFLL 311953Z 05014KT 10SM FEW021 FEW100 BKN250 29/22 A3010 RMK AO2 SLP191 T02890217
","Fort Lauderdale, Florida, United States",2021-05-31 20:15:21 UTC
kfll1_twr2,http://d.liveatc.net/kfll1_twr2,KFLL Tower (Secondary),US-Class-C,"KFLL 311953Z 05014KT 10SM FEW021 FEW100 BKN250 29/22 A3010 RMK AO2 SLP191 T02890217
","Fort Lauderdale, Florida, United States",2021-05-31 20:15:21 UTC
kfwa1_app,http://d.liveatc.net/kfwa1_app,KFWA App/Dep,US-Class-C,"KFWA 311954Z 22006KT 10SM FEW050 FEW140 SCT200 BKN250 21/07 A3026 RMK AO2 SLP247 T02110067 $
","Fort Wayne, Indiana, United States",2021-05-31 20:15:21 UTC
kfwa1_atis,http://d.liveatc.net/kfwa1_atis,KFWA ATIS,US-Class-C,"KFWA 311954Z 22006KT 10SM FEW050 FEW140 SCT200 BKN250 21/07 A3026 RMK AO2 SLP247 T02110067 $
","Fort Wayne, Indiana, United States",2021-05-31 20:15:21 UTC
kfwa1_del_gnd,http://d.liveatc.net/kfwa1_del_gnd,KFWA Del/Ground,US-Class-C,"KFWA 311954Z 22006KT 10SM FEW050 FEW140 SCT200 BKN250 21/07 A3026 RMK AO2 SLP247 T02110067 $
","Fort Wayne, Indiana, United States",2021-05-31 20:15:21 UTC
kfwa1_guard,http://d.liveatc.net/kfwa1_guard,KFWA Emergency/Guard,US-Class-C,"KFWA 311954Z 22006KT 10SM FEW050 FEW140 SCT200 BKN250 21/07 A3026 RMK AO2 SLP247 T02110067 $
","Fort Wayne, Indiana, United States",2021-05-31 20:15:21 UTC
kfwa1_twr,http://d.liveatc.net/kfwa1_twr,KFWA Tower,US-Class-C,"KFWA 311954Z 22006KT 10SM FEW050 FEW140 SCT200 BKN250 21/07 A3026 RMK AO2 SLP247 T02110067 $
","Fort Wayne, Indiana, United States",2021-05-31 20:15:21 UTC
kgeg,http://d.liveatc.net/kgeg,KGEG Del/Gnd/Twr/App,US-Class-C,"KGEG 311953Z 18007KT 10SM FEW070 SCT250 26/04 A3015 RMK AO2 SLP196 T02610039
","Spokane, Washington, United States",2021-05-31 20:15:21 UTC
kgrb,http://d.liveatc.net/kgrb,KGRB Del/Gnd/Twr/App,US-Class-C,"KGRB 311953Z 21007G16KT 10SM CLR 23/07 A3014 RMK AO2 SLP206 T02330072
","Green Bay, Wisconsin, United States",2021-05-31 20:15:21 UTC
kgrr2_2_app,http://d.liveatc.net/kgrr2_2_app,KGRR App/Dep,US-Class-C,"KGRR 311953Z 22013G17KT 10SM FEW070 SCT160 OVC210 22/07 A3023 RMK AO2 SLP238 T02170072
","Grand Rapids, Michigan, United States",2021-05-31 20:15:21 UTC
kgrr2_2_app_n,http://d.liveatc.net/kgrr2_2_app_n,KGRR App/Dep (North),US-Class-C,"KGRR 311953Z 22013G17KT 10SM FEW070 SCT160 OVC210 22/07 A3023 RMK AO2 SLP238 T02170072
","Grand Rapids, Michigan, United States",2021-05-31 20:15:21 UTC
kgrr2_2_app_s,http://d.liveatc.net/kgrr2_2_app_s,KGRR App/Dep (South),US-Class-C,"KGRR 311953Z 22013G17KT 10SM FEW070 SCT160 OVC210 22/07 A3023 RMK AO2 SLP238 T02170072
","Grand Rapids, Michigan, United States",2021-05-31 20:15:21 UTC
kgrr2_2_del,http://d.liveatc.net/kgrr2_2_del,KGRR Clearance Delivery,US-Class-C,"KGRR 311953Z 22013G17KT 10SM FEW070 SCT160 OVC210 22/07 A3023 RMK AO2 SLP238 T02170072
","Grand Rapids, Michigan, United States",2021-05-31 20:15:21 UTC
kgrr2_2_del_gnd_twr,http://d.liveatc.net/kgrr2_2_del_gnd_twr,KGRR Del/Gnd/Twr,US-Class-C,"KGRR 311953Z 22013G17KT 10SM FEW070 SCT160 OVC210 22/07 A3023 RMK AO2 SLP238 T02170072
","Grand Rapids, Michigan, United States",2021-05-31 20:15:21 UTC
kgrr2,http://d.liveatc.net/kgrr2,KGRR Del/Gnd/Twr/App,US-Class-C,"KGRR 311953Z 22013G17KT 10SM FEW070 SCT160 OVC210 22/07 A3023 RMK AO2 SLP238 T02170072
","Grand Rapids, Michigan, United States",2021-05-31 20:15:21 UTC
kgrr2_2_guard,http://d.liveatc.net/kgrr2_2_guard,KGRR Emergency/Guard,US-Class-C,"KGRR 311953Z 22013G17KT 10SM FEW070 SCT160 OVC210 22/07 A3023 RMK AO2 SLP238 T02170072
","Grand Rapids, Michigan, United States",2021-05-31 20:15:21 UTC
kgrr2_2_gnd_twr_app,http://d.liveatc.net/kgrr2_2_gnd_twr_app,KGRR Gnd/Twr/App,US-Class-C,"KGRR 311953Z 22013G17KT 10SM FEW070 SCT160 OVC210 22/07 A3023 RMK AO2 SLP238 T02170072
","Grand Rapids, Michigan, United States",2021-05-31 20:15:21 UTC
kgrr2_2_gnd,http://d.liveatc.net/kgrr2_2_gnd,KGRR Ground,US-Class-C,"KGRR 311953Z 22013G17KT 10SM FEW070 SCT160 OVC210 22/07 A3023 RMK AO2 SLP238 T02170072
","Grand Rapids, Michigan, United States",2021-05-31 20:15:21 UTC
kgrr2_2_twr,http://d.liveatc.net/kgrr2_2_twr,KGRR Tower,US-Class-C,"KGRR 311953Z 22013G17KT 10SM FEW070 SCT160 OVC210 22/07 A3023 RMK AO2 SLP238 T02170072
","Grand Rapids, Michigan, United States",2021-05-31 20:15:21 UTC
kgso1_app,http://d.liveatc.net/kgso1_app,KGSO Approach/Departure,US-Class-C,"KGSO 311954Z VRB04KT 10SM BKN050 BKN250 22/10 A3029 RMK AO2 SLP252 T02170100 $
","Greensboro, North Carolina, United States",2021-05-31 20:15:21 UTC
kgso1_app_south,http://d.liveatc.net/kgso1_app_south,KGSO Approach/Departure (South),US-Class-C,"KGSO 311954Z VRB04KT 10SM BKN050 BKN250 22/10 A3029 RMK AO2 SLP252 T02170100 $
","Greensboro, North Carolina, United States",2021-05-31 20:15:21 UTC
kgso1_app_west,http://d.liveatc.net/kgso1_app_west,KGSO Approach/Departure (West),US-Class-C,"KGSO 311954Z VRB04KT 10SM BKN050 BKN250 22/10 A3029 RMK AO2 SLP252 T02170100 $
","Greensboro, North Carolina, United States",2021-05-31 20:15:21 UTC
kgso1_atis,http://d.liveatc.net/kgso1_atis,KGSO ATIS,US-Class-C,"KGSO 311954Z VRB04KT 10SM BKN050 BKN250 22/10 A3029 RMK AO2 SLP252 T02170100 $
","Greensboro, North Carolina, United States",2021-05-31 20:15:21 UTC
kgso1_del_gnd,http://d.liveatc.net/kgso1_del_gnd,KGSO Del/Gnd,US-Class-C,"KGSO 311954Z VRB04KT 10SM BKN050 BKN250 22/10 A3029 RMK AO2 SLP252 T02170100 $
","Greensboro, North Carolina, United States",2021-05-31 20:15:21 UTC
kgso1_twr,http://d.liveatc.net/kgso1_twr,KGSO Tower,US-Class-C,"KGSO 311954Z VRB04KT 10SM BKN050 BKN250 22/10 A3029 RMK AO2 SLP252 T02170100 $
","Greensboro, North Carolina, United States",2021-05-31 20:15:21 UTC
kgmu_kgsp_app_e,http://d.liveatc.net/kgmu_kgsp_app_e,KGSP App/Dep (East),US-Class-C,"KGMU 311953Z 20007KT 10SM BKN050 23/12 A3030 RMK AO2 SLP255 T02330117
","Greer, South Carolina, United States",2021-05-31 20:15:21 UTC
kgmu_kgsp_app_w,http://d.liveatc.net/kgmu_kgsp_app_w,KGSP App/Dep (West),US-Class-C,"KGMU 311953Z 20007KT 10SM BKN050 23/12 A3030 RMK AO2 SLP255 T02330117
","Greer, South Carolina, United States",2021-05-31 20:15:21 UTC
kgmu_kgsp_atis,http://d.liveatc.net/kgmu_kgsp_atis,KGSP ATIS,US-Class-C,"KGMU 311953Z 20007KT 10SM BKN050 23/12 A3030 RMK AO2 SLP255 T02330117
","Greer, South Carolina, United States",2021-05-31 20:15:21 UTC
kgmu_kgsp_twr,http://d.liveatc.net/kgmu_kgsp_twr,KGSP Tower,US-Class-C,"KGMU 311953Z 20007KT 10SM BKN050 23/12 A3030 RMK AO2 SLP255 T02330117
","Greer, South Carolina, United States",2021-05-31 20:15:21 UTC
khsv3_app_dep,http://d.liveatc.net/khsv3_app_dep,KHSV App/Dep,US-Class-C,"KHSV 311953Z 10SM SCT055 SCT250 27/12 A3023 RMK AO2 SLP231 T02670122
","Huntsville, Alabama, United States",2021-05-31 20:15:21 UTC
khsv_atis,http://d.liveatc.net/khsv_atis,KHSV ATIS,US-Class-C,"KHSV 311953Z 10SM SCT055 SCT250 27/12 A3023 RMK AO2 SLP231 T02670122
","Huntsville, Alabama, United States",2021-05-31 20:15:21 UTC
khsv_del_gnd,http://d.liveatc.net/khsv_del_gnd,KHSV Del/Gnd,US-Class-C,"KHSV 311953Z 10SM SCT055 SCT250 27/12 A3023 RMK AO2 SLP231 T02670122
","Huntsville, Alabama, United States",2021-05-31 20:15:21 UTC
khsv3_gnd_twr,http://d.liveatc.net/khsv3_gnd_twr,KHSV Gnd/Twr,US-Class-C,"KHSV 311953Z 10SM SCT055 SCT250 27/12 A3023 RMK AO2 SLP231 T02670122
","Huntsville, Alabama, United States",2021-05-31 20:15:21 UTC
khsv3,http://d.liveatc.net/khsv3,KHSV Gnd/Twr/App/Dep,US-Class-C,"KHSV 311953Z 10SM SCT055 SCT250 27/12 A3023 RMK AO2 SLP231 T02670122
","Huntsville, Alabama, United States",2021-05-31 20:15:21 UTC
khto2,http://d.liveatc.net/khto2,KHTO CTAF/Tower,US-Class-C,"KHTO 311955Z AUTO 30012G16KT 10SM SCT026 SCT032 BKN039 16/09 A3016 RMK AO2 T01580094
","East Hampton, New York, United States",2021-05-31 20:15:21 UTC
kbtr,http://d.liveatc.net/kbtr,KBTR/KHZR/L38 Del/Gnd/Twr/App/CTAF,US-Class-C,"KBTR 311953Z 08006KT 10SM FEW050 30/19 A3012 RMK AO2 SLP198 T03000189
","New Roads, Louisiana, United States",2021-05-31 20:15:21 UTC
kict1_app,http://d.liveatc.net/kict1_app,KICT App/Dep (All),US-Class-C,"KICT 311953Z 11004KT 10SM BKN007 BKN027 OVC032 16/15 A3018 RMK AO2 RAE32 SLP214 P0002 T01610150 $
","Wichita, Kansas, United States",2021-05-31 20:15:21 UTC
kict1_app_134850,http://d.liveatc.net/kict1_app_134850,KICT Approach (East),US-Class-C,"KICT 311953Z 11004KT 10SM BKN007 BKN027 OVC032 16/15 A3018 RMK AO2 RAE32 SLP214 P0002 T01610150 $
","Wichita, Kansas, United States",2021-05-31 20:15:21 UTC
kict1_app_126700,http://d.liveatc.net/kict1_app_126700,KICT Approach (West),US-Class-C,"KICT 311953Z 11004KT 10SM BKN007 BKN027 OVC032 16/15 A3018 RMK AO2 RAE32 SLP214 P0002 T01610150 $
","Wichita, Kansas, United States",2021-05-31 20:15:21 UTC
kict1_app_125500,http://d.liveatc.net/kict1_app_125500,KICT Approach 125.5,US-Class-C,"KICT 311953Z 11004KT 10SM BKN007 BKN027 OVC032 16/15 A3018 RMK AO2 RAE32 SLP214 P0002 T01610150 $
","Wichita, Kansas, United States",2021-05-31 20:15:21 UTC
kict1_atis,http://d.liveatc.net/kict1_atis,KICT ATIS,US-Class-C,"KICT 311953Z 11004KT 10SM BKN007 BKN027 OVC032 16/15 A3018 RMK AO2 RAE32 SLP214 P0002 T01610150 $
","Wichita, Kansas, United States",2021-05-31 20:15:21 UTC
kict1_gnd_twr,http://d.liveatc.net/kict1_gnd_twr,KICT Ground/Tower,US-Class-C,"KICT 311953Z 11004KT 10SM BKN007 BKN027 OVC032 16/15 A3018 RMK AO2 RAE32 SLP214 P0002 T01610150 $
","Wichita, Kansas, United States",2021-05-31 20:15:21 UTC
kind5,http://d.liveatc.net/kind5,KIND App/Dep #1,US-Class-C,"KIND 311954Z 17003KT 10SM SCT130 BKN170 OVC250 20/08 A3026 RMK AO2 SLP244 T02000078
","Indianapolis, Indiana, United States",2021-05-31 20:15:21 UTC
kind2_app,http://d.liveatc.net/kind2_app,KIND App/Dep #2,US-Class-C,"KIND 311954Z 17003KT 10SM SCT130 BKN170 OVC250 20/08 A3026 RMK AO2 SLP244 T02000078
","Indianapolis, Indiana, United States",2021-05-31 20:15:21 UTC
kind2_atis,http://d.liveatc.net/kind2_atis,KIND ATIS,US-Class-C,"KIND 311954Z 17003KT 10SM SCT130 BKN170 OVC250 20/08 A3026 RMK AO2 SLP244 T02000078
","Indianapolis, Indiana, United States",2021-05-31 20:15:21 UTC
kind3,http://d.liveatc.net/kind3,KIND Ground,US-Class-C,"KIND 311954Z 17003KT 10SM SCT130 BKN170 OVC250 20/08 A3026 RMK AO2 SLP244 T02000078
","Indianapolis, Indiana, United States",2021-05-31 20:15:21 UTC
kind4,http://d.liveatc.net/kind4,KIND Tower #1,US-Class-C,"KIND 311954Z 17003KT 10SM SCT130 BKN170 OVC250 20/08 A3026 RMK AO2 SLP244 T02000078
","Indianapolis, Indiana, United States",2021-05-31 20:15:21 UTC
kind2_twr,http://d.liveatc.net/kind2_twr,KIND Tower #2,US-Class-C,"KIND 311954Z 17003KT 10SM SCT130 BKN170 OVC250 20/08 A3026 RMK AO2 SLP244 T02000078
","Indianapolis, Indiana, United States",2021-05-31 20:15:21 UTC
kind6,http://d.liveatc.net/kind6,KIND UNICOM/FSS/FBO,US-Class-C,"KIND 311954Z 17003KT 10SM SCT130 BKN170 OVC250 20/08 A3026 RMK AO2 SLP244 T02000078
","Indianapolis, Indiana, United States",2021-05-31 20:15:21 UTC
kcid,http://d.liveatc.net/kcid,KCID Gnd/Twr/App/KIOW,US-Class-C,"KCID 311952Z VRB05KT 10SM FEW047 20/09 A3020 RMK AO2 SLP226 T02000094
","Iowa City, Iowa, United States",2021-05-31 20:15:21 UTC
kipt,http://d.liveatc.net/kipt,KIPT Gnd/Twr/ZNY,US-Class-C,"KIPT 311954Z VRB04KT 10SM CLR 24/03 A3018 RMK AO2 SLP220 T02390033
","Williamsport, Pennsylvania, United States",2021-05-31 20:15:21 UTC
kisp2,http://d.liveatc.net/kisp2,KISP (NY Approach),US-Class-C,"KISP 311956Z 30009G20KT 10SM BKN031 OVC042 17/10 A3018 RMK AO2 SLP219 T01720100
","Islip, New York, United States",2021-05-31 20:15:21 UTC
kisp_gnd_twr,http://d.liveatc.net/kisp_gnd_twr,KISP Tower,US-Class-C,"KISP 311956Z 30009G20KT 10SM BKN031 OVC042 17/10 A3018 RMK AO2 SLP219 T01720100
","Islip, New York, United States",2021-05-31 20:15:21 UTC
kjan,http://d.liveatc.net/kjan,KJAN Gnd/Twr/App/Dep,US-Class-C,"KJAN 311954Z 22004KT 10SM BKN200 29/09 A3017 RMK AO2 SLP213 T02890094
","Jackson, Mississippi, United States",2021-05-31 20:15:21 UTC
kjax_app_dep,http://d.liveatc.net/kjax_app_dep,KJAX Approach/Departure,US-Class-C,"KJAX 311956Z 09012G18KT 10SM SCT046 SCT250 26/16 A3021 RMK AO2 SLP230 T02560156
","Jacksonville, Florida, United States",2021-05-31 20:15:21 UTC
kjax_atis,http://d.liveatc.net/kjax_atis,KJAX ATIS,US-Class-C,"KJAX 311956Z 09012G18KT 10SM SCT046 SCT250 26/16 A3021 RMK AO2 SLP230 T02560156
","Jacksonville, Florida, United States",2021-05-31 20:15:21 UTC
kjax_gnd_twr,http://d.liveatc.net/kjax_gnd_twr,KJAX Gnd/Twr,US-Class-C,"KJAX 311956Z 09012G18KT 10SM SCT046 SCT250 26/16 A3021 RMK AO2 SLP230 T02560156
","Jacksonville, Florida, United States",2021-05-31 20:15:21 UTC
klan,http://d.liveatc.net/klan,KLAN Del/Gnd/Twr/App,US-Class-C,"KLAN 311953Z 22011KT 10SM CLR 21/06 A3025 RMK AO2 SLP242 T02060061
","Lansing, Michigan, United States",2021-05-31 20:15:21 UTC
klbb,http://d.liveatc.net/klbb,KLBB Gnd/Twr/App,US-Class-C,"KLBB 311953Z 35016G25KT 10SM SCT008 BKN014 OVC085 18/14 A3018 RMK AO2 PK WND 34026/1947 RAE42 SLP188 BINOVC P0001 T01780144
","Lubbock, Texas, United States",2021-05-31 20:15:21 UTC
kmaf2_guard,http://d.liveatc.net/kmaf2_guard,Emergency/Guard,US-Class-C,"KMAF 311953Z 08013G21KT 10SM VCTS BKN007 BKN027 OVC065 17/16 A3010 RMK AO2 LTG DSNT NE AND E RAE1854B06E21 CIG 005V009 SLP159 P0000 T01670161
","Midland, Texas, United States",2021-05-31 20:15:21 UTC
kmaf2_app_124600,http://d.liveatc.net/kmaf2_app_124600,KMAF App/Dep (North),US-Class-C,"KMAF 311953Z 08013G21KT 10SM VCTS BKN007 BKN027 OVC065 17/16 A3010 RMK AO2 LTG DSNT NE AND E RAE1854B06E21 CIG 005V009 SLP159 P0000 T01670161
","Midland, Texas, United States",2021-05-31 20:15:21 UTC
kmaf2_app,http://d.liveatc.net/kmaf2_app,KMAF App/Dep (North/South),US-Class-C,"KMAF 311953Z 08013G21KT 10SM VCTS BKN007 BKN027 OVC065 17/16 A3010 RMK AO2 LTG DSNT NE AND E RAE1854B06E21 CIG 005V009 SLP159 P0000 T01670161
","Midland, Texas, United States",2021-05-31 20:15:21 UTC
kmaf2_app_121100,http://d.liveatc.net/kmaf2_app_121100,KMAF App/Dep (South),US-Class-C,"KMAF 311953Z 08013G21KT 10SM VCTS BKN007 BKN027 OVC065 17/16 A3010 RMK AO2 LTG DSNT NE AND E RAE1854B06E21 CIG 005V009 SLP159 P0000 T01670161
","Midland, Texas, United States",2021-05-31 20:15:21 UTC
kmaf2_atis,http://d.liveatc.net/kmaf2_atis,KMAF ATIS,US-Class-C,"KMAF 311953Z 08013G21KT 10SM VCTS BKN007 BKN027 OVC065 17/16 A3010 RMK AO2 LTG DSNT NE AND E RAE1854B06E21 CIG 005V009 SLP159 P0000 T01670161
","Midland, Texas, United States",2021-05-31 20:15:21 UTC
kmaf2_del,http://d.liveatc.net/kmaf2_del,KMAF Clearance Delivery,US-Class-C,"KMAF 311953Z 08013G21KT 10SM VCTS BKN007 BKN027 OVC065 17/16 A3010 RMK AO2 LTG DSNT NE AND E RAE1854B06E21 CIG 005V009 SLP159 P0000 T01670161
","Midland, Texas, United States",2021-05-31 20:15:21 UTC
kmaf2_del_gnd,http://d.liveatc.net/kmaf2_del_gnd,KMAF Del/Gnd,US-Class-C,"KMAF 311953Z 08013G21KT 10SM VCTS BKN007 BKN027 OVC065 17/16 A3010 RMK AO2 LTG DSNT NE AND E RAE1854B06E21 CIG 005V009 SLP159 P0000 T01670161
","Midland, Texas, United States",2021-05-31 20:15:21 UTC
kmaf2_gnd,http://d.liveatc.net/kmaf2_gnd,KMAF Ground,US-Class-C,"KMAF 311953Z 08013G21KT 10SM VCTS BKN007 BKN027 OVC065 17/16 A3010 RMK AO2 LTG DSNT NE AND E RAE1854B06E21 CIG 005V009 SLP159 P0000 T01670161
","Midland, Texas, United States",2021-05-31 20:15:21 UTC
kmaf2_twr,http://d.liveatc.net/kmaf2_twr,KMAF Tower,US-Class-C,"KMAF 311953Z 08013G21KT 10SM VCTS BKN007 BKN027 OVC065 17/16 A3010 RMK AO2 LTG DSNT NE AND E RAE1854B06E21 CIG 005V009 SLP159 P0000 T01670161
","Midland, Texas, United States",2021-05-31 20:15:21 UTC
kord11,http://d.liveatc.net/kord11,KMDW App/Dep,US-Class-C,"KORD 311951Z 21011KT 10SM FEW060 SCT170 OVC250 21/07 A3022 RMK AO2 SLP233 VIRGA S T02110067
","Chicago, Illinois, United States",2021-05-31 20:15:21 UTC
kmdw_4,http://d.liveatc.net/kmdw_4,KMDW ATIS,US-Class-C,"KMDW 311953Z 23009KT 10SM FEW055 BKN130 BKN200 OVC250 21/06 A3023 RMK AO2 SLP235 T02060061 $
","Chicago, Illinois, United States",2021-05-31 20:15:21 UTC
kmdw_2,http://d.liveatc.net/kmdw_2,KMDW Clearance/Metering,US-Class-C,"KMDW 311953Z 23009KT 10SM FEW055 BKN130 BKN200 OVC250 21/06 A3023 RMK AO2 SLP235 T02060061 $
","Chicago, Illinois, United States",2021-05-31 20:15:21 UTC
kmdw_3,http://d.liveatc.net/kmdw_3,KMDW Ground #1,US-Class-C,"KMDW 311953Z 23009KT 10SM FEW055 BKN130 BKN200 OVC250 21/06 A3023 RMK AO2 SLP235 T02060061 $
","Chicago, Illinois, United States",2021-05-31 20:15:21 UTC
kmdw_1,http://d.liveatc.net/kmdw_1,KMDW Tower #1,US-Class-C,"KMDW 311953Z 23009KT 10SM FEW055 BKN130 BKN200 OVC250 21/06 A3023 RMK AO2 SLP235 T02060061 $
","Chicago, Illinois, United States",2021-05-31 20:15:21 UTC
kmhr_norcal,http://d.liveatc.net/kmhr_norcal,NORCAL App (EXPO/127.4),US-Class-C,"KMHR 311950Z 00000KT 10SM SKC 34/09 A2985
","Sacramento, California, United States",2021-05-31 20:15:21 UTC
kmht_murp_fitzy,http://d.liveatc.net/kmht_murp_fitzy,KMHT App/Dep (Fitzy Sector),US-Class-C,"KMHT 311953Z 32012G17KT 10SM OVC025 16/09 A3007 RMK AO2 SLP196 T01610089
","Manchester, New Hampshire, United States",2021-05-31 20:15:21 UTC
kmht_atis,http://d.liveatc.net/kmht_atis,KMHT ATIS,US-Class-C,"KMHT 311953Z 32012G17KT 10SM OVC025 16/09 A3007 RMK AO2 SLP196 T01610089
","Manchester, New Hampshire, United States",2021-05-31 20:15:21 UTC
kmht_app,http://d.liveatc.net/kmht_app,KMHT Boston App/Dep #1,US-Class-C,"KMHT 311953Z 32012G17KT 10SM OVC025 16/09 A3007 RMK AO2 SLP196 T01610089
","Manchester, New Hampshire, United States",2021-05-31 20:15:21 UTC
kmht4_app,http://d.liveatc.net/kmht4_app,KMHT Boston App/Dep #2,US-Class-C,"KMHT 311953Z 32012G17KT 10SM OVC025 16/09 A3007 RMK AO2 SLP196 T01610089
","Manchester, New Hampshire, United States",2021-05-31 20:15:21 UTC
kash_app_124900,http://d.liveatc.net/kash_app_124900,KMHT Boston App/Dep #3,US-Class-C,"KASH 311956Z 32011KT 10SM OVC029 16/11 A3009 RMK AO2 SLP195 T01610111
","Manchester, New Hampshire, United States",2021-05-31 20:15:21 UTC
kmht,http://d.liveatc.net/kmht,KMHT Del/Gnd/Twr,US-Class-C,"KMHT 311953Z 32012G17KT 10SM OVC025 16/09 A3007 RMK AO2 SLP196 T01610089
","Manchester, New Hampshire, United States",2021-05-31 20:15:21 UTC
kmht2,http://d.liveatc.net/kmht2,KMHT Del/Gnd/Twr/App,US-Class-C,"KMHT 311953Z 32012G17KT 10SM OVC025 16/09 A3007 RMK AO2 SLP196 T01610089
","Manchester, New Hampshire, United States",2021-05-31 20:15:21 UTC
kmht_twr,http://d.liveatc.net/kmht_twr,KMHT Tower #1,US-Class-C,"KMHT 311953Z 32012G17KT 10SM OVC025 16/09 A3007 RMK AO2 SLP196 T01610089
","Manchester, New Hampshire, United States",2021-05-31 20:15:21 UTC
kmht_murp_twr,http://d.liveatc.net/kmht_murp_twr,KMHT Tower #2,US-Class-C,"KMHT 311953Z 32012G17KT 10SM OVC025 16/09 A3007 RMK AO2 SLP196 T01610089
","Manchester, New Hampshire, United States",2021-05-31 20:15:21 UTC
kmht_murp_twr2,http://d.liveatc.net/kmht_murp_twr2,KMHT Tower #3,US-Class-C,"KMHT 311953Z 32012G17KT 10SM OVC025 16/09 A3007 RMK AO2 SLP196 T01610089
","Manchester, New Hampshire, United States",2021-05-31 20:15:21 UTC
kmke3_app_dep,http://d.liveatc.net/kmke3_app_dep,KMKE Approach/Departure,US-Class-C,"KMKE 311952Z 22009G19KT 10SM FEW060 SCT085 BKN180 22/06 A3019 RMK AO2 SLP222 T02220056
","Milwaukee, Wisconsin, United States",2021-05-31 20:15:21 UTC
kmke3_gnd,http://d.liveatc.net/kmke3_gnd,KMKE Ground,US-Class-C,"KMKE 311952Z 22009G19KT 10SM FEW060 SCT085 BKN180 22/06 A3019 RMK AO2 SLP222 T02220056
","Milwaukee, Wisconsin, United States",2021-05-31 20:15:21 UTC
kmke3_twr,http://d.liveatc.net/kmke3_twr,KMKE Tower,US-Class-C,"KMKE 311952Z 22009G19KT 10SM FEW060 SCT085 BKN180 22/06 A3019 RMK AO2 SLP222 T02220056
","Milwaukee, Wisconsin, United States",2021-05-31 20:15:21 UTC
kmli,http://d.liveatc.net/kmli,KMLI Del/Gnd/Twr/App,US-Class-C,"KMLI 311952Z 22010KT 10SM FEW055 FEW100 18/11 A3023 RMK AO2 SLP236 T01830111 $
","Moline, Illinois, United States",2021-05-31 20:15:21 UTC
kmry_app,http://d.liveatc.net/kmry_app,KMRY App/Dep,US-Class-C,"KMRY 311954Z 28008KT 10SM CLR 22/11 A2995 RMK AO2 SLP153 T02170111
","Monterey, California, United States",2021-05-31 20:15:21 UTC
kmry_atis,http://d.liveatc.net/kmry_atis,KMRY ATIS,US-Class-C,"KMRY 311954Z 28008KT 10SM CLR 22/11 A2995 RMK AO2 SLP153 T02170111
","Monterey, California, United States",2021-05-31 20:15:21 UTC
kmry,http://d.liveatc.net/kmry,KMRY Del/Gnd/Twr,US-Class-C,"KMRY 311954Z 28008KT 10SM CLR 22/11 A2995 RMK AO2 SLP153 T02170111
","Monterey, California, United States",2021-05-31 20:15:21 UTC
kmsn1_app,http://d.liveatc.net/kmsn1_app,KMSN Approach/Departure,US-Class-C,"KMSN 311953Z VRB06KT 10SM SCT070 SCT085 BKN110 22/07 A3018 RMK AO2 SLP219 T02170072
","Madison, Wisconsin, United States",2021-05-31 20:15:21 UTC
kmsn1_atis,http://d.liveatc.net/kmsn1_atis,KMSN ATIS,US-Class-C,"KMSN 311953Z VRB06KT 10SM SCT070 SCT085 BKN110 22/07 A3018 RMK AO2 SLP219 T02170072
","Madison, Wisconsin, United States",2021-05-31 20:15:21 UTC
kmsn1_del,http://d.liveatc.net/kmsn1_del,KMSN Clearance Delivery,US-Class-C,"KMSN 311953Z VRB06KT 10SM SCT070 SCT085 BKN110 22/07 A3018 RMK AO2 SLP219 T02170072
","Madison, Wisconsin, United States",2021-05-31 20:15:21 UTC
kmsn1_guard,http://d.liveatc.net/kmsn1_guard,KMSN Emergency/Guard,US-Class-C,"KMSN 311953Z VRB06KT 10SM SCT070 SCT085 BKN110 22/07 A3018 RMK AO2 SLP219 T02170072
","Madison, Wisconsin, United States",2021-05-31 20:15:21 UTC
kmsn1_gnd,http://d.liveatc.net/kmsn1_gnd,KMSN Ground,US-Class-C,"KMSN 311953Z VRB06KT 10SM SCT070 SCT085 BKN110 22/07 A3018 RMK AO2 SLP219 T02170072
","Madison, Wisconsin, United States",2021-05-31 20:15:21 UTC
kmsn1_twr,http://d.liveatc.net/kmsn1_twr,KMSN Tower,US-Class-C,"KMSN 311953Z VRB06KT 10SM SCT070 SCT085 BKN110 22/07 A3018 RMK AO2 SLP219 T02170072
","Madison, Wisconsin, United States",2021-05-31 20:15:21 UTC
kmsn,http://d.liveatc.net/kmsn,KMSN Twr/App,US-Class-C,"KMSN 311953Z VRB06KT 10SM SCT070 SCT085 BKN110 22/07 A3018 RMK AO2 SLP219 T02170072
","Madison, Wisconsin, United States",2021-05-31 20:15:21 UTC
kmyr,http://d.liveatc.net/kmyr,KMYR Gnd/Twr/App,US-Class-C,"KMYR 311956Z 12009KT 6SM HZ CLR 22/13 A3029 RMK AO2 SLP257 T02220133
","Myrtle Beach, South Carolina, United States",2021-05-31 20:15:21 UTC
kmyr_mil,http://d.liveatc.net/kmyr_mil,KMYR Gnd/Twr/App (UHF),US-Class-C,"KMYR 311956Z 12009KT 6SM HZ CLR 22/13 A3029 RMK AO2 SLP257 T02220133
","Myrtle Beach, South Carolina, United States",2021-05-31 20:15:21 UTC
koak,http://d.liveatc.net/koak,KOAK Del/Gnd/Twr,US-Class-C,"KOAK 311953Z 30013KT 10SM FEW200 22/12 A2991 RMK AO2 SLP129 T02220117
","Oakland, California, United States",2021-05-31 20:15:21 UTC
koak_dep,http://d.liveatc.net/koak_dep,NORCAL Departure (KSFO/KOAK),US-Class-C,"KOAK 311953Z 30013KT 10SM FEW200 22/12 A2991 RMK AO2 SLP129 T02220117
","Oakland, California, United States",2021-05-31 20:15:21 UTC
kocf2,http://d.liveatc.net/kocf2,KOCF Gnd/Twr/App,US-Class-C,"KOCF 311951Z 08008KT 10SM SCT060 32/17 A3015 RMK AO2 SLP208 T03220167 $
","Ocala, Florida, United States",2021-05-31 20:15:21 UTC
koff3_app,http://d.liveatc.net/koff3_app,KOFF Gnd/Twr/App/ZMP,US-Class-C,"KOFF 311956Z AUTO 14005KT 10SM CLR 22/11 A3021 RMK AO2 SLP233 T02240108 RVRNO PWINO PNO FZRANO TSNO VISNO RWY12 CHINO RWY12 $
","Omaha, Nebraska, United States",2021-05-31 20:15:21 UTC
kokc_app_1242,http://d.liveatc.net/kokc_app_1242,KOKC App/Dep (NE),US-Class-C,"KOKC 311952Z 08009KT 1 1/2SM R35R/5000VP6000FT -RA BR FEW003 BKN005 OVC011 16/15 A3007 RMK AO2 SLP175 P0018 T01610150
","Oklahoma City, Oklahoma, United States",2021-05-31 20:15:21 UTC
kokc_app_1246,http://d.liveatc.net/kokc_app_1246,KOKC App/Dep (SW),US-Class-C,"KOKC 311952Z 08009KT 1 1/2SM R35R/5000VP6000FT -RA BR FEW003 BKN005 OVC011 16/15 A3007 RMK AO2 SLP175 P0018 T01610150
","Oklahoma City, Oklahoma, United States",2021-05-31 20:15:21 UTC
kokc_atis,http://d.liveatc.net/kokc_atis,KOKC ATIS,US-Class-C,"KOKC 311952Z 08009KT 1 1/2SM R35R/5000VP6000FT -RA BR FEW003 BKN005 OVC011 16/15 A3007 RMK AO2 SLP175 P0018 T01610150
","Oklahoma City, Oklahoma, United States",2021-05-31 20:15:21 UTC
kokc_del,http://d.liveatc.net/kokc_del,KOKC Clearance Delivery,US-Class-C,"KOKC 311952Z 08009KT 1 1/2SM R35R/5000VP6000FT -RA BR FEW003 BKN005 OVC011 16/15 A3007 RMK AO2 SLP175 P0018 T01610150
","Oklahoma City, Oklahoma, United States",2021-05-31 20:15:21 UTC
kokc_guard,http://d.liveatc.net/kokc_guard,KOKC Emergency/Guard,US-Class-C,"KOKC 311952Z 08009KT 1 1/2SM R35R/5000VP6000FT -RA BR FEW003 BKN005 OVC011 16/15 A3007 RMK AO2 SLP175 P0018 T01610150
","Oklahoma City, Oklahoma, United States",2021-05-31 20:15:21 UTC
kokc_gnd,http://d.liveatc.net/kokc_gnd,KOKC Ground,US-Class-C,"KOKC 311952Z 08009KT 1 1/2SM R35R/5000VP6000FT -RA BR FEW003 BKN005 OVC011 16/15 A3007 RMK AO2 SLP175 P0018 T01610150
","Oklahoma City, Oklahoma, United States",2021-05-31 20:15:21 UTC
kokc_twr,http://d.liveatc.net/kokc_twr,KOKC Tower,US-Class-C,"KOKC 311952Z 08009KT 1 1/2SM R35R/5000VP6000FT -RA BR FEW003 BKN005 OVC011 16/15 A3007 RMK AO2 SLP175 P0018 T01610150
","Oklahoma City, Oklahoma, United States",2021-05-31 20:15:21 UTC
koma,http://d.liveatc.net/koma,KOMA Del/Gnd/Twr,US-Class-C,"KOMA 311952Z VRB03KT 10SM FEW045 SCT250 22/11 A3021 RMK AO2 SLP228 T02220106
","Omaha, Nebraska, United States",2021-05-31 20:15:21 UTC
kont2,http://d.liveatc.net/kont2,KONT Del/Gnd/Twr/App,US-Class-C,"KONT 311953Z 24007KT 9SM FEW090 27/13 A2993 RMK AO2 SLP122 T02670128
","Ontario, California, United States",2021-05-31 20:15:21 UTC
korf1_atis,http://d.liveatc.net/korf1_atis,KORF ATIS,US-Class-C,"KORF 311951Z 02009KT 10SM FEW039 21/12 A3028 RMK AO2 SLP254 T02110117
","Norfolk, Virginia, United States",2021-05-31 20:15:21 UTC
korf1,http://d.liveatc.net/korf1,KORF Gnd/Twr/App/Radar,US-Class-C,"KORF 311951Z 02009KT 10SM FEW039 21/12 A3028 RMK AO2 SLP254 T02110117
","Norfolk, Virginia, United States",2021-05-31 20:15:21 UTC
kpbi2_final,http://d.liveatc.net/kpbi2_final,KPBI App (Final),US-Class-C,"KPBI 311953Z 06014KT 10SM SCT022 SCT180 BKN250 30/21 A3012 RMK AO2 SLP199 T03000211
","West Palm Beach, Florida, United States",2021-05-31 20:15:21 UTC
kpbi2_app_n,http://d.liveatc.net/kpbi2_app_n,KPBI App (North),US-Class-C,"KPBI 311953Z 06014KT 10SM SCT022 SCT180 BKN250 30/21 A3012 RMK AO2 SLP199 T03000211
","West Palm Beach, Florida, United States",2021-05-31 20:15:21 UTC
kpbi2_app,http://d.liveatc.net/kpbi2_app,KPBI App (North/South),US-Class-C,"KPBI 311953Z 06014KT 10SM SCT022 SCT180 BKN250 30/21 A3012 RMK AO2 SLP199 T03000211
","West Palm Beach, Florida, United States",2021-05-31 20:15:21 UTC
kpbi2_app_s,http://d.liveatc.net/kpbi2_app_s,KPBI App (South),US-Class-C,"KPBI 311953Z 06014KT 10SM SCT022 SCT180 BKN250 30/21 A3012 RMK AO2 SLP199 T03000211
","West Palm Beach, Florida, United States",2021-05-31 20:15:21 UTC
kpbi2_atis,http://d.liveatc.net/kpbi2_atis,KPBI ATIS,US-Class-C,"KPBI 311953Z 06014KT 10SM SCT022 SCT180 BKN250 30/21 A3012 RMK AO2 SLP199 T03000211
","West Palm Beach, Florida, United States",2021-05-31 20:15:21 UTC
kpbi2_del,http://d.liveatc.net/kpbi2_del,KPBI Clearance Delivery,US-Class-C,"KPBI 311953Z 06014KT 10SM SCT022 SCT180 BKN250 30/21 A3012 RMK AO2 SLP199 T03000211
","West Palm Beach, Florida, United States",2021-05-31 20:15:21 UTC
kpbi2_dep_n,http://d.liveatc.net/kpbi2_dep_n,KPBI Dep (North),US-Class-C,"KPBI 311953Z 06014KT 10SM SCT022 SCT180 BKN250 30/21 A3012 RMK AO2 SLP199 T03000211
","West Palm Beach, Florida, United States",2021-05-31 20:15:21 UTC
kpbi2_dep,http://d.liveatc.net/kpbi2_dep,KPBI Dep (North/South),US-Class-C,"KPBI 311953Z 06014KT 10SM SCT022 SCT180 BKN250 30/21 A3012 RMK AO2 SLP199 T03000211
","West Palm Beach, Florida, United States",2021-05-31 20:15:21 UTC
kpbi2_dep_s,http://d.liveatc.net/kpbi2_dep_s,KPBI Dep (South),US-Class-C,"KPBI 311953Z 06014KT 10SM SCT022 SCT180 BKN250 30/21 A3012 RMK AO2 SLP199 T03000211
","West Palm Beach, Florida, United States",2021-05-31 20:15:21 UTC
kpbi2_guard,http://d.liveatc.net/kpbi2_guard,KPBI Emergency/Guard,US-Class-C,"KPBI 311953Z 06014KT 10SM SCT022 SCT180 BKN250 30/21 A3012 RMK AO2 SLP199 T03000211
","West Palm Beach, Florida, United States",2021-05-31 20:15:21 UTC
kpbi2_gate_ga,http://d.liveatc.net/kpbi2_gate_ga,KPBI GA Gate Hold ,US-Class-C,"KPBI 311953Z 06014KT 10SM SCT022 SCT180 BKN250 30/21 A3012 RMK AO2 SLP199 T03000211
","West Palm Beach, Florida, United States",2021-05-31 20:15:21 UTC
kpbi2_gnd_twr,http://d.liveatc.net/kpbi2_gnd_twr,KPBI Gnd/Twr,US-Class-C,"KPBI 311953Z 06014KT 10SM SCT022 SCT180 BKN250 30/21 A3012 RMK AO2 SLP199 T03000211
","West Palm Beach, Florida, United States",2021-05-31 20:15:21 UTC
kpbi2_gnd,http://d.liveatc.net/kpbi2_gnd,KPBI Ground,US-Class-C,"KPBI 311953Z 06014KT 10SM SCT022 SCT180 BKN250 30/21 A3012 RMK AO2 SLP199 T03000211
","West Palm Beach, Florida, United States",2021-05-31 20:15:21 UTC
kpbi2_twr,http://d.liveatc.net/kpbi2_twr,KPBI Tower,US-Class-C,"KPBI 311953Z 06014KT 10SM SCT022 SCT180 BKN250 30/21 A3012 RMK AO2 SLP199 T03000211
","West Palm Beach, Florida, United States",2021-05-31 20:15:21 UTC
kpdx_app_dep,http://d.liveatc.net/kpdx_app_dep,KPDX App/Dep,US-Class-C,"KPDX 311953Z VRB06KT 10SM FEW200 SCT250 27/08 A3012 RMK AO2 SLP198 T02670083
","Portland, Oregon, United States",2021-05-31 20:15:21 UTC
kpdx_app_all,http://d.liveatc.net/kpdx_app_all,KPDX App/Dep/Final,US-Class-C,"KPDX 311953Z VRB06KT 10SM FEW200 SCT250 27/08 A3012 RMK AO2 SLP198 T02670083
","Portland, Oregon, United States",2021-05-31 20:15:21 UTC
kpdx_app_final,http://d.liveatc.net/kpdx_app_final,KPDX Approach (Final),US-Class-C,"KPDX 311953Z VRB06KT 10SM FEW200 SCT250 27/08 A3012 RMK AO2 SLP198 T02670083
","Portland, Oregon, United States",2021-05-31 20:15:21 UTC
kpdx_atis,http://d.liveatc.net/kpdx_atis,KPDX ATIS,US-Class-C,"KPDX 311953Z VRB06KT 10SM FEW200 SCT250 27/08 A3012 RMK AO2 SLP198 T02670083
","Portland, Oregon, United States",2021-05-31 20:15:21 UTC
kpdx_del_gnd,http://d.liveatc.net/kpdx_del_gnd,KPDX Del/Gnd,US-Class-C,"KPDX 311953Z VRB06KT 10SM FEW200 SCT250 27/08 A3012 RMK AO2 SLP198 T02670083
","Portland, Oregon, United States",2021-05-31 20:15:21 UTC
kpdx_del_gnd_twr,http://d.liveatc.net/kpdx_del_gnd_twr,KPDX Del/Gnd/Twr,US-Class-C,"KPDX 311953Z VRB06KT 10SM FEW200 SCT250 27/08 A3012 RMK AO2 SLP198 T02670083
","Portland, Oregon, United States",2021-05-31 20:15:21 UTC
kpdx_twr,http://d.liveatc.net/kpdx_twr,KPDX Tower,US-Class-C,"KPDX 311953Z VRB06KT 10SM FEW200 SCT250 27/08 A3012 RMK AO2 SLP198 T02670083
","Portland, Oregon, United States",2021-05-31 20:15:21 UTC
kpia_app_125800,http://d.liveatc.net/kpia_app_125800,KPIA Approach (North),US-Class-C,"KPIA 311954Z 30003KT 9SM -RA BKN075 OVC090 17/12 A3026 RMK AO2 SLP247 P0003 T01720122
","Peoria, Illinois, United States",2021-05-31 20:15:21 UTC
kpia_app_124675,http://d.liveatc.net/kpia_app_124675,KPIA Approach (South),US-Class-C,"KPIA 311954Z 30003KT 9SM -RA BKN075 OVC090 17/12 A3026 RMK AO2 SLP247 P0003 T01720122
","Peoria, Illinois, United States",2021-05-31 20:15:21 UTC
kpia_app,http://d.liveatc.net/kpia_app,KPIA Approach/Departure,US-Class-C,"KPIA 311954Z 30003KT 9SM -RA BKN075 OVC090 17/12 A3026 RMK AO2 SLP247 P0003 T01720122
","Peoria, Illinois, United States",2021-05-31 20:15:21 UTC
kpia_guard,http://d.liveatc.net/kpia_guard,KPIA Area Guard,US-Class-C,"KPIA 311954Z 30003KT 9SM -RA BKN075 OVC090 17/12 A3026 RMK AO2 SLP247 P0003 T01720122
","Peoria, Illinois, United States",2021-05-31 20:15:21 UTC
kpia_atis,http://d.liveatc.net/kpia_atis,KPIA ATIS,US-Class-C,"KPIA 311954Z 30003KT 9SM -RA BKN075 OVC090 17/12 A3026 RMK AO2 SLP247 P0003 T01720122
","Peoria, Illinois, United States",2021-05-31 20:15:21 UTC
kpia_gnd,http://d.liveatc.net/kpia_gnd,KPIA Ground,US-Class-C,"KPIA 311954Z 30003KT 9SM -RA BKN075 OVC090 17/12 A3026 RMK AO2 SLP247 P0003 T01720122
","Peoria, Illinois, United States",2021-05-31 20:15:21 UTC
kpia_gnd_twr,http://d.liveatc.net/kpia_gnd_twr,KPIA Ground/Tower,US-Class-C,"KPIA 311954Z 30003KT 9SM -RA BKN075 OVC090 17/12 A3026 RMK AO2 SLP247 P0003 T01720122
","Peoria, Illinois, United States",2021-05-31 20:15:21 UTC
kpia_twr,http://d.liveatc.net/kpia_twr,KPIA Tower,US-Class-C,"KPIA 311954Z 30003KT 9SM -RA BKN075 OVC090 17/12 A3026 RMK AO2 SLP247 P0003 T01720122
","Peoria, Illinois, United States",2021-05-31 20:15:21 UTC
kpns1_del_gnd_twr,http://d.liveatc.net/kpns1_del_gnd_twr,KPNS Del/Gnd/Twr,US-Class-C,"KPNS 311953Z 16011KT 10SM CLR 28/21 A3017 RMK AO2 SLP218 T02830206
","Pensacola, Florida, United States",2021-05-31 20:15:21 UTC
kpvd_app,http://d.liveatc.net/kpvd_app,KPVD Approach/Departure,US-Class-C,"KPVD 311951Z 32009KT 10SM BKN020 OVC030 17/11 A3011 RMK AO2 SLP197 T01670111
","Providence, Rhode Island, United States",2021-05-31 20:15:21 UTC
kpvd_atis,http://d.liveatc.net/kpvd_atis,KPVD ATIS,US-Class-C,"KPVD 311951Z 32009KT 10SM BKN020 OVC030 17/11 A3011 RMK AO2 SLP197 T01670111
","Providence, Rhode Island, United States",2021-05-31 20:15:21 UTC
kpvd2_del,http://d.liveatc.net/kpvd2_del,KPVD Clearance Delivery,US-Class-C,"KPVD 311951Z 32009KT 10SM BKN020 OVC030 17/11 A3011 RMK AO2 SLP197 T01670111
","Providence, Rhode Island, United States",2021-05-31 20:15:21 UTC
kpvd_gnd_twr,http://d.liveatc.net/kpvd_gnd_twr,KPVD Gnd/Twr,US-Class-C,"KPVD 311951Z 32009KT 10SM BKN020 OVC030 17/11 A3011 RMK AO2 SLP197 T01670111
","Providence, Rhode Island, United States",2021-05-31 20:15:21 UTC
kpvd2_s,http://d.liveatc.net/kpvd2_s,KPVD Gnd/Twr/App,US-Class-C,"KPVD 311951Z 32009KT 10SM BKN020 OVC030 17/11 A3011 RMK AO2 SLP197 T01670111
","Providence, Rhode Island, United States",2021-05-31 20:15:21 UTC
kpwm2_app,http://d.liveatc.net/kpwm2_app,KPWM App/Dep #1,US-Class-C,"KPWM 311951Z 35007KT 10SM BKN013 OVC019 14/12 A3005 RMK AO2 SLP175 T01440122
","Portland, Maine, United States",2021-05-31 20:15:21 UTC
kpwm3_app,http://d.liveatc.net/kpwm3_app,KPWM App/Dep #2,US-Class-C,"KPWM 311951Z 35007KT 10SM BKN013 OVC019 14/12 A3005 RMK AO2 SLP175 T01440122
","Portland, Maine, United States",2021-05-31 20:15:21 UTC
kpwm2_gnd_twr,http://d.liveatc.net/kpwm2_gnd_twr,KPWM Gnd/Tower,US-Class-C,"KPWM 311951Z 35007KT 10SM BKN013 OVC019 14/12 A3005 RMK AO2 SLP175 T01440122
","Portland, Maine, United States",2021-05-31 20:15:21 UTC
kpwm2,http://d.liveatc.net/kpwm2,KPWM Gnd/Twr/App,US-Class-C,"KPWM 311951Z 35007KT 10SM BKN013 OVC019 14/12 A3005 RMK AO2 SLP175 T01440122
","Portland, Maine, United States",2021-05-31 20:15:21 UTC
kpwm3_twr,http://d.liveatc.net/kpwm3_twr,KPWM Tower,US-Class-C,"KPWM 311951Z 35007KT 10SM BKN013 OVC019 14/12 A3005 RMK AO2 SLP175 T01440122
","Portland, Maine, United States",2021-05-31 20:15:21 UTC
krdu_app,http://d.liveatc.net/krdu_app,KRDU Approach,US-Class-C,"KRDU 311951Z 08004KT 10SM BKN046 BKN250 22/11 A3031 RMK AO2 SLP261 T02170111 $
","Raleigh/Durham, North Carolina, United States",2021-05-31 20:15:21 UTC
krdu_app2,http://d.liveatc.net/krdu_app2,KRDU Approach/Departure,US-Class-C,"KRDU 311951Z 08004KT 10SM BKN046 BKN250 22/11 A3031 RMK AO2 SLP261 T02170111 $
","Raleigh/Durham, North Carolina, United States",2021-05-31 20:15:21 UTC
krdu_dep,http://d.liveatc.net/krdu_dep,KRDU Departure,US-Class-C,"KRDU 311951Z 08004KT 10SM BKN046 BKN250 22/11 A3031 RMK AO2 SLP261 T02170111 $
","Raleigh/Durham, North Carolina, United States",2021-05-31 20:15:21 UTC
krno1_del,http://d.liveatc.net/krno1_del,KRNO Clearance Delivery,US-Class-C,"KRNO 311955Z 24007KT 210V270 10SM FEW250 29/M04 A3015 RMK AO2 SLP155 T02941044
","Reno, Nevada, United States",2021-05-31 20:15:21 UTC
krno1_gnd_twr,http://d.liveatc.net/krno1_gnd_twr,KRNO Del/Gnd/Twr,US-Class-C,"KRNO 311955Z 24007KT 210V270 10SM FEW250 29/M04 A3015 RMK AO2 SLP155 T02941044
","Reno, Nevada, United States",2021-05-31 20:15:21 UTC
krno1_gnd_twr,http://d.liveatc.net/krno1_gnd_twr,KRNO Del/Gnd/Twr,US-Class-C,"KRNO 311955Z 24007KT 210V270 10SM FEW250 29/M04 A3015 RMK AO2 SLP155 T02941044
","Reno, Nevada, United States",2021-05-31 20:15:21 UTC
krno,http://d.liveatc.net/krno,KRNO Del/Gnd/Twr/App/ZOA,US-Class-C,"KRNO 311955Z 24007KT 210V270 10SM FEW250 29/M04 A3015 RMK AO2 SLP155 T02941044
","Reno, Nevada, United States",2021-05-31 20:15:21 UTC
krno1_guard,http://d.liveatc.net/krno1_guard,KRNO Emergency/Guard,US-Class-C,"KRNO 311955Z 24007KT 210V270 10SM FEW250 29/M04 A3015 RMK AO2 SLP155 T02941044
","Reno, Nevada, United States",2021-05-31 20:15:21 UTC
krno1_gnd,http://d.liveatc.net/krno1_gnd,KRNO Ground,US-Class-C,"KRNO 311955Z 24007KT 210V270 10SM FEW250 29/M04 A3015 RMK AO2 SLP155 T02941044
","Reno, Nevada, United States",2021-05-31 20:15:21 UTC
krno1_app,http://d.liveatc.net/krno1_app,KRNO NORCAL App/Dep,US-Class-C,"KRNO 311955Z 24007KT 210V270 10SM FEW250 29/M04 A3015 RMK AO2 SLP155 T02941044
","Reno, Nevada, United States",2021-05-31 20:15:21 UTC
krno1_app_north,http://d.liveatc.net/krno1_app_north,KRNO NORCAL App/Dep (North),US-Class-C,"KRNO 311955Z 24007KT 210V270 10SM FEW250 29/M04 A3015 RMK AO2 SLP155 T02941044
","Reno, Nevada, United States",2021-05-31 20:15:21 UTC
krno1_app_south,http://d.liveatc.net/krno1_app_south,KRNO NORCAL App/Dep (South),US-Class-C,"KRNO 311955Z 24007KT 210V270 10SM FEW250 29/M04 A3015 RMK AO2 SLP155 T02941044
","Reno, Nevada, United States",2021-05-31 20:15:21 UTC
krno1_twr,http://d.liveatc.net/krno1_twr,KRNO Tower,US-Class-C,"KRNO 311955Z 24007KT 210V270 10SM FEW250 29/M04 A3015 RMK AO2 SLP155 T02941044
","Reno, Nevada, United States",2021-05-31 20:15:21 UTC
kroa2_app,http://d.liveatc.net/kroa2_app,KROA App/Dep #1,US-Class-C,"KROA 311954Z COR VRB03 10SM FEW047 23/09 A3030 RMK AO2 SLP253 T02330094
","Roanoke, Virginia, United States",2021-05-31 20:15:21 UTC
kroa_app,http://d.liveatc.net/kroa_app,KROA App/Dep #2,US-Class-C,"KROA 311954Z COR VRB03 10SM FEW047 23/09 A3030 RMK AO2 SLP253 T02330094
","Roanoke, Virginia, United States",2021-05-31 20:15:21 UTC
kroa_atis,http://d.liveatc.net/kroa_atis,KROA ATIS,US-Class-C,"KROA 311954Z COR VRB03 10SM FEW047 23/09 A3030 RMK AO2 SLP253 T02330094
","Roanoke, Virginia, United States",2021-05-31 20:15:21 UTC
kroa_del,http://d.liveatc.net/kroa_del,KROA Clearance Delivery,US-Class-C,"KROA 311954Z COR VRB03 10SM FEW047 23/09 A3030 RMK AO2 SLP253 T02330094
","Roanoke, Virginia, United States",2021-05-31 20:15:21 UTC
kroa_del_gnd,http://d.liveatc.net/kroa_del_gnd,KROA Del/Gnd,US-Class-C,"KROA 311954Z COR VRB03 10SM FEW047 23/09 A3030 RMK AO2 SLP253 T02330094
","Roanoke, Virginia, United States",2021-05-31 20:15:21 UTC
kroa2_twr,http://d.liveatc.net/kroa2_twr,KROA Gnd/Twr,US-Class-C,"KROA 311954Z COR VRB03 10SM FEW047 23/09 A3030 RMK AO2 SLP253 T02330094
","Roanoke, Virginia, United States",2021-05-31 20:15:21 UTC
kroa2,http://d.liveatc.net/kroa2,KROA Gnd/Twr/App,US-Class-C,"KROA 311954Z COR VRB03 10SM FEW047 23/09 A3030 RMK AO2 SLP253 T02330094
","Roanoke, Virginia, United States",2021-05-31 20:15:21 UTC
kroa_gnd,http://d.liveatc.net/kroa_gnd,KROA Ground,US-Class-C,"KROA 311954Z COR VRB03 10SM FEW047 23/09 A3030 RMK AO2 SLP253 T02330094
","Roanoke, Virginia, United States",2021-05-31 20:15:21 UTC
kroa_twr,http://d.liveatc.net/kroa_twr,KROA Tower,US-Class-C,"KROA 311954Z COR VRB03 10SM FEW047 23/09 A3030 RMK AO2 SLP253 T02330094
","Roanoke, Virginia, United States",2021-05-31 20:15:21 UTC
kroc,http://d.liveatc.net/kroc,KROC Approach,US-Class-C,"KROC 311954Z 27007KT 10SM FEW070 FEW250 22/04 A3021 RMK AO2 SLP235 T02170039 $
","Rochester, New York, United States",2021-05-31 20:15:21 UTC
kroc_s,http://d.liveatc.net/kroc_s,KROC Del/Gnd/Twr,US-Class-C,"KROC 311954Z 27007KT 10SM FEW070 FEW250 22/04 A3021 RMK AO2 SLP235 T02170039 $
","Rochester, New York, United States",2021-05-31 20:15:21 UTC
kroc_del_gnd,http://d.liveatc.net/kroc_del_gnd,KROC Delivery/Ground,US-Class-C,"KROC 311954Z 27007KT 10SM FEW070 FEW250 22/04 A3021 RMK AO2 SLP235 T02170039 $
","Rochester, New York, United States",2021-05-31 20:15:21 UTC
kroc_twr,http://d.liveatc.net/kroc_twr,KROC Tower,US-Class-C,"KROC 311954Z 27007KT 10SM FEW070 FEW250 22/04 A3021 RMK AO2 SLP235 T02170039 $
","Rochester, New York, United States",2021-05-31 20:15:21 UTC
krog,http://d.liveatc.net/krog,KROG/KXNA/KVBT/Misc,US-Class-C,"KROG 311958Z 00000KT 10SM CLR 19/12 A3023 RMK AO2 SLP229 T01890122
","Rogers, Arkansas, United States",2021-05-31 20:15:21 UTC
krsw2,http://d.liveatc.net/krsw2,KRSW Gnd/Twr/App/Dep,US-Class-C,"KRSW 311953Z 08013KT 10SM SCT055 32/19 A3007 RMK AO2 LTG DSNT SE SLP180 T03170189
","Fort Myers, Florida, United States",2021-05-31 20:15:21 UTC
ksat_app,http://d.liveatc.net/ksat_app,KSAT Approach,US-Class-C,"KSAT 311951Z AUTO 14014G21KT 10SM FEW042 SCT050 28/20 A3000 RMK AO2 SLP140 T02830200
","San Antonio, Texas, United States",2021-05-31 20:15:21 UTC
ksat_gnd,http://d.liveatc.net/ksat_gnd,KSAT Ground,US-Class-C,"KSAT 311951Z AUTO 14014G21KT 10SM FEW042 SCT050 28/20 A3000 RMK AO2 SLP140 T02830200
","San Antonio, Texas, United States",2021-05-31 20:15:21 UTC
ksat,http://d.liveatc.net/ksat,KSAT Tower,US-Class-C,"KSAT 311951Z AUTO 14014G21KT 10SM FEW042 SCT050 28/20 A3000 RMK AO2 SLP140 T02830200
","San Antonio, Texas, United States",2021-05-31 20:15:21 UTC
ksav1_app,http://d.liveatc.net/ksav1_app,KSAV App/Dep,US-Class-C,"KSAV 311953Z 11012KT 10SM SCT060 BKN250 26/13 A3024 RMK AO2 SLP239 T02610133
","Savannah, Georgia, United States",2021-05-31 20:15:21 UTC
ksav1_del_gnd,http://d.liveatc.net/ksav1_del_gnd,KSAV Del/Gnd,US-Class-C,"KSAV 311953Z 11012KT 10SM SCT060 BKN250 26/13 A3024 RMK AO2 SLP239 T02610133
","Savannah, Georgia, United States",2021-05-31 20:15:21 UTC
ksav1_twr,http://d.liveatc.net/ksav1_twr,KSAV Tower,US-Class-C,"KSAV 311953Z 11012KT 10SM SCT060 BKN250 26/13 A3024 RMK AO2 SLP239 T02610133
","Savannah, Georgia, United States",2021-05-31 20:15:21 UTC
ksba_app,http://d.liveatc.net/ksba_app,KSBA App/Dep,US-Class-C,"KSBA 311953Z 16008KT 10SM SCT020 19/13 A2997 RMK AO2 SLP149 T01890133 $
","Santa Barbara, California, United States",2021-05-31 20:15:21 UTC
ksba_del_gnd,http://d.liveatc.net/ksba_del_gnd,KSBA Del/Ground,US-Class-C,"KSBA 311953Z 16008KT 10SM SCT020 19/13 A2997 RMK AO2 SLP149 T01890133 $
","Santa Barbara, California, United States",2021-05-31 20:15:21 UTC
ksba,http://d.liveatc.net/ksba,KSBA Tower,US-Class-C,"KSBA 311953Z 16008KT 10SM SCT020 19/13 A2997 RMK AO2 SLP149 T01890133 $
","Santa Barbara, California, United States",2021-05-31 20:15:21 UTC
ksdf_app_1,http://d.liveatc.net/ksdf_app_1,KSDF App/Dep #1,US-Class-C,"KSDF 311956Z VRB03KT 10SM FEW120 BKN250 24/09 A3024 RMK AO2 SLP238 T02440094
","Louisville, Kentucky, United States",2021-05-31 20:15:21 UTC
ksdf_app_2,http://d.liveatc.net/ksdf_app_2,KSDF App/Dep #2,US-Class-C,"KSDF 311956Z VRB03KT 10SM FEW120 BKN250 24/09 A3024 RMK AO2 SLP238 T02440094
","Louisville, Kentucky, United States",2021-05-31 20:15:21 UTC
ksdf_atis,http://d.liveatc.net/ksdf_atis,KSDF ATIS,US-Class-C,"KSDF 311956Z VRB03KT 10SM FEW120 BKN250 24/09 A3024 RMK AO2 SLP238 T02440094
","Louisville, Kentucky, United States",2021-05-31 20:15:21 UTC
ksdf_twr,http://d.liveatc.net/ksdf_twr,KSDF Ground/Tower #1,US-Class-C,"KSDF 311956Z VRB03KT 10SM FEW120 BKN250 24/09 A3024 RMK AO2 SLP238 T02440094
","Louisville, Kentucky, United States",2021-05-31 20:15:21 UTC
ksdf_thunder2,http://d.liveatc.net/ksdf_thunder2,KSDF Thunder Over Louisville Air Show #2,US-Class-C,"KSDF 311956Z VRB03KT 10SM FEW120 BKN250 24/09 A3024 RMK AO2 SLP238 T02440094
","Louisville, Kentucky, United States",2021-05-31 20:15:21 UTC
ksfb3_atis,http://d.liveatc.net/ksfb3_atis,KSFB ATIS,US-Class-C,"KSFB 311953Z 06013G17KT 10SM FEW037 30/18 A3016 RMK AO2 SLP212 T03000178
","Orlando, Florida, United States",2021-05-31 20:15:21 UTC
ksfb4_del,http://d.liveatc.net/ksfb4_del,KSFB Clearance Delivery,US-Class-C,"KSFB 311953Z 06013G17KT 10SM FEW037 30/18 A3016 RMK AO2 SLP212 T03000178
","Orlando, Florida, United States",2021-05-31 20:15:21 UTC
ksfb4_s,http://d.liveatc.net/ksfb4_s,KSFB Del/Gnd,US-Class-C,"KSFB 311953Z 06013G17KT 10SM FEW037 30/18 A3016 RMK AO2 SLP212 T03000178
","Orlando, Florida, United States",2021-05-31 20:15:21 UTC
ksfb4_gnd,http://d.liveatc.net/ksfb4_gnd,KSFB Ground,US-Class-C,"KSFB 311953Z 06013G17KT 10SM FEW037 30/18 A3016 RMK AO2 SLP212 T03000178
","Orlando, Florida, United States",2021-05-31 20:15:21 UTC
ksfb3_s,http://d.liveatc.net/ksfb3_s,KSFB Tower (Both),US-Class-C,"KSFB 311953Z 06013G17KT 10SM FEW037 30/18 A3016 RMK AO2 SLP212 T03000178
","Orlando, Florida, United States",2021-05-31 20:15:21 UTC
ksfb3_twr1,http://d.liveatc.net/ksfb3_twr1,KSFB Tower (Main),US-Class-C,"KSFB 311953Z 06013G17KT 10SM FEW037 30/18 A3016 RMK AO2 SLP212 T03000178
","Orlando, Florida, United States",2021-05-31 20:15:21 UTC
ksfb3_twr2,http://d.liveatc.net/ksfb3_twr2,KSFB Tower (South),US-Class-C,"KSFB 311953Z 06013G17KT 10SM FEW037 30/18 A3016 RMK AO2 SLP212 T03000178
","Orlando, Florida, United States",2021-05-31 20:15:21 UTC
koak_dep,http://d.liveatc.net/koak_dep,NORCAL Departure (KSFO/KOAK),US-Class-C,"KOAK 311953Z 30013KT 10SM FEW200 22/12 A2991 RMK AO2 SLP129 T02220117
","San Francisco, California, United States",2021-05-31 20:15:21 UTC
ksgf5_app,http://d.liveatc.net/ksgf5_app,KSGF Approach/Departure,US-Class-C,"KSGF 311952Z 00000KT 10SM FEW035 20/12 A3021 RMK AO2 SLP224 T02000117
","Springfield, Missouri, United States",2021-05-31 20:15:21 UTC
ksgf5_atis,http://d.liveatc.net/ksgf5_atis,KSGF ATIS,US-Class-C,"KSGF 311952Z 00000KT 10SM FEW035 20/12 A3021 RMK AO2 SLP224 T02000117
","Springfield, Missouri, United States",2021-05-31 20:15:21 UTC
ksgf5_del,http://d.liveatc.net/ksgf5_del,KSGF Clearance Delivery,US-Class-C,"KSGF 311952Z 00000KT 10SM FEW035 20/12 A3021 RMK AO2 SLP224 T02000117
","Springfield, Missouri, United States",2021-05-31 20:15:21 UTC
ksgf5_gnd,http://d.liveatc.net/ksgf5_gnd,KSGF Ground,US-Class-C,"KSGF 311952Z 00000KT 10SM FEW035 20/12 A3021 RMK AO2 SLP224 T02000117
","Springfield, Missouri, United States",2021-05-31 20:15:21 UTC
ksgf,http://d.liveatc.net/ksgf,KSGF Ground/Tower,US-Class-C,"KSGF 311952Z 00000KT 10SM FEW035 20/12 A3021 RMK AO2 SLP224 T02000117
","Springfield, Missouri, United States",2021-05-31 20:15:21 UTC
ksgf5_twr,http://d.liveatc.net/ksgf5_twr,KSGF Tower,US-Class-C,"KSGF 311952Z 00000KT 10SM FEW035 20/12 A3021 RMK AO2 SLP224 T02000117
","Springfield, Missouri, United States",2021-05-31 20:15:21 UTC
ksjc_atis,http://d.liveatc.net/ksjc_atis,KSJC D-ATIS,US-Class-C,"KSJC 311953Z 34006KT 10SM FEW160 28/11 A2989 RMK AO2 SLP121 T02830106 $
","San Jose, California, United States",2021-05-31 20:15:21 UTC
ksjc_del_gnd,http://d.liveatc.net/ksjc_del_gnd,KSJC Del/Gnd/Misc,US-Class-C,"KSJC 311953Z 34006KT 10SM FEW160 28/11 A2989 RMK AO2 SLP121 T02830106 $
","San Jose, California, United States",2021-05-31 20:15:21 UTC
ksjc6_gnd,http://d.liveatc.net/ksjc6_gnd,KSJC Ground,US-Class-C,"KSJC 311953Z 34006KT 10SM FEW160 28/11 A2989 RMK AO2 SLP121 T02830106 $
","San Jose, California, United States",2021-05-31 20:15:21 UTC
ksjc_app,http://d.liveatc.net/ksjc_app,KSJC NORCAL Approach #1,US-Class-C,"KSJC 311953Z 34006KT 10SM FEW160 28/11 A2989 RMK AO2 SLP121 T02830106 $
","San Jose, California, United States",2021-05-31 20:15:21 UTC
ksjc_app2,http://d.liveatc.net/ksjc_app2,KSJC NORCAL Approach #2,US-Class-C,"KSJC 311953Z 34006KT 10SM FEW160 28/11 A2989 RMK AO2 SLP121 T02830106 $
","San Jose, California, United States",2021-05-31 20:15:21 UTC
ksjc_dep,http://d.liveatc.net/ksjc_dep,KSJC NORCAL Departure,US-Class-C,"KSJC 311953Z 34006KT 10SM FEW160 28/11 A2989 RMK AO2 SLP121 T02830106 $
","San Jose, California, United States",2021-05-31 20:15:21 UTC
ksjc6_twr,http://d.liveatc.net/ksjc6_twr,KSJC Tower #1,US-Class-C,"KSJC 311953Z 34006KT 10SM FEW160 28/11 A2989 RMK AO2 SLP121 T02830106 $
","San Jose, California, United States",2021-05-31 20:15:21 UTC
ksjc_twr2,http://d.liveatc.net/ksjc_twr2,KSJC Tower #2,US-Class-C,"KSJC 311953Z 34006KT 10SM FEW160 28/11 A2989 RMK AO2 SLP121 T02830106 $
","San Jose, California, United States",2021-05-31 20:15:21 UTC
ksna_del_gnd,http://d.liveatc.net/ksna_del_gnd,KSNA Del/Gnd,US-Class-C,"KSNA 311953Z 23008KT 170V260 10SM FEW020 21/13 A2995 RMK AO2 SLP141 T02110133
","Santa Ana, California, United States",2021-05-31 20:15:21 UTC
ksna2,http://d.liveatc.net/ksna2,KSNA Del/Gnd/Twr/App,US-Class-C,"KSNA 311953Z 23008KT 170V260 10SM FEW020 21/13 A2995 RMK AO2 SLP141 T02110133
","Santa Ana, California, United States",2021-05-31 20:15:21 UTC
ksrq1_app_dep,http://d.liveatc.net/ksrq1_app_dep,KSRQ App/Dep,US-Class-C,"KSRQ 311953Z 27008KT 10SM SCT055 31/23 A3008 RMK AO2 SLP184 T03110233
","Sarasota/Bradenton, Florida, United States",2021-05-31 20:15:21 UTC
ksrq1_del_gnd,http://d.liveatc.net/ksrq1_del_gnd,KSRQ Del/Gnd,US-Class-C,"KSRQ 311953Z 27008KT 10SM SCT055 31/23 A3008 RMK AO2 SLP184 T03110233
","Sarasota/Bradenton, Florida, United States",2021-05-31 20:15:21 UTC
ksrq1_twr,http://d.liveatc.net/ksrq1_twr,KSRQ Tower,US-Class-C,"KSRQ 311953Z 27008KT 10SM SCT055 31/23 A3008 RMK AO2 SLP184 T03110233
","Sarasota/Bradenton, Florida, United States",2021-05-31 20:15:21 UTC
ksyr_atis,http://d.liveatc.net/ksyr_atis,KSYR ATIS,US-Class-C,"KSYR 311954Z 32012G16KT 10SM FEW055 FEW170 SCT250 22/02 A3021 RMK AO2 SLP225 T02220017
","Syracuse, New York, United States",2021-05-31 20:15:21 UTC
ksyr_del_gnd,http://d.liveatc.net/ksyr_del_gnd,KSYR Del/Gnd,US-Class-C,"KSYR 311954Z 32012G16KT 10SM FEW055 FEW170 SCT250 22/02 A3021 RMK AO2 SLP225 T02220017
","Syracuse, New York, United States",2021-05-31 20:15:21 UTC
ksyr,http://d.liveatc.net/ksyr,KSYR Tower/Approach,US-Class-C,"KSYR 311954Z 32012G16KT 10SM FEW055 FEW170 SCT250 22/02 A3021 RMK AO2 SLP225 T02220017
","Syracuse, New York, United States",2021-05-31 20:15:21 UTC
ktlh,http://d.liveatc.net/ktlh,KTLH Del/Gnd/Twr/App,US-Class-C,"KTLH 311953Z 07008KT 10SM SCT065 32/16 A3015 RMK AO2 SLP207 T03220156
","Tallahassee, Florida, United States",2021-05-31 20:15:21 UTC
ktol,http://d.liveatc.net/ktol,KTOL Del/Gnd/Twr/App,US-Class-C,"KTOL 311952Z 20005KT 10SM CLR 23/06 A3025 RMK AO2 SLP242 T02280056
","Toledo, Ohio, United States",2021-05-31 20:15:21 UTC
ktul1,http://d.liveatc.net/ktul1,KTUL Del/Gnd/Twr/App,US-Class-C,"KTUL 311953Z 05005KT 3SM -RA BR OVC035 17/15 A3015 RMK AO2 SFC VIS 4 SLP207 P0013 T01670150
","Tulsa, Oklahoma, United States",2021-05-31 20:15:21 UTC
ktus,http://d.liveatc.net/ktus,KDMA/KTUS Twr/Ops/ZAB,US-Class-C,"KTUS 311953Z AUTO 00000KT 10SM FEW110 34/02 A2997 RMK AO2 SLP095 T03440017
","Tucson, Arizona, United States",2021-05-31 20:15:21 UTC
ktus2,http://d.liveatc.net/ktus2,KTUS Del/Gnd/Twr/App/KDMA,US-Class-C,"KTUS 311953Z AUTO 00000KT 10SM FEW110 34/02 A2997 RMK AO2 SLP095 T03440017
","Tucson, Arizona, United States",2021-05-31 20:15:21 UTC
ktys,http://d.liveatc.net/ktys,KTYS Del/Gnd/Twr/App,US-Class-C,"KTYS 311953Z VRB05KT 10SM FEW055 SCT250 24/12 A3024 RMK AO2 SLP235 T02440117
","Knoxville, Tennessee, United States",2021-05-31 20:15:21 UTC
krog,http://d.liveatc.net/krog,KROG/KXNA/KVBT/Misc,US-Class-C,"KROG 311958Z 00000KT 10SM CLR 19/12 A3023 RMK AO2 SLP229 T01890122
","Bentonville, Arkansas, United States",2021-05-31 20:15:21 UTC
krog,http://d.liveatc.net/krog,KROG/KXNA/KVBT/Misc,US-Class-C,"KROG 311958Z 00000KT 10SM CLR 19/12 A3023 RMK AO2 SLP229 T01890122
","Fayetteville/Springdale/Rogers, Arkansas, United States",2021-05-31 20:15:21 UTC
kbtr,http://d.liveatc.net/kbtr,KBTR/KHZR/L38 Del/Gnd/Twr/App/CTAF,US-Class-C,"KBTR 311953Z 08006KT 10SM FEW050 30/19 A3012 RMK AO2 SLP198 T03000189
","Gonzales, Louisiana, United States",2021-05-31 20:15:21 UTC
nc_del_gnd_app,http://d.liveatc.net/nc_del_gnd_app,PANC Del/Gnd/App,US-Class-C,,"Anchorage, Alaska, United States",2021-05-31 20:15:21 UTC
nc,http://d.liveatc.net/nc,PANC Del/Gnd/Twr/App,US-Class-C,,"Anchorage, Alaska, United States",2021-05-31 20:15:21 UTC
nc_twr,http://d.liveatc.net/nc_twr,PANC Tower,US-Class-C,,"Anchorage, Alaska, United States",2021-05-31 20:15:21 UTC
hog2_atis,http://d.liveatc.net/hog2_atis,PHOG ATIS,US-Class-C,,"Kahului, Hawaii, United States",2021-05-31 20:15:21 UTC
hog2_del,http://d.liveatc.net/hog2_del,PHOG Clearance Delivery,US-Class-C,,"Kahului, Hawaii, United States",2021-05-31 20:15:21 UTC
hog2,http://d.liveatc.net/hog2,PHOG Del/Gnd/Twr/App,US-Class-C,,"Kahului, Hawaii, United States",2021-05-31 20:15:21 UTC
hog2_gnd,http://d.liveatc.net/hog2_gnd,PHOG Ground,US-Class-C,,"Kahului, Hawaii, United States",2021-05-31 20:15:21 UTC
hog2_app,http://d.liveatc.net/hog2_app,PHOG HCF App (N/S),US-Class-C,,"Kahului, Hawaii, United States",2021-05-31 20:15:21 UTC
hog2_app_n,http://d.liveatc.net/hog2_app_n,PHOG HCF App (North),US-Class-C,,"Kahului, Hawaii, United States",2021-05-31 20:15:21 UTC
hog2_app_s,http://d.liveatc.net/hog2_app_s,PHOG HCF App (South),US-Class-C,,"Kahului, Hawaii, United States",2021-05-31 20:15:21 UTC
hog3,http://d.liveatc.net/hog3,PHOG Tower,US-Class-C,,"Kahului, Hawaii, United States",2021-05-31 20:15:21 UTC
tjsj2_app,http://d.liveatc.net/tjsj2_app,TJSJ Approach/Departure,US-Class-C,"TJSJ 311956Z 06018G24KT 10SM FEW036 SCT065 SCT095 30/23 A3001 RMK AO2 SLP160 T03000228 $
","San Juan, Puerto Rico, United States",2021-05-31 20:15:21 UTC
tjsj2_local,http://d.liveatc.net/tjsj2_local,TJSJ Del/Gnd/Twr,US-Class-C,"TJSJ 311956Z 06018G24KT 10SM FEW036 SCT065 SCT095 30/23 A3001 RMK AO2 SLP160 T03000228 $
","San Juan, Puerto Rico, United States",2021-05-31 20:15:21 UTC
kues,http://d.liveatc.net/kues,KUES Del/Gnd/Twr/02C,US-Class-D,"KUES 311945Z 25010KT 10SM SCT075 21/05 A3020
","Brookfield, Wisconsin, United States",2021-05-31 20:15:43 UTC
k0v4,http://d.liveatc.net/k0v4,0V4 CTAF,US-Class-D,K0V4 Airport Info,"Brookneal, Virginia, United States",2021-05-31 20:15:43 UTC
14a_2,http://d.liveatc.net/14a_2,14A CTAF,US-Class-D,,"Mooresville, North Carolina, United States",2021-05-31 20:15:43 UTC
kbos_area_ctaf,http://d.liveatc.net/kbos_area_ctaf,MA/NH/RI/CT Area CTAF,US-Class-D,"KBOS 311954Z 27006KT 10SM FEW015 OVC020 16/11 A3009 RMK AO2 SLP190 T01610106
","Hopedale, Massachusetts, United States",2021-05-31 20:15:43 UTC
kbos_area_ctaf,http://d.liveatc.net/kbos_area_ctaf,MA/NH/RI/CT Area CTAF,US-Class-D,"KBOS 311954Z 27006KT 10SM FEW015 OVC020 16/11 A3009 RMK AO2 SLP190 T01610106
","Hopedale, Massachusetts, United States",2021-05-31 20:15:43 UTC
kbos_area_ctaf,http://d.liveatc.net/kbos_area_ctaf,MA/NH/RI/CT Area CTAF,US-Class-D,"KBOS 311954Z 27006KT 10SM FEW015 OVC020 16/11 A3009 RMK AO2 SLP190 T01610106
","Hopedale, Massachusetts, United States",2021-05-31 20:15:43 UTC
1b9_uec_ctaf,http://d.liveatc.net/1b9_uec_ctaf,1B9 CTAF #1,US-Class-D,,"Mansfield, Massachusetts, United States",2021-05-31 20:15:43 UTC
1b9,http://d.liveatc.net/1b9,1B9 CTAF/RCO,US-Class-D,,"Mansfield, Massachusetts, United States",2021-05-31 20:15:43 UTC
1b9_uec_rco,http://d.liveatc.net/1b9_uec_rco,1B9 Del/RCO #1,US-Class-D,,"Mansfield, Massachusetts, United States",2021-05-31 20:15:43 UTC
k1c9,http://d.liveatc.net/k1c9,1C9 CTAF,US-Class-D,K1C9 Airport Info,"Hollister, California, United States",2021-05-31 20:15:43 UTC
kmht_murp_123050,http://d.liveatc.net/kmht_murp_123050,26MA CTAF,US-Class-D,"KMHT 311953Z 32012G17KT 10SM OVC025 16/09 A3007 RMK AO2 SLP196 T01610089
","Pepperell, Massachusetts, United States",2021-05-31 20:15:43 UTC
khya2_122900,http://d.liveatc.net/khya2_122900,2B1 CTAF,US-Class-D,"KHYA 311956Z 35005KT 5SM BR OVC007 13/11 A3008 RMK AO2 SLP188 T01330111
","Marstons Mills, Massachusetts, United States",2021-05-31 20:15:43 UTC
kbos_area_ctaf,http://d.liveatc.net/kbos_area_ctaf,MA/NH/RI/CT Area CTAF,US-Class-D,"KBOS 311954Z 27006KT 10SM FEW015 OVC020 16/11 A3009 RMK AO2 SLP190 T01610106
","Newburyport, Massachusetts, United States",2021-05-31 20:15:43 UTC
kbos_area_ctaf,http://d.liveatc.net/kbos_area_ctaf,MA/NH/RI/CT Area CTAF,US-Class-D,"KBOS 311954Z 27006KT 10SM FEW015 OVC020 16/11 A3009 RMK AO2 SLP190 T01610106
","Newburyport, Massachusetts, United States",2021-05-31 20:15:43 UTC
kbos_area_ctaf,http://d.liveatc.net/kbos_area_ctaf,MA/NH/RI/CT Area CTAF,US-Class-D,"KBOS 311954Z 27006KT 10SM FEW015 OVC020 16/11 A3009 RMK AO2 SLP190 T01610106
","Newburyport, Massachusetts, United States",2021-05-31 20:15:43 UTC
2nc0,http://d.liveatc.net/2nc0,2NC0 CTAF,US-Class-D,,"Burnsville, North Carolina, United States",2021-05-31 20:15:43 UTC
2o3_ctaf,http://d.liveatc.net/2o3_ctaf,2O3 CTAF,US-Class-D,,"Angwin, California, United States",2021-05-31 20:15:43 UTC
39n_ctaf,http://d.liveatc.net/39n_ctaf,39N CTAF,US-Class-D,,"Princeton/Rocky Hill, New Jersey, United States",2021-05-31 20:15:43 UTC
k3ck,http://d.liveatc.net/k3ck,3CK/KBUU CTAF,US-Class-D,K3CK Airport Info,"Chicago/Lake In The Hills, Illinois, United States",2021-05-31 20:15:43 UTC
kojc2_2,http://d.liveatc.net/kojc2_2,KLXT/3GV CTAF,US-Class-D,"KOJC 311953Z 11003KT 10SM OVC019 18/14 A3022 RMK AO2 SLP227 T01780139
","Grain Valley, Missouri, United States",2021-05-31 20:15:43 UTC
3m5,http://d.liveatc.net/3m5,3M5 CTAF,US-Class-D,,"Huntsville, Alabama, United States",2021-05-31 20:15:43 UTC
3n6_ctaf,http://d.liveatc.net/3n6_ctaf,3N6 CTAF,US-Class-D,,"Old Bridge, New Jersey, United States",2021-05-31 20:15:43 UTC
kblm2,http://d.liveatc.net/kblm2,KBLM/N12/3N6/KMJX,US-Class-D,"KBLM 311956Z AUTO 30009KT 10SM BKN045 20/09 A3021 RMK AO2 SLP230 T02000094 PNO $
","Old Bridge, New Jersey, United States",2021-05-31 20:15:43 UTC
3r9,http://d.liveatc.net/3r9,3R9 CTAF,US-Class-D,,"Lakeway, Texas, United States",2021-05-31 20:15:43 UTC
44n_ctaf,http://d.liveatc.net/44n_ctaf,44N/KMGJ CTAF,US-Class-D,,"Millbrook, New York, United States",2021-05-31 20:15:43 UTC
39n_47n_ctaf,http://d.liveatc.net/39n_47n_ctaf,47N CTAF,US-Class-D,,"Manville, New Jersey, United States",2021-05-31 20:15:43 UTC
kelm1_4ny8,http://d.liveatc.net/kelm1_4ny8,4NY8 CTAF,US-Class-D,"KELM 311953Z 29007KT 260V350 10SM FEW080 23/05 A3020 RMK AO2 SLP225 T02280050
","Elmira, New York, United States",2021-05-31 20:15:43 UTC
k4s1,http://d.liveatc.net/k4s1,4S1 CTAF,US-Class-D,K4S1 Airport Info,"Gold Beach, Oregon, United States",2021-05-31 20:15:43 UTC
54az_ctaf,http://d.liveatc.net/54az_ctaf,54AZ CTAF,US-Class-D,,"Somerton, Arizona, United States",2021-05-31 20:15:43 UTC
5a2_guard,http://d.liveatc.net/5a2_guard,5A2 Area Emergency/Guard,US-Class-D,,"Warner Robins, Georgia, United States",2021-05-31 20:15:43 UTC
5a2,http://d.liveatc.net/5a2,5A2/5GE1 CTAF,US-Class-D,,"Warner Robins, Georgia, United States",2021-05-31 20:15:43 UTC
khya2_122800,http://d.liveatc.net/khya2_122800,5B6/KCQX/KPVC CTAF,US-Class-D,"KHYA 311956Z 35005KT 5SM BR OVC007 13/11 A3008 RMK AO2 SLP188 T01330111
","Falmouth, Massachusetts, United States",2021-05-31 20:15:43 UTC
k5c1,http://d.liveatc.net/k5c1,5C1 CTAF,US-Class-D,"K5C1 311935Z AUTO 13009G14KT 090V150 10SM BKN034 27/18 A3002 RMK AO1
","San Antonio, Texas, United States",2021-05-31 20:15:43 UTC
5a2,http://d.liveatc.net/5a2,5A2/5GE1 CTAF,US-Class-D,,"Fort Valley, Georgia, United States",2021-05-31 20:15:43 UTC
kmht_murp_122800,http://d.liveatc.net/kmht_murp_122800,MA/NH CTAF 122.8,US-Class-D,"KMHT 311953Z 32012G17KT 10SM OVC025 16/09 A3007 RMK AO2 SLP196 T01610089
","Stow, Massachusetts, United States",2021-05-31 20:15:43 UTC
kbos_area_ctaf,http://d.liveatc.net/kbos_area_ctaf,MA/NH/RI/CT Area CTAF,US-Class-D,"KBOS 311954Z 27006KT 10SM FEW015 OVC020 16/11 A3009 RMK AO2 SLP190 T01610106
","Stow, Massachusetts, United States",2021-05-31 20:15:43 UTC
kbos_area_ctaf,http://d.liveatc.net/kbos_area_ctaf,MA/NH/RI/CT Area CTAF,US-Class-D,"KBOS 311954Z 27006KT 10SM FEW015 OVC020 16/11 A3009 RMK AO2 SLP190 T01610106
","Stow, Massachusetts, United States",2021-05-31 20:15:43 UTC
kbos_area_ctaf,http://d.liveatc.net/kbos_area_ctaf,MA/NH/RI/CT Area CTAF,US-Class-D,"KBOS 311954Z 27006KT 10SM FEW015 OVC020 16/11 A3009 RMK AO2 SLP190 T01610106
","Stow, Massachusetts, United States",2021-05-31 20:15:43 UTC
kjra1_6n5,http://d.liveatc.net/kjra1_6n5,6N5 CTAF,US-Class-D,KJRA Airport Info,"New York, New York, United States",2021-05-31 20:15:43 UTC
kjra1_6n7,http://d.liveatc.net/kjra1_6n7,6N7 CTAF,US-Class-D,KJRA Airport Info,"New York, New York, United States",2021-05-31 20:15:43 UTC
77s_ctaf,http://d.liveatc.net/77s_ctaf,77S CTAF,US-Class-D,,"Creswell, Oregon, United States",2021-05-31 20:15:43 UTC
7b2,http://d.liveatc.net/7b2,7B2 CTAF,US-Class-D,,"Northampton, Massachusetts, United States",2021-05-31 20:15:43 UTC
kmht_murp_122800,http://d.liveatc.net/kmht_murp_122800,MA/NH CTAF 122.8,US-Class-D,"KMHT 311953Z 32012G17KT 10SM OVC025 16/09 A3007 RMK AO2 SLP196 T01610089
","Hampton, New Hampshire, United States",2021-05-31 20:15:43 UTC
7fl6,http://d.liveatc.net/7fl6,7FL6 CTAF,US-Class-D,,"Daytona Beach, Florida, United States",2021-05-31 20:15:43 UTC
7s5,http://d.liveatc.net/7s5,7S5 CTAF,US-Class-D,,"Independence, Oregon, United States",2021-05-31 20:15:43 UTC
20_ctaf,http://d.liveatc.net/20_ctaf,A20 CTAF,US-Class-D,,"Bullhead City, Arizona, United States",2021-05-31 20:15:43 UTC
klci_122800,http://d.liveatc.net/klci_122800,B18/Lake Area CTAF,US-Class-D,"KLCI 311956Z AUTO 27006KT 10SM OVC022 14/11 A3009 RMK AO2 SLP189 T01390106 PNO $
","Alton Bay, New Hampshire, United States",2021-05-31 20:15:43 UTC
kgif_ctaf,http://d.liveatc.net/kgif_ctaf,KGIF/F57 CTAF,US-Class-D,"KGIF 311953Z AUTO 07012KT 10SM FEW048 32/17 A3014 RMK AO2 SLP205 T03220167
","Winter Haven, Florida, United States",2021-05-31 20:15:43 UTC
kf70_2,http://d.liveatc.net/kf70_2,F70 CTAF,US-Class-D,"KF70 311955Z AUTO 00000KT 10SM CLR 27/12 A2994 RMK AO1
","Murrieta/Temecula, California, United States",2021-05-31 20:15:43 UTC
fa40,http://d.liveatc.net/fa40,FA40 CTAF,US-Class-D,,"New Port Richey, Florida, United States",2021-05-31 20:15:43 UTC
ki35,http://d.liveatc.net/ki35,I35 CTAF/ZID,US-Class-D,"KI35 311955Z AUTO 01003KT 10SM SCT049 24/11 A3027 RMK AO2 T02400113
","Harlan, Kentucky, United States",2021-05-31 20:15:43 UTC
i40_awos,http://d.liveatc.net/i40_awos,I40 AWOS,US-Class-D,,"Coshocton, Ohio, United States",2021-05-31 20:15:43 UTC
i40_ctaf,http://d.liveatc.net/i40_ctaf,I40 CTAF,US-Class-D,,"Coshocton, Ohio, United States",2021-05-31 20:15:43 UTC
k1h0,http://d.liveatc.net/k1h0,K1H0 CTAF/Unicom,US-Class-D,K1H0 Airport Info,"St. Louis, Missouri, United States",2021-05-31 20:15:43 UTC
kixd_gnd_twr,http://d.liveatc.net/kixd_gnd_twr,KIXD Ground/Tower/K34,US-Class-D,"KIXD 311953Z VRB03KT 10SM BKN017 BKN090 OVC110 18/13 A3022 RMK AO2 RAE1858 SLP229 P0000 T01830133
","Gardner, Kansas, United States",2021-05-31 20:15:43 UTC
kaao2,http://d.liveatc.net/kaao2,KAAO CTAF/KBEC Twr,US-Class-D,"KAAO 311954Z AUTO 10003KT 10SM BKN007 BKN043 OVC070 16/14 A3018 RMK AO2 RAE46 SLP218 P0001 T01560139
","Wichita, Kansas, United States",2021-05-31 20:15:43 UTC
kack_app,http://d.liveatc.net/kack_app,KACK App/Dep,US-Class-D,"KACK 311953Z 25014KT 6SM BR OVC004 14/12 A3010 RMK AO2 RAB24E25 SLP194 P0000 T01390122 $
","Nantucket, Massachusetts, United States",2021-05-31 20:15:43 UTC
kack_atis,http://d.liveatc.net/kack_atis,KACK ATIS,US-Class-D,"KACK 311953Z 25014KT 6SM BR OVC004 14/12 A3010 RMK AO2 RAB24E25 SLP194 P0000 T01390122 $
","Nantucket, Massachusetts, United States",2021-05-31 20:15:43 UTC
kack_del_gnd,http://d.liveatc.net/kack_del_gnd,KACK Ground,US-Class-D,"KACK 311953Z 25014KT 6SM BR OVC004 14/12 A3010 RMK AO2 RAB24E25 SLP194 P0000 T01390122 $
","Nantucket, Massachusetts, United States",2021-05-31 20:15:43 UTC
kack,http://d.liveatc.net/kack,KACK Tower,US-Class-D,"KACK 311953Z 25014KT 6SM BR OVC004 14/12 A3010 RMK AO2 RAB24E25 SLP194 P0000 T01390122 $
","Nantucket, Massachusetts, United States",2021-05-31 20:15:43 UTC
kads_atis,http://d.liveatc.net/kads_atis,KADS ATIS,US-Class-D,"KADS 311852Z 11006G14KT 10SM BKN080 22/19 A3008
","Dallas, Texas, United States",2021-05-31 20:15:43 UTC
kads1_2,http://d.liveatc.net/kads1_2,KADS Ground,US-Class-D,"KADS 311852Z 11006G14KT 10SM BKN080 22/19 A3008
","Dallas, Texas, United States",2021-05-31 20:15:43 UTC
kads1_1,http://d.liveatc.net/kads1_1,KADS Tower,US-Class-D,"KADS 311852Z 11006G14KT 10SM BKN080 22/19 A3008
","Dallas, Texas, United States",2021-05-31 20:15:43 UTC
kdaa2_twr,http://d.liveatc.net/kdaa2_twr,KDAA/KADW Tower,US-Class-D,"KDAA 311956Z AUTO 02004KT 10SM CLR 24/08 A3025 RMK AO2 SLP246 T02360084 $
","Camp Springs, Maryland, United States",2021-05-31 20:15:43 UTC
kabq1_2,http://d.liveatc.net/kabq1_2,KAEG Twr/App,US-Class-D,"KABQ 311952Z 13020KT 10SM TS FEW030 SCT050CB BKN140 21/09 A3011 RMK AO2 LTG DSNT SW-N RAB36E50 TSB41 SLP130 OCNL LTGIC SW TS SW MOV NE VIRGA MTN TOPS OBSC NE AND SE P0000 T02110089
","Albuquerque, New Mexico, United States",2021-05-31 20:15:43 UTC
kmht_murp_122800,http://d.liveatc.net/kmht_murp_122800,MA/NH CTAF 122.8,US-Class-D,"KMHT 311953Z 32012G17KT 10SM OVC025 16/09 A3007 RMK AO2 SLP196 T01610089
","Jaffrey, New Hampshire, United States",2021-05-31 20:15:43 UTC
kafw1_2,http://d.liveatc.net/kafw1_2,KAFW Regional App (North),US-Class-D,"KAFW 311953Z 11005KT 6SM BR OVC011 22/19 A3006 RMK AO2 RAE34 CIG 008V012 SLP170 P0000 T02170194
","Fort Worth, Texas, United States",2021-05-31 20:15:43 UTC
kafw1_1,http://d.liveatc.net/kafw1_1,KAFW Tower/Heli,US-Class-D,"KAFW 311953Z 11005KT 6SM BR OVC011 22/19 A3006 RMK AO2 RAE34 CIG 008V012 SLP170 P0000 T02170194
","Fort Worth, Texas, United States",2021-05-31 20:15:43 UTC
kafw1,http://d.liveatc.net/kafw1,KAFW Tower/Heli/App,US-Class-D,"KAFW 311953Z 11005KT 6SM BR OVC011 22/19 A3006 RMK AO2 RAE34 CIG 008V012 SLP170 P0000 T02170194
","Fort Worth, Texas, United States",2021-05-31 20:15:43 UTC
kahn,http://d.liveatc.net/kahn,KAHN Tower,US-Class-D,"KAHN 311951Z 00000KT 10SM OVC050 24/12 A3028 RMK AO2 SLP250 T02440122
","Athens, Georgia, United States",2021-05-31 20:15:43 UTC
kamw,http://d.liveatc.net/kamw,KAMW CTAF,US-Class-D,"KAMW 311953Z AUTO VRB04KT 10SM FEW050 23/09 A3018 RMK AO2 SLP217 T02280094
","Ames, Iowa, United States",2021-05-31 20:15:43 UTC
kane,http://d.liveatc.net/kane,KANE Twr/CTAF,US-Class-D,"KANE 311945Z 28010G15KT 10SM SCT060 25/09 A3011
","Minneapolis, Minnesota, United States",2021-05-31 20:15:43 UTC
kank2_ctaf,http://d.liveatc.net/kank2_ctaf,KANK CTAF,US-Class-D,"KANK 311955Z AUTO 00000KT 10SM OVC025 10/06 A3040 RMK AO1 T00970059
","Salida, Colorado, United States",2021-05-31 20:15:43 UTC
kapa2_app,http://d.liveatc.net/kapa2_app,KAPA App/Dep,US-Class-D,"KAPA 311953Z 36003KT 10SM SCT018 BKN047 BKN075 14/07 A3029 RMK AO2 SLP232 T01390072
","Denver, Colorado, United States",2021-05-31 20:15:43 UTC
kapa2_gnd,http://d.liveatc.net/kapa2_gnd,KAPA Del/Gnd,US-Class-D,"KAPA 311953Z 36003KT 10SM SCT018 BKN047 BKN075 14/07 A3029 RMK AO2 SLP232 T01390072
","Denver, Colorado, United States",2021-05-31 20:15:43 UTC
kapa2_twr1,http://d.liveatc.net/kapa2_twr1,KAPA Tower (Primary),US-Class-D,"KAPA 311953Z 36003KT 10SM SCT018 BKN047 BKN075 14/07 A3029 RMK AO2 SLP232 T01390072
","Denver, Colorado, United States",2021-05-31 20:15:43 UTC
kapa2_twr2,http://d.liveatc.net/kapa2_twr2,KAPA Tower (Secondary #1),US-Class-D,"KAPA 311953Z 36003KT 10SM SCT018 BKN047 BKN075 14/07 A3029 RMK AO2 SLP232 T01390072
","Denver, Colorado, United States",2021-05-31 20:15:43 UTC
kapa2_twr3,http://d.liveatc.net/kapa2_twr3,KAPA Tower (Secondary #2),US-Class-D,"KAPA 311953Z 36003KT 10SM SCT018 BKN047 BKN075 14/07 A3029 RMK AO2 SLP232 T01390072
","Denver, Colorado, United States",2021-05-31 20:15:43 UTC
kapc1_del_gnd,http://d.liveatc.net/kapc1_del_gnd,KAPC Del/Gnd,US-Class-D,"KAPC 311954Z 21008KT 10SM CLR 27/13 A2990 RMK AO2 SLP116 T02670133
","Napa, California, United States",2021-05-31 20:15:43 UTC
kapc1_twr,http://d.liveatc.net/kapc1_twr,KAPC Tower,US-Class-D,"KAPC 311954Z 21008KT 10SM CLR 27/13 A2990 RMK AO2 SLP116 T02670133
","Napa, California, United States",2021-05-31 20:15:43 UTC
kapf1_atis,http://d.liveatc.net/kapf1_atis,KAPF ATIS,US-Class-D,"KAPF 311953Z 24008KT 10SM VCTS FEW055 SCT090 BKN110 27/22 A3006 RMK AO2 LTG DSNT NE-SE TSB28E34E49 SLP177 T02720217 $
","Naples, Florida, United States",2021-05-31 20:15:43 UTC
kapf1_del_gnd,http://d.liveatc.net/kapf1_del_gnd,KAPF Del/Gnd,US-Class-D,"KAPF 311953Z 24008KT 10SM VCTS FEW055 SCT090 BKN110 27/22 A3006 RMK AO2 LTG DSNT NE-SE TSB28E34E49 SLP177 T02720217 $
","Naples, Florida, United States",2021-05-31 20:15:43 UTC
kapf1_del_gnd_twr,http://d.liveatc.net/kapf1_del_gnd_twr,KAPF Del/Gnd/Twr,US-Class-D,"KAPF 311953Z 24008KT 10SM VCTS FEW055 SCT090 BKN110 27/22 A3006 RMK AO2 LTG DSNT NE-SE TSB28E34E49 SLP177 T02720217 $
","Naples, Florida, United States",2021-05-31 20:15:43 UTC
kapf1_app,http://d.liveatc.net/kapf1_app,KAPF Ft Myers App/Dep,US-Class-D,"KAPF 311953Z 24008KT 10SM VCTS FEW055 SCT090 BKN110 27/22 A3006 RMK AO2 LTG DSNT NE-SE TSB28E34E49 SLP177 T02720217 $
","Naples, Florida, United States",2021-05-31 20:15:43 UTC
kapf1_twr,http://d.liveatc.net/kapf1_twr,KAPF Tower,US-Class-D,"KAPF 311953Z 24008KT 10SM VCTS FEW055 SCT090 BKN110 27/22 A3006 RMK AO2 LTG DSNT NE-SE TSB28E34E49 SLP177 T02720217 $
","Naples, Florida, United States",2021-05-31 20:15:43 UTC
kapn_app,http://d.liveatc.net/kapn_app,KAPN App/Dep/ZMP,US-Class-D,"KAPN 311954Z AUTO 12009KT 10SM OVC080 20/06 A3018 RMK AO2 SLP223 T02000056 $
","Alpena, Michigan, United States",2021-05-31 20:15:43 UTC
kapn_twr,http://d.liveatc.net/kapn_twr,KAPN Tower,US-Class-D,"KAPN 311954Z AUTO 12009KT 10SM OVC080 20/06 A3018 RMK AO2 SLP223 T02000056 $
","Alpena, Michigan, United States",2021-05-31 20:15:43 UTC
karb2_atis,http://d.liveatc.net/karb2_atis,KARB ATIS,US-Class-D,"KARB 311953Z 23005G15KT 10SM CLR 20/07 A3024 RMK AO2 SLP243 T02000072
","Ann Arbor, Michigan, United States",2021-05-31 20:15:43 UTC
karb2_gnd_twr,http://d.liveatc.net/karb2_gnd_twr,KARB Gnd/Twr,US-Class-D,"KARB 311953Z 23005G15KT 10SM CLR 20/07 A3024 RMK AO2 SLP243 T02000072
","Ann Arbor, Michigan, United States",2021-05-31 20:15:43 UTC
karb2_gnd,http://d.liveatc.net/karb2_gnd,KARB Ground,US-Class-D,"KARB 311953Z 23005G15KT 10SM CLR 20/07 A3024 RMK AO2 SLP243 T02000072
","Ann Arbor, Michigan, United States",2021-05-31 20:15:43 UTC
karb2_twr,http://d.liveatc.net/karb2_twr,KARB Tower,US-Class-D,"KARB 311953Z 23005G15KT 10SM CLR 20/07 A3024 RMK AO2 SLP243 T02000072
","Ann Arbor, Michigan, United States",2021-05-31 20:15:43 UTC
karr,http://d.liveatc.net/karr,KARR Tower,US-Class-D,"KARR 311952Z 21011KT 10SM CLR 20/08 A3023 RMK AO2 SLP237 T02000083
","Chicago/Aurora, Illinois, United States",2021-05-31 20:15:43 UTC
kase2_atis,http://d.liveatc.net/kase2_atis,KASE ATIS,US-Class-D,"KASE 311953Z VRB06G24KT 10SM FEW060 19/M02 A3020 RMK AO2 SLP132 T01891022
","Aspen, Colorado, United States",2021-05-31 20:15:43 UTC
kase2_s,http://d.liveatc.net/kase2_s,KASE Gnd/Twr/App/Center,US-Class-D,"KASE 311953Z VRB06G24KT 10SM FEW060 19/M02 A3020 RMK AO2 SLP132 T01891022
","Aspen, Colorado, United States",2021-05-31 20:15:43 UTC
kase2_gnd_twr,http://d.liveatc.net/kase2_gnd_twr,KASE Ground/Tower,US-Class-D,"KASE 311953Z VRB06G24KT 10SM FEW060 19/M02 A3020 RMK AO2 SLP132 T01891022
","Aspen, Colorado, United States",2021-05-31 20:15:43 UTC
kase2_twr2,http://d.liveatc.net/kase2_twr2,KASE Tower,US-Class-D,"KASE 311953Z VRB06G24KT 10SM FEW060 19/M02 A3020 RMK AO2 SLP132 T01891022
","Aspen, Colorado, United States",2021-05-31 20:15:43 UTC
kasg1_app,http://d.liveatc.net/kasg1_app,KASG App/Dep,US-Class-D,"KASG 311948Z 11006KT 10SM SCT050 19/14 A3022
","Springdale, Arkansas, United States",2021-05-31 20:15:43 UTC
kasg1_twr,http://d.liveatc.net/kasg1_twr,KASG Gnd/Twr,US-Class-D,"KASG 311948Z 11006KT 10SM SCT050 19/14 A3022
","Springdale, Arkansas, United States",2021-05-31 20:15:43 UTC
kasg1,http://d.liveatc.net/kasg1,KASG Gnd/Twr/App,US-Class-D,"KASG 311948Z 11006KT 10SM SCT050 19/14 A3022
","Springdale, Arkansas, United States",2021-05-31 20:15:43 UTC
kash_atis,http://d.liveatc.net/kash_atis,KASH ATIS #1,US-Class-D,"KASH 311956Z 32011KT 10SM OVC029 16/11 A3009 RMK AO2 SLP195 T01610111
","Nashua, New Hampshire, United States",2021-05-31 20:15:43 UTC
kash_murp_atis2,http://d.liveatc.net/kash_murp_atis2,KASH ATIS #2,US-Class-D,"KASH 311956Z 32011KT 10SM OVC029 16/11 A3009 RMK AO2 SLP195 T01610111
","Nashua, New Hampshire, United States",2021-05-31 20:15:43 UTC
kash4_gnd_twr,http://d.liveatc.net/kash4_gnd_twr,KASH Gnd/Twr/FBO #1,US-Class-D,"KASH 311956Z 32011KT 10SM OVC029 16/11 A3009 RMK AO2 SLP195 T01610111
","Nashua, New Hampshire, United States",2021-05-31 20:15:43 UTC
kash_gnd_twr,http://d.liveatc.net/kash_gnd_twr,KASH Gnd/Twr/FBO #2,US-Class-D,"KASH 311956Z 32011KT 10SM OVC029 16/11 A3009 RMK AO2 SLP195 T01610111
","Nashua, New Hampshire, United States",2021-05-31 20:15:43 UTC
kash4_gnd,http://d.liveatc.net/kash4_gnd,KASH Ground/FBO,US-Class-D,"KASH 311956Z 32011KT 10SM OVC029 16/11 A3009 RMK AO2 SLP195 T01610111
","Nashua, New Hampshire, United States",2021-05-31 20:15:43 UTC
kash4_twr,http://d.liveatc.net/kash4_twr,KASH Tower,US-Class-D,"KASH 311956Z 32011KT 10SM OVC029 16/11 A3009 RMK AO2 SLP195 T01610111
","Nashua, New Hampshire, United States",2021-05-31 20:15:43 UTC
kryy1_atlapp_121000,http://d.liveatc.net/kryy1_atlapp_121000,Atlanta Approach (NW Satellite),US-Class-D,"KRYY 311950Z 16004KT 10SM BKN049 24/13 A3028 RMK AO2 SLP971 T02440128 $
","Atlanta, Georgia, United States",2021-05-31 20:15:43 UTC
katw2,http://d.liveatc.net/katw2,KATW Tower,US-Class-D,"KATW 311945Z 25012G18KT 10SM FEW060 SCT120 22/06 A3016
","Appleton, Wisconsin, United States",2021-05-31 20:15:43 UTC
kaug,http://d.liveatc.net/kaug,KAUG CTAF/FSS,US-Class-D,"KAUG 311953Z AUTO 35007KT 1 1/2SM -RA BR BKN006 OVC011 12/12 A3006 RMK AO2 RAB29 SLP182 P0001 T01220122
","Augusta, Maine, United States",2021-05-31 20:15:43 UTC
kavo,http://d.liveatc.net/kavo,KAVO CTAF,US-Class-D,KAVO Airport Info,"Avon Park, Florida, United States",2021-05-31 20:15:43 UTC
kavp,http://d.liveatc.net/kavp,KAVP Gnd/Twr/App,US-Class-D,"KAVP 311954Z 29008G16KT 10SM CLR 22/05 A3020 RMK AO2 SLP224 T02170050
","Wilkes-Barre/Scranton, Pennsylvania, United States",2021-05-31 20:15:43 UTC
kavq,http://d.liveatc.net/kavq,KAVQ CTAF,US-Class-D,"KAVQ 311955Z AUTO 12006KT 070V150 10SM CLR 35/02 A2991 RMK AO2 T03480017
","Marana, Arizona, United States",2021-05-31 20:15:43 UTC
kawo3,http://d.liveatc.net/kawo3,KAWO CTAF/Clearance,US-Class-D,"KAWO 311956Z AUTO 30009KT 10SM CLR 22/13 A3019 RMK AO2 SLP227 T02220133
","Arlington, Washington, United States",2021-05-31 20:15:43 UTC
kbtl,http://d.liveatc.net/kbtl,KBTL/KAZO Gnd/Twr/App,US-Class-D,KBTL Airport Info,"Kalamazoo, Michigan, United States",2021-05-31 20:15:43 UTC
kbaf1_atis,http://d.liveatc.net/kbaf1_atis,KBAF ATIS,US-Class-D,"KBAF 311953Z 31013G20KT 10SM OVC035 16/09 A3016 RMK AO2 SLP214 T01560089
","Westfield/Springfield, Massachusetts, United States",2021-05-31 20:15:43 UTC
kbaf1_gnd,http://d.liveatc.net/kbaf1_gnd,KBAF Ground,US-Class-D,"KBAF 311953Z 31013G20KT 10SM OVC035 16/09 A3016 RMK AO2 SLP214 T01560089
","Westfield/Springfield, Massachusetts, United States",2021-05-31 20:15:43 UTC
kbaf1_gnd_twr,http://d.liveatc.net/kbaf1_gnd_twr,KBAF Ground/Tower,US-Class-D,"KBAF 311953Z 31013G20KT 10SM OVC035 16/09 A3016 RMK AO2 SLP214 T01560089
","Westfield/Springfield, Massachusetts, United States",2021-05-31 20:15:43 UTC
kbaf1_twr,http://d.liveatc.net/kbaf1_twr,KBAF Tower,US-Class-D,"KBAF 311953Z 31013G20KT 10SM OVC035 16/09 A3016 RMK AO2 SLP214 T01560089
","Westfield/Springfield, Massachusetts, United States",2021-05-31 20:15:43 UTC
kbaz2,http://d.liveatc.net/kbaz2,KBAZ Tower,US-Class-D,"KBAZ 311951Z AUTO 14012KT 10SM SCT043 29/21 A2998 RMK AO2 SLP145 T02890206
","New Braunfels, Texas, United States",2021-05-31 20:15:43 UTC
kbct1_atis,http://d.liveatc.net/kbct1_atis,KBCT ATIS,US-Class-D,"KBCT 311953Z 10014G24KT 10SM FEW030 29/22 A3011 RMK LTG DSNT SE-W
","Boca Raton, Florida, United States",2021-05-31 20:15:43 UTC
kbct1_guard,http://d.liveatc.net/kbct1_guard,KBCT Emergency/Guard,US-Class-D,"KBCT 311953Z 10014G24KT 10SM FEW030 29/22 A3011 RMK LTG DSNT SE-W
","Boca Raton, Florida, United States",2021-05-31 20:15:43 UTC
kbct1_gnd,http://d.liveatc.net/kbct1_gnd,KBCT Ground,US-Class-D,"KBCT 311953Z 10014G24KT 10SM FEW030 29/22 A3011 RMK LTG DSNT SE-W
","Boca Raton, Florida, United States",2021-05-31 20:15:43 UTC
kbct1_gnd_twr,http://d.liveatc.net/kbct1_gnd_twr,KBCT Ground/Tower,US-Class-D,"KBCT 311953Z 10014G24KT 10SM FEW030 29/22 A3011 RMK LTG DSNT SE-W
","Boca Raton, Florida, United States",2021-05-31 20:15:43 UTC
kbct1_twr,http://d.liveatc.net/kbct1_twr,KBCT Tower,US-Class-D,"KBCT 311953Z 10014G24KT 10SM FEW030 29/22 A3011 RMK LTG DSNT SE-W
","Boca Raton, Florida, United States",2021-05-31 20:15:43 UTC
kbdn2_ctaf,http://d.liveatc.net/kbdn2_ctaf,KBDN CTAF,US-Class-D,"KBDN 311955Z AUTO 01007KT 10SM CLR 28/M01 A3020 RMK AO2
","Bend, Oregon, United States",2021-05-31 20:15:43 UTC
kbdr_twr,http://d.liveatc.net/kbdr_twr,KBDR Del/Gnd/Twr,US-Class-D,"KBDR 311952Z 34012KT 10SM OVC038 17/09 A3017 RMK AO2 SLP216 T01720094
","Bridgeport, Connecticut, United States",2021-05-31 20:15:43 UTC
kbdr1,http://d.liveatc.net/kbdr1,KBDR Del/Gnd/Twr/App,US-Class-D,"KBDR 311952Z 34012KT 10SM OVC038 17/09 A3017 RMK AO2 SLP216 T01720094
","Bridgeport, Connecticut, United States",2021-05-31 20:15:43 UTC
kbdr_app,http://d.liveatc.net/kbdr_app,New York Approach (LOVES Sector),US-Class-D,"KBDR 311952Z 34012KT 10SM OVC038 17/09 A3017 RMK AO2 SLP216 T01720094
","Bridgeport, Connecticut, United States",2021-05-31 20:15:43 UTC
kden1_8,http://d.liveatc.net/kden1_8,KFTG/KEIK/KBDU/KLMO/Misc,US-Class-D,"KDEN 311953Z 04004KT 10SM SCT025 SCT033 BKN047 14/09 A3028 RMK AO2 SLP217 T01390089
","Boulder, Colorado, United States",2021-05-31 20:15:43 UTC
kaao2,http://d.liveatc.net/kaao2,KAAO CTAF/KBEC Twr,US-Class-D,"KAAO 311954Z AUTO 10003KT 10SM BKN007 BKN043 OVC070 16/14 A3018 RMK AO2 RAE46 SLP218 P0001 T01560139
","Wichita, Kansas, United States",2021-05-31 20:15:43 UTC
kbed1_app,http://d.liveatc.net/kbed1_app,Boston App/Dep (North Sat) #1,US-Class-D,"KBED 311951Z 29004KT 10SM OVC018 15/12 A3008 RMK AO2 SLP200 T01500117
","Bedford, Massachusetts, United States",2021-05-31 20:15:43 UTC
kbed4_app,http://d.liveatc.net/kbed4_app,Boston App/Dep (North Sat) #3,US-Class-D,"KBED 311951Z 29004KT 10SM OVC018 15/12 A3008 RMK AO2 SLP200 T01500117
","Bedford, Massachusetts, United States",2021-05-31 20:15:43 UTC
kbed1_atis,http://d.liveatc.net/kbed1_atis,KBED ATIS #1,US-Class-D,"KBED 311951Z 29004KT 10SM OVC018 15/12 A3008 RMK AO2 SLP200 T01500117
","Bedford, Massachusetts, United States",2021-05-31 20:15:43 UTC
kbed_murp_atis2,http://d.liveatc.net/kbed_murp_atis2,KBED ATIS #2,US-Class-D,"KBED 311951Z 29004KT 10SM OVC018 15/12 A3008 RMK AO2 SLP200 T01500117
","Bedford, Massachusetts, United States",2021-05-31 20:15:43 UTC
kbed1_del,http://d.liveatc.net/kbed1_del,KBED Clearance Delivery,US-Class-D,"KBED 311951Z 29004KT 10SM OVC018 15/12 A3008 RMK AO2 SLP200 T01500117
","Bedford, Massachusetts, United States",2021-05-31 20:15:43 UTC
kbed1_del_gnd,http://d.liveatc.net/kbed1_del_gnd,KBED Del/Gnd,US-Class-D,"KBED 311951Z 29004KT 10SM OVC018 15/12 A3008 RMK AO2 SLP200 T01500117
","Bedford, Massachusetts, United States",2021-05-31 20:15:43 UTC
kbed1_gnd_twr,http://d.liveatc.net/kbed1_gnd_twr,KBED Gnd/Twr,US-Class-D,"KBED 311951Z 29004KT 10SM OVC018 15/12 A3008 RMK AO2 SLP200 T01500117
","Bedford, Massachusetts, United States",2021-05-31 20:15:43 UTC
kbed1_gnd,http://d.liveatc.net/kbed1_gnd,KBED Ground,US-Class-D,"KBED 311951Z 29004KT 10SM OVC018 15/12 A3008 RMK AO2 SLP200 T01500117
","Bedford, Massachusetts, United States",2021-05-31 20:15:43 UTC
kbed1_twr,http://d.liveatc.net/kbed1_twr,KBED Tower,US-Class-D,"KBED 311951Z 29004KT 10SM OVC018 15/12 A3008 RMK AO2 SLP200 T01500117
","Bedford, Massachusetts, United States",2021-05-31 20:15:43 UTC
kbfi_atis,http://d.liveatc.net/kbfi_atis,KBFI ATIS,US-Class-D,"KBFI 311953Z 33007KT 300V010 10SM FEW090 SCT200 23/10 A3018 RMK AO2 SLP218 T02330100
","Seattle, Washington, United States",2021-05-31 20:15:43 UTC
kbfi_del,http://d.liveatc.net/kbfi_del,KBFI Clearance Delivery,US-Class-D,"KBFI 311953Z 33007KT 300V010 10SM FEW090 SCT200 23/10 A3018 RMK AO2 SLP218 T02330100
","Seattle, Washington, United States",2021-05-31 20:15:43 UTC
kbfi_gnd,http://d.liveatc.net/kbfi_gnd,KBFI Ground,US-Class-D,"KBFI 311953Z 33007KT 300V010 10SM FEW090 SCT200 23/10 A3018 RMK AO2 SLP218 T02330100
","Seattle, Washington, United States",2021-05-31 20:15:43 UTC
kbfi,http://d.liveatc.net/kbfi,KBFI Ground/Tower,US-Class-D,"KBFI 311953Z 33007KT 300V010 10SM FEW090 SCT200 23/10 A3018 RMK AO2 SLP218 T02330100
","Seattle, Washington, United States",2021-05-31 20:15:43 UTC
kbfi_guard,http://d.liveatc.net/kbfi_guard,KBFI Guard,US-Class-D,"KBFI 311953Z 33007KT 300V010 10SM FEW090 SCT200 23/10 A3018 RMK AO2 SLP218 T02330100
","Seattle, Washington, United States",2021-05-31 20:15:43 UTC
kbfi_twr_ifr,http://d.liveatc.net/kbfi_twr_ifr,KBFI Tower (IFR),US-Class-D,"KBFI 311953Z 33007KT 300V010 10SM FEW090 SCT200 23/10 A3018 RMK AO2 SLP218 T02330100
","Seattle, Washington, United States",2021-05-31 20:15:43 UTC
kbfi_twr_vfr,http://d.liveatc.net/kbfi_twr_vfr,KBFI Tower (VFR),US-Class-D,"KBFI 311953Z 33007KT 300V010 10SM FEW090 SCT200 23/10 A3018 RMK AO2 SLP218 T02330100
","Seattle, Washington, United States",2021-05-31 20:15:43 UTC
kbfi_4sdr_twr,http://d.liveatc.net/kbfi_4sdr_twr,KBFI Tower (VFR/IFR),US-Class-D,"KBFI 311953Z 33007KT 300V010 10SM FEW090 SCT200 23/10 A3018 RMK AO2 SLP218 T02330100
","Seattle, Washington, United States",2021-05-31 20:15:43 UTC
kbfm,http://d.liveatc.net/kbfm,KBFM Ground/Tower,US-Class-D,"KBFM 311953Z 19006KT 10SM FEW050 29/14 A3018 RMK AO2 SLP219 T02940144
","Mobile, Alabama, United States",2021-05-31 20:15:43 UTC
kbfm2,http://d.liveatc.net/kbfm2,KBFM Tower,US-Class-D,"KBFM 311953Z 19006KT 10SM FEW050 29/14 A3018 RMK AO2 SLP219 T02940144
","Mobile, Alabama, United States",2021-05-31 20:15:43 UTC
kbgm2,http://d.liveatc.net/kbgm2,KBGM Del/Gnd/Twr/App,US-Class-D,"KBGM 311953Z 32011G17KT 10SM CLR 18/03 A3021 RMK AO2 SLP232 T01830033
","Binghamton, New York, United States",2021-05-31 20:15:43 UTC
kbis,http://d.liveatc.net/kbis,KBIS Twr/App,US-Class-D,"KBIS 311952Z 00000KT 10SM CLR 24/01 A3018 RMK AO2 SLP219 T02390006 $
","Bismarck, North Dakota, United States",2021-05-31 20:15:43 UTC
kbjc2,http://d.liveatc.net/kbjc2,KBJC Ground/Tower,US-Class-D,"KBJC 311947Z 00000KT 10SM SCT005 BKN011 13/09 A3031
","Denver, Colorado, United States",2021-05-31 20:15:43 UTC
kbji,http://d.liveatc.net/kbji,KBJI CTAF/ZMP,US-Class-D,"KBJI 311955Z AUTO 05003KT 10SM SCT060 19/04 A3014 RMK AO2 T01930043
","Bemidji, Minnesota, United States",2021-05-31 20:15:43 UTC
kbkf1_twr,http://d.liveatc.net/kbkf1_twr,KBKF Tower (UHF),US-Class-D,"KBKF 311858Z 00000KT 10SM SCT015 BKN190 12/10 A3030 RMK AO2A SLP229 T01240096
","Aurora, Colorado, United States",2021-05-31 20:15:43 UTC
kbkf1_twr_vhf,http://d.liveatc.net/kbkf1_twr_vhf,KBKF Tower (VHF),US-Class-D,"KBKF 311858Z 00000KT 10SM SCT015 BKN190 12/10 A3030 RMK AO2A SLP229 T01240096
","Aurora, Colorado, United States",2021-05-31 20:15:43 UTC
kbkf1_twr_both,http://d.liveatc.net/kbkf1_twr_both,KBKF Tower (VHF/UHF),US-Class-D,"KBKF 311858Z 00000KT 10SM SCT015 BKN190 12/10 A3030 RMK AO2A SLP229 T01240096
","Aurora, Colorado, United States",2021-05-31 20:15:43 UTC
kbli2,http://d.liveatc.net/kbli2,KBLI Tower,US-Class-D,"KBLI 311953Z 00000KT 10SM CLR 22/13 A3020 RMK AO2 SLP233 T02170128
","Bellingham, Washington, United States",2021-05-31 20:15:43 UTC
kblm2,http://d.liveatc.net/kblm2,KBLM/N12/3N6/KMJX,US-Class-D,"KBLM 311956Z AUTO 30009KT 10SM BKN045 20/09 A3021 RMK AO2 SLP230 T02000094 PNO $
","Belmar/Farmingdale, New Jersey, United States",2021-05-31 20:15:43 UTC
kbmg_app,http://d.liveatc.net/kbmg_app,KBMG Approach/Departure,US-Class-D,"KBMG 311953Z VRB04KT 10SM CLR 23/08 A3024 RMK AO2 SLP237 T02280083
","Bloomington, Indiana, United States",2021-05-31 20:15:43 UTC
kbmg_twr,http://d.liveatc.net/kbmg_twr,KBMG Tower,US-Class-D,"KBMG 311953Z VRB04KT 10SM CLR 23/08 A3024 RMK AO2 SLP237 T02280083
","Bloomington, Indiana, United States",2021-05-31 20:15:43 UTC
kbmg,http://d.liveatc.net/kbmg,KBMG Twr/App,US-Class-D,"KBMG 311953Z VRB04KT 10SM CLR 23/08 A3024 RMK AO2 SLP237 T02280083
","Bloomington, Indiana, United States",2021-05-31 20:15:43 UTC
kbmi,http://d.liveatc.net/kbmi,KBMI Gnd/Twr/App/Dep,US-Class-D,"KBMI 311956Z 24007KT 10SM OVC100 20/07 A3026 RMK AO2 SLP242 T02000072
","Bloomington/Normal, Illinois, United States",2021-05-31 20:15:43 UTC
kbok,http://d.liveatc.net/kbok,KBOK CTAF,US-Class-D,"KBOK 311956Z AUTO 18003KT 8SM CLR 21/12 A2999 RMK AO2 SLP156 T02060122
","Brookings, Oregon, United States",2021-05-31 20:15:43 UTC
kbow1_awos,http://d.liveatc.net/kbow1_awos,KBOW AWOS,US-Class-D,"KBOW 311950Z 07014KT 10SM SCT045 31/18 A3013
","Bartow, Florida, United States",2021-05-31 20:15:43 UTC
kbow1_s,http://d.liveatc.net/kbow1_s,KBOW Gnd/Twr/Misc,US-Class-D,"KBOW 311950Z 07014KT 10SM SCT045 31/18 A3013
","Bartow, Florida, United States",2021-05-31 20:15:43 UTC
kbow1_gnd,http://d.liveatc.net/kbow1_gnd,KBOW Gnd/UNICOM/Guard,US-Class-D,"KBOW 311950Z 07014KT 10SM SCT045 31/18 A3013
","Bartow, Florida, United States",2021-05-31 20:15:43 UTC
kbow1_twr,http://d.liveatc.net/kbow1_twr,KBOW Tower/CTAF,US-Class-D,"KBOW 311950Z 07014KT 10SM SCT045 31/18 A3013
","Bartow, Florida, United States",2021-05-31 20:15:43 UTC
kbtl,http://d.liveatc.net/kbtl,KBTL/KAZO Gnd/Twr/App,US-Class-D,KBTL Airport Info,"Battle Creek, Michigan, United States",2021-05-31 20:15:43 UTC
kwhp1_app,http://d.liveatc.net/kwhp1_app,KWHP/KVNY/KBUR App/Dep,US-Class-D,"KWHP 311950Z 09005KT 10SM SKC 23/13 A2998
","Burbank, California, United States",2021-05-31 20:15:43 UTC
k3ck,http://d.liveatc.net/k3ck,3CK/KBUU CTAF,US-Class-D,K3CK Airport Info,"Burlington, Wisconsin, United States",2021-05-31 20:15:43 UTC
kbvi_atis,http://d.liveatc.net/kbvi_atis,KBVI ATIS,US-Class-D,"KBVI 311955Z AUTO 00000KT 10SM CLR 21/08 A3028 RMK AO2 T02110075
","Beaver Falls, Pennsylvania, United States",2021-05-31 20:15:43 UTC
kbvi_gnd,http://d.liveatc.net/kbvi_gnd,KBVI Ground,US-Class-D,"KBVI 311955Z AUTO 00000KT 10SM CLR 21/08 A3028 RMK AO2 T02110075
","Beaver Falls, Pennsylvania, United States",2021-05-31 20:15:43 UTC
kbvi,http://d.liveatc.net/kbvi,KBVI Ground/Tower,US-Class-D,"KBVI 311955Z AUTO 00000KT 10SM CLR 21/08 A3028 RMK AO2 T02110075
","Beaver Falls, Pennsylvania, United States",2021-05-31 20:15:43 UTC
kbvi_twr,http://d.liveatc.net/kbvi_twr,KBVI Tower,US-Class-D,"KBVI 311955Z AUTO 00000KT 10SM CLR 21/08 A3028 RMK AO2 T02110075
","Beaver Falls, Pennsylvania, United States",2021-05-31 20:15:43 UTC
kbvi_twr,http://d.liveatc.net/kbvi_twr,KBVI Tower,US-Class-D,"KBVI 311955Z AUTO 00000KT 10SM CLR 21/08 A3028 RMK AO2 T02110075
","Beaver Falls, Pennsylvania, United States",2021-05-31 20:15:43 UTC
kbvy_atis,http://d.liveatc.net/kbvy_atis,KBVY ATIS,US-Class-D,"KBVY 311953Z 31005KT 10SM BKN018 OVC055 A3008 RMK AO2 SLPNO $
","Beverly, Massachusetts, United States",2021-05-31 20:15:43 UTC
kbvy_gnd,http://d.liveatc.net/kbvy_gnd,KBVY Ground,US-Class-D,"KBVY 311953Z 31005KT 10SM BKN018 OVC055 A3008 RMK AO2 SLPNO $
","Beverly, Massachusetts, United States",2021-05-31 20:15:43 UTC
kbvy,http://d.liveatc.net/kbvy,KBVY Tower #1,US-Class-D,"KBVY 311953Z 31005KT 10SM BKN018 OVC055 A3008 RMK AO2 SLPNO $
","Beverly, Massachusetts, United States",2021-05-31 20:15:43 UTC
kbvy_twr2,http://d.liveatc.net/kbvy_twr2,KBVY Tower #2,US-Class-D,"KBVY 311953Z 31005KT 10SM BKN018 OVC055 A3008 RMK AO2 SLPNO $
","Beverly, Massachusetts, United States",2021-05-31 20:15:43 UTC
kbxm2,http://d.liveatc.net/kbxm2,KBXM CTAF/AWOS,US-Class-D,KBXM Airport Info,"Brunswick, Maine, United States",2021-05-31 20:15:43 UTC
kbzn1_app,http://d.liveatc.net/kbzn1_app,KBZN App/Dep,US-Class-D,"KBZN 311956Z 14003KT 10SM CLR 22/M01 A3017 RMK AO2 SLP192 T02221006
","Bozeman, Montana, United States",2021-05-31 20:15:43 UTC
kbzn1_gnd,http://d.liveatc.net/kbzn1_gnd,KBZN Ground,US-Class-D,"KBZN 311956Z 14003KT 10SM CLR 22/M01 A3017 RMK AO2 SLP192 T02221006
","Bozeman, Montana, United States",2021-05-31 20:15:43 UTC
kbzn1_twr2,http://d.liveatc.net/kbzn1_twr2,KBZN Tower #2,US-Class-D,"KBZN 311956Z 14003KT 10SM CLR 22/M01 A3017 RMK AO2 SLP192 T02221006
","Bozeman, Montana, United States",2021-05-31 20:15:43 UTC
kccb,http://d.liveatc.net/kccb,KCCB CTAF,US-Class-D,"KCCB 311955Z AUTO 27007KT 10SM CLR 24/13 A2995 RMK AO2
","Upland, California, United States",2021-05-31 20:15:43 UTC
kcco1_app,http://d.liveatc.net/kcco1_app,KATL Approach (South Sat),US-Class-D,"KCCO 311935Z AUTO 16008KT 10SM SCT050 27/10 A3026 RMK AO2 T02670099
","Atlanta, Georgia, United States",2021-05-31 20:15:43 UTC
kcco1_a2a,http://d.liveatc.net/kcco1_a2a,KCCO Area Air-to-Air,US-Class-D,"KCCO 311935Z AUTO 16008KT 10SM SCT050 27/10 A3026 RMK AO2 T02670099
","Atlanta, Georgia, United States",2021-05-31 20:15:43 UTC
kcco1_awos,http://d.liveatc.net/kcco1_awos,KCCO AWOS,US-Class-D,"KCCO 311935Z AUTO 16008KT 10SM SCT050 27/10 A3026 RMK AO2 T02670099
","Atlanta, Georgia, United States",2021-05-31 20:15:43 UTC
kcco1,http://d.liveatc.net/kcco1,KCCO CTAF,US-Class-D,"KCCO 311935Z AUTO 16008KT 10SM SCT050 27/10 A3026 RMK AO2 T02670099
","Atlanta, Georgia, United States",2021-05-31 20:15:43 UTC
kcco1_guard,http://d.liveatc.net/kcco1_guard,KCCO Emergency/Guard,US-Class-D,"KCCO 311935Z AUTO 16008KT 10SM SCT050 27/10 A3026 RMK AO2 T02670099
","Atlanta, Georgia, United States",2021-05-31 20:15:43 UTC
kccr2,http://d.liveatc.net/kccr2,KCCR Gnd/Twr,US-Class-D,"KCCR 311953Z 31008KT 10SM CLR 32/12 A2988 RMK AO2 SLP104 T03220117
","Concord, California, United States",2021-05-31 20:15:43 UTC
kcdc1_asos,http://d.liveatc.net/kcdc1_asos,KCDC ASOS,US-Class-D,"KCDC 311953Z AUTO VRB03G14KT 10SM CLR 26/M11 A3015 RMK AO2 SLP146 T02561106
","Cedar City, Utah, United States",2021-05-31 20:15:43 UTC
kcdc1_ctaf,http://d.liveatc.net/kcdc1_ctaf,KCDC CTAF #1,US-Class-D,"KCDC 311953Z AUTO VRB03G14KT 10SM CLR 26/M11 A3015 RMK AO2 SLP146 T02561106
","Cedar City, Utah, United States",2021-05-31 20:15:43 UTC
kcdc,http://d.liveatc.net/kcdc,KCDC CTAF #2,US-Class-D,"KCDC 311953Z AUTO VRB03G14KT 10SM CLR 26/M11 A3015 RMK AO2 SLP146 T02561106
","Cedar City, Utah, United States",2021-05-31 20:15:43 UTC
kcdc1_guard,http://d.liveatc.net/kcdc1_guard,KCDC Guard,US-Class-D,"KCDC 311953Z AUTO VRB03G14KT 10SM CLR 26/M11 A3015 RMK AO2 SLP146 T02561106
","Cedar City, Utah, United States",2021-05-31 20:15:43 UTC
kcdc1_co,http://d.liveatc.net/kcdc1_co,KCDC T-Bird Dispatch,US-Class-D,"KCDC 311953Z AUTO VRB03G14KT 10SM CLR 26/M11 A3015 RMK AO2 SLP146 T02561106
","Cedar City, Utah, United States",2021-05-31 20:15:43 UTC
kcdw,http://d.liveatc.net/kcdw,KCDW Del/Gnd/Twr,US-Class-D,"KCDW 311953Z 32009KT 10SM SCT055 22/07 A3017 RMK AO2 SLP223 T02170072
","Caldwell, New Jersey, United States",2021-05-31 20:15:43 UTC
kcez,http://d.liveatc.net/kcez,KCEZ CTAF/ZDV,US-Class-D,"KCEZ 311953Z AUTO 08018G24KT 10SM SCT110 21/02 A3013 RMK AO2 WSHFT 1913 TSB1859E19 SLP146 T02110022
","Cortez, Colorado, United States",2021-05-31 20:15:43 UTC
kcfd,http://d.liveatc.net/kcfd,KCFD CTAF/App,US-Class-D,"KCFD 311955Z AUTO 15010KT 10SM SCT042 OVC050 29/20 A3006 RMK AO2 T02880204
","Bryan, Texas, United States",2021-05-31 20:15:43 UTC
kcfj2_ctaf,http://d.liveatc.net/kcfj2_ctaf,KCFJ CTAF,US-Class-D,"KCFJ 311955Z AUTO 00000KT 10SM SCT120 19/07 A3027 RMK AO2 T01860068
","Crawfordsville, Indiana, United States",2021-05-31 20:15:43 UTC
kcfj2_guard,http://d.liveatc.net/kcfj2_guard,KCFJ Emergency/Guard,US-Class-D,"KCFJ 311955Z AUTO 00000KT 10SM SCT120 19/07 A3027 RMK AO2 T01860068
","Crawfordsville, Indiana, United States",2021-05-31 20:15:43 UTC
kden1_8,http://d.liveatc.net/kden1_8,KCFO/KEIK/KBDU/KLMO/Misc,US-Class-D,"KDEN 311953Z 04004KT 10SM SCT025 SCT033 BKN047 14/09 A3028 RMK AO2 SLP217 T01390089
","Denver, Colorado, United States",2021-05-31 20:15:43 UTC
kcgz1_awos,http://d.liveatc.net/kcgz1_awos,KCGZ AWOS,US-Class-D,"KCGZ 311956Z AUTO 12006KT 10SM CLR 35/04 A2990 RMK AO2 SLP110 T03500044
","Casa Grande, Arizona, United States",2021-05-31 20:15:43 UTC
kcgz1_ctaf,http://d.liveatc.net/kcgz1_ctaf,KCGZ CTAF,US-Class-D,"KCGZ 311956Z AUTO 12006KT 10SM CLR 35/04 A2990 RMK AO2 SLP110 T03500044
","Casa Grande, Arizona, United States",2021-05-31 20:15:43 UTC
kcgz1_se_pract,http://d.liveatc.net/kcgz1_se_pract,KCGZ SE/SW Practice Area,US-Class-D,"KCGZ 311956Z AUTO 12006KT 10SM CLR 35/04 A2990 RMK AO2 SLP110 T03500044
","Casa Grande, Arizona, United States",2021-05-31 20:15:43 UTC
kchd_twr1,http://d.liveatc.net/kchd_twr1,KCHD Tower (North),US-Class-D,"KCHD 311947Z 00000KT 10SM SKC 35/00 A2989
","Chandler, Arizona, United States",2021-05-31 20:15:43 UTC
kchd_twr2,http://d.liveatc.net/kchd_twr2,KCHD Tower (South),US-Class-D,"KCHD 311947Z 00000KT 10SM SKC 35/00 A2989
","Chandler, Arizona, United States",2021-05-31 20:15:43 UTC
kchk1,http://d.liveatc.net/kchk1,KCHK CTAF,US-Class-D,"KCHK 311935Z AUTO 00000KT 10SM SCT008 OVC015 19/18 A3002 RMK AO2 LTG DSNT W T01860178
","Chickasha, Oklahoma, United States",2021-05-31 20:15:43 UTC
kcho3_ctf,http://d.liveatc.net/kcho3_ctf,KCHO Tower,US-Class-D,"KCHO 311953Z VRB04KT 10SM SCT050 24/10 A3027 RMK AO2 SLP245 T02390100 $
","Charlottesville, Virginia, United States",2021-05-31 20:15:43 UTC
kcho3_twr_app,http://d.liveatc.net/kcho3_twr_app,KCHO Tower/App,US-Class-D,"KCHO 311953Z VRB04KT 10SM SCT050 24/10 A3027 RMK AO2 SLP245 T02390100 $
","Charlottesville, Virginia, United States",2021-05-31 20:15:43 UTC
kcic1,http://d.liveatc.net/kcic1,KCIC Tower/ZOA42,US-Class-D,"KCIC 311950Z VRB06KT 40SM SCT250 35/10 A2987
","Chico, California, United States",2021-05-31 20:15:43 UTC
kcid,http://d.liveatc.net/kcid,KCID Gnd/Twr/App/KIOW,US-Class-D,"KCID 311952Z VRB05KT 10SM FEW047 20/09 A3020 RMK AO2 SLP226 T02000094
","Cedar Rapids, Iowa, United States",2021-05-31 20:15:43 UTC
kckb_app,http://d.liveatc.net/kckb_app,KCKB App/Dep,US-Class-D,"KCKB 311953Z VRB03KT 10SM CLR 19/07 A3028 RMK AO2 SLP247 T01890072
","Clarksburg, West Virginia, United States",2021-05-31 20:15:43 UTC
kckb_app_east,http://d.liveatc.net/kckb_app_east,KCKB App/Dep (East),US-Class-D,"KCKB 311953Z VRB03KT 10SM CLR 19/07 A3028 RMK AO2 SLP247 T01890072
","Clarksburg, West Virginia, United States",2021-05-31 20:15:43 UTC
kckb_app_west,http://d.liveatc.net/kckb_app_west,KCKB App/Dep (West),US-Class-D,"KCKB 311953Z VRB03KT 10SM CLR 19/07 A3028 RMK AO2 SLP247 T01890072
","Clarksburg, West Virginia, United States",2021-05-31 20:15:43 UTC
kckb_guard,http://d.liveatc.net/kckb_guard,KCKB Emergency/Guard,US-Class-D,"KCKB 311953Z VRB03KT 10SM CLR 19/07 A3028 RMK AO2 SLP247 T01890072
","Clarksburg, West Virginia, United States",2021-05-31 20:15:43 UTC
kckb_gnd,http://d.liveatc.net/kckb_gnd,KCKB Ground,US-Class-D,"KCKB 311953Z VRB03KT 10SM CLR 19/07 A3028 RMK AO2 SLP247 T01890072
","Clarksburg, West Virginia, United States",2021-05-31 20:15:43 UTC
kckb_gnd_twr,http://d.liveatc.net/kckb_gnd_twr,KCKB Ground/Tower,US-Class-D,"KCKB 311953Z VRB03KT 10SM CLR 19/07 A3028 RMK AO2 SLP247 T01890072
","Clarksburg, West Virginia, United States",2021-05-31 20:15:43 UTC
kckb_twr,http://d.liveatc.net/kckb_twr,KCKB Tower,US-Class-D,"KCKB 311953Z VRB03KT 10SM CLR 19/07 A3028 RMK AO2 SLP247 T01890072
","Clarksburg, West Virginia, United States",2021-05-31 20:15:43 UTC
kclm,http://d.liveatc.net/kclm,KCLM Del/CTAF/App,US-Class-D,"KCLM 311953Z AUTO 01005KT 10SM CLR 21/08 A3022 RMK AO2 SLP232 T02060083
","Port Angeles, Washington, United States",2021-05-31 20:15:43 UTC
kcma_atis,http://d.liveatc.net/kcma_atis,KCMA ATIS,US-Class-D,"KCMA 311955Z 23011KT 10SM BKN016 21/13 A2996 RMK AO2 SLP153 T02110133
","Camarillo, California, United States",2021-05-31 20:15:43 UTC
kcma,http://d.liveatc.net/kcma,KCMA Gnd/Twr/App,US-Class-D,"KCMA 311955Z 23011KT 10SM BKN016 21/13 A2996 RMK AO2 SLP153 T02110133
","Camarillo, California, United States",2021-05-31 20:15:43 UTC
kwdr4_ctaf,http://d.liveatc.net/kwdr4_ctaf,KWDR/KCVC/KCNI CTAF,US-Class-D,"KWDR 311955Z AUTO 11004KT 10SM BKN045 OVC055 23/11 A3030 RMK AO2
","Canton, Georgia, United States",2021-05-31 20:15:43 UTC
kcno_gnd,http://d.liveatc.net/kcno_gnd,KCNO Ground,US-Class-D,"KCNO 311953Z 23007KT 10SM SCT080 28/13 A2993 RMK AO2 SLP132 T02830133 $
","Chino, California, United States",2021-05-31 20:15:43 UTC
kcno,http://d.liveatc.net/kcno,KCNO Ground/Tower,US-Class-D,"KCNO 311953Z 23007KT 10SM SCT080 28/13 A2993 RMK AO2 SLP132 T02830133 $
","Chino, California, United States",2021-05-31 20:15:43 UTC
kcno_twr,http://d.liveatc.net/kcno_twr,KCNO Tower,US-Class-D,"KCNO 311953Z 23007KT 10SM SCT080 28/13 A2993 RMK AO2 SLP132 T02830133 $
","Chino, California, United States",2021-05-31 20:15:43 UTC
kcoe2_ctaf,http://d.liveatc.net/kcoe2_ctaf,KCOE CTAF,US-Class-D,"KCOE 311956Z AUTO 00000KT 10SM CLR 26/06 A3016 RMK AO2 SLP217 T02560056 PNO $
","Coeur d'Alene, Idaho, United States",2021-05-31 20:15:43 UTC
kcoe2_fss,http://d.liveatc.net/kcoe2_fss,KCOE FSS,US-Class-D,"KCOE 311956Z AUTO 00000KT 10SM CLR 26/06 A3016 RMK AO2 SLP217 T02560056 PNO $
","Coeur d'Alene, Idaho, United States",2021-05-31 20:15:43 UTC
kmht_murp_122700,http://d.liveatc.net/kmht_murp_122700,KCON/KDAW/KFIT CTAF,US-Class-D,"KMHT 311953Z 32012G17KT 10SM OVC025 16/09 A3007 RMK AO2 SLP196 T01610089
","Concord, New Hampshire, United States",2021-05-31 20:15:43 UTC
kbos_area_ctaf,http://d.liveatc.net/kbos_area_ctaf,MA/NH/RI/CT Area CTAF,US-Class-D,"KBOS 311954Z 27006KT 10SM FEW015 OVC020 16/11 A3009 RMK AO2 SLP190 T01610106
","Concord, New Hampshire, United States",2021-05-31 20:15:43 UTC
kbos_area_ctaf,http://d.liveatc.net/kbos_area_ctaf,MA/NH/RI/CT Area CTAF,US-Class-D,"KBOS 311954Z 27006KT 10SM FEW015 OVC020 16/11 A3009 RMK AO2 SLP190 T01610106
","Concord, New Hampshire, United States",2021-05-31 20:15:43 UTC
kbos_area_ctaf,http://d.liveatc.net/kbos_area_ctaf,MA/NH/RI/CT Area CTAF,US-Class-D,"KBOS 311954Z 27006KT 10SM FEW015 OVC020 16/11 A3009 RMK AO2 SLP190 T01610106
","Concord, New Hampshire, United States",2021-05-31 20:15:43 UTC
kcou,http://d.liveatc.net/kcou,KCOU CTAF/Gnd/App,US-Class-D,"KCOU 311954Z 23005KT 10SM OVC100 22/11 A3023 RMK AO2 SLP233 T02170106
","Columbia, Missouri, United States",2021-05-31 20:15:43 UTC
kcpm2,http://d.liveatc.net/kcpm2,KCPM CTAF,US-Class-D,KCPM Airport Info,"Compton, California, United States",2021-05-31 20:15:43 UTC
kcpr,http://d.liveatc.net/kcpr,KCPR Tower/App,US-Class-D,"KCPR 311953Z VRB03KT 10SM CLR 22/M04 A3020 RMK AO2 SLP188 T02171039
","Casper, Wyoming, United States",2021-05-31 20:15:43 UTC
kcps2,http://d.liveatc.net/kcps2,KCPS Del/Gnd/Twr/App,US-Class-D,"KCPS 311953Z 19006KT 10SM CLR 24/08 A3021 RMK AO2 SLP228 T02440083
","Cahokia/St Louis, Illinois, United States",2021-05-31 20:15:43 UTC
kcqf,http://d.liveatc.net/kcqf,KCQF CTAF/Misc,US-Class-D,"KCQF 311955Z AUTO 16007KT 10SM CLR 28/15 A3017 RMK AO2
","Fairhope, Alabama, United States",2021-05-31 20:15:43 UTC
khya2_122800,http://d.liveatc.net/khya2_122800,5B6/KCQX/KPVC CTAF,US-Class-D,"KHYA 311956Z 35005KT 5SM BR OVC007 13/11 A3008 RMK AO2 SLP188 T01330111
","Chatham, Massachusetts, United States",2021-05-31 20:15:43 UTC
kcre2_atis,http://d.liveatc.net/kcre2_atis,KCRE ATIS,US-Class-D,"KCRE 311953Z 16008KT 110V190 10SM CLR 22/13 A3028 RMK AO1 SLP255 T02220128
","North Myrtle Beach, South Carolina, United States",2021-05-31 20:15:43 UTC
kcre2,http://d.liveatc.net/kcre2,KCRE Ground/Tower,US-Class-D,"KCRE 311953Z 16008KT 110V190 10SM CLR 22/13 A3028 RMK AO1 SLP255 T02220128
","North Myrtle Beach, South Carolina, United States",2021-05-31 20:15:43 UTC
kcrg,http://d.liveatc.net/kcrg,KCRG Gnd/Twr/App,US-Class-D,"KCRG 311953Z 08013G20KT 10SM SCT026 BKN048 26/18 A3022 RMK AO2 SLP234 T02610183
","Jacksonville, Florida, United States",2021-05-31 20:15:43 UTC
kcrq1,http://d.liveatc.net/kcrq1,KCRQ Tower,US-Class-D,"KCRQ 311953Z 26008KT 230V290 10SM FEW018 18/13 A2995 RMK AO2 SLP138 T01830128
","Carlsbad, California, United States",2021-05-31 20:15:43 UTC
kcco1_122975,http://d.liveatc.net/kcco1_122975,KCTJ/KLGC CTAF,US-Class-D,"KCCO 311935Z AUTO 16008KT 10SM SCT050 27/10 A3026 RMK AO2 T02670099
","Carrollton, Georgia, United States",2021-05-31 20:15:43 UTC
51fl,http://d.liveatc.net/51fl,51FL/KCDK/KCTY/X60 CTAF,US-Class-D,,"Cross City, Florida, United States",2021-05-31 20:15:43 UTC
kcub2,http://d.liveatc.net/kcub2,KCUB CTAF,US-Class-D,"KCUB 311953Z AUTO VRB03KT 10SM CLR 25/10 A3029 RMK AO2 SLP253 T02500100
","Columbia, South Carolina, United States",2021-05-31 20:15:43 UTC
kwdr4_ctaf,http://d.liveatc.net/kwdr4_ctaf,KWDR/KCVC/KCNI CTAF,US-Class-D,"KWDR 311955Z AUTO 11004KT 10SM BKN045 OVC055 23/11 A3030 RMK AO2
","Atlanta, Georgia, United States",2021-05-31 20:15:43 UTC
kcvo,http://d.liveatc.net/kcvo,KCVO CTAF/Misc,US-Class-D,"KCVO 311956Z AUTO 03007KT 350V060 10SM CLR A3012 RMK AO2 SLPNO FZRANO $
","Corvallis, Oregon, United States",2021-05-31 20:15:43 UTC
kcxp1,http://d.liveatc.net/kcxp1,KCXP CTAF,US-Class-D,"KCXP 311955Z AUTO VRB04G12KT 10SM CLR 30/M08 A3018 RMK AO2
","Carson City, Nevada, United States",2021-05-31 20:15:43 UTC
kcys,http://d.liveatc.net/kcys,KCYS Gnd/Twr/App/Center,US-Class-D,"KCYS 311953Z VRB04KT 10SM BKN045 14/05 A3030 RMK AO2 SLP214 T01440050 $
","Cheyenne, Wyoming, United States",2021-05-31 20:15:43 UTC
kdaa2_twr,http://d.liveatc.net/kdaa2_twr,KDAA/KADW Tower,US-Class-D,"KDAA 311956Z AUTO 02004KT 10SM CLR 24/08 A3025 RMK AO2 SLP246 T02360084 $
","Fort Belvoir, Virginia, United States",2021-05-31 20:15:43 UTC
kmht_murp_122700,http://d.liveatc.net/kmht_murp_122700,KCON/KDAW/KFIT CTAF,US-Class-D,"KMHT 311953Z 32012G17KT 10SM OVC025 16/09 A3007 RMK AO2 SLP196 T01610089
","Rochester, New Hampshire, United States",2021-05-31 20:15:43 UTC
kdbq1_atis,http://d.liveatc.net/kdbq1_atis,KDBQ ATIS,US-Class-D,"KDBQ 311953Z AUTO 23011KT 10SM SCT050 21/09 A3020 RMK AO2 SLP226 T02110094
","Dubuque, Iowa, United States",2021-05-31 20:15:43 UTC
kdbq1_gnd,http://d.liveatc.net/kdbq1_gnd,KDBQ Ground,US-Class-D,"KDBQ 311953Z AUTO 23011KT 10SM SCT050 21/09 A3020 RMK AO2 SLP226 T02110094
","Dubuque, Iowa, United States",2021-05-31 20:15:43 UTC
kdbq1_gnd_twr,http://d.liveatc.net/kdbq1_gnd_twr,KDBQ Ground/Tower,US-Class-D,"KDBQ 311953Z AUTO 23011KT 10SM SCT050 21/09 A3020 RMK AO2 SLP226 T02110094
","Dubuque, Iowa, United States",2021-05-31 20:15:43 UTC
kdbq1_guard,http://d.liveatc.net/kdbq1_guard,KDBQ Guard,US-Class-D,"KDBQ 311953Z AUTO 23011KT 10SM SCT050 21/09 A3020 RMK AO2 SLP226 T02110094
","Dubuque, Iowa, United States",2021-05-31 20:15:43 UTC
kdbq1_twr,http://d.liveatc.net/kdbq1_twr,KDBQ Tower,US-Class-D,"KDBQ 311953Z AUTO 23011KT 10SM SCT050 21/09 A3020 RMK AO2 SLP226 T02110094
","Dubuque, Iowa, United States",2021-05-31 20:15:43 UTC
kded2,http://d.liveatc.net/kded2,KDED CTAF/Misc,US-Class-D,"KDED 311935Z AUTO 09012G16KT 10SM BKN042 BKN060 29/20 A3018 RMK AO2 TSNO T02920197
","DeLand, Florida, United States",2021-05-31 20:15:43 UTC
kded,http://d.liveatc.net/kded,KDED/1J6 CTAF/UNICOM,US-Class-D,"KDED 311935Z AUTO 09012G16KT 10SM BKN042 BKN060 29/20 A3018 RMK AO2 TSNO T02920197
","DeLand, Florida, United States",2021-05-31 20:15:43 UTC
kdlh1,http://d.liveatc.net/kdlh1,KDLH Gnd/Twr/App,US-Class-D,"KDLH 311955Z 07003KT 10SM FEW055 SCT075 19/09 A3011 RMK AO2 SLP202 T01890094
","Duluth, Minnesota, United States",2021-05-31 20:15:43 UTC
kdov_app,http://d.liveatc.net/kdov_app,KDOV App/Dep,US-Class-D,"KDOV 311956Z 28013G21KT 10SM SCT049 22/10 A3021 RMK AO2A SLP234 T02150097 $
","Dover, Delaware, United States",2021-05-31 20:15:43 UTC
kdov2_atis,http://d.liveatc.net/kdov2_atis,KDOV ATIS,US-Class-D,"KDOV 311956Z 28013G21KT 10SM SCT049 22/10 A3021 RMK AO2A SLP234 T02150097 $
","Dover, Delaware, United States",2021-05-31 20:15:43 UTC
kdov2_gnd_app,http://d.liveatc.net/kdov2_gnd_app,KDOV Gnd/App,US-Class-D,"KDOV 311956Z 28013G21KT 10SM SCT049 22/10 A3021 RMK AO2A SLP234 T02150097 $
","Dover, Delaware, United States",2021-05-31 20:15:43 UTC
kdov2_twr,http://d.liveatc.net/kdov2_twr,KDOV Tower,US-Class-D,"KDOV 311956Z 28013G21KT 10SM SCT049 22/10 A3021 RMK AO2A SLP234 T02150097 $
","Dover, Delaware, United States",2021-05-31 20:15:43 UTC
kdpa_atis,http://d.liveatc.net/kdpa_atis,KDPA ATIS,US-Class-D,"KDPA 311952Z 22011KT 10SM CLR 21/08 A3023 RMK AO2 SLP236 T02060083
","Chicago, Illinois, United States",2021-05-31 20:15:43 UTC
kord_app_dpa2,http://d.liveatc.net/kord_app_dpa2,KDPA Chicago Approach,US-Class-D,"KORD 311951Z 21011KT 10SM FEW060 SCT170 OVC250 21/07 A3022 RMK AO2 SLP233 VIRGA S T02110067
","Chicago, Illinois, United States",2021-05-31 20:15:43 UTC
kdpa2,http://d.liveatc.net/kdpa2,KDPA Del/Gnd/Twr/Misc,US-Class-D,"KDPA 311952Z 22011KT 10SM CLR 21/08 A3023 RMK AO2 SLP236 T02060083
","Chicago, Illinois, United States",2021-05-31 20:15:43 UTC
kdto_atis,http://d.liveatc.net/kdto_atis,KDTO ASOS,US-Class-D,"KDTO 311953Z 14005KT 9SM OVC009 21/20 A3007 RMK AO2 RAB02E41 SLP175 P0000 T02060200 $
","Denton, Texas, United States",2021-05-31 20:15:43 UTC
kdto,http://d.liveatc.net/kdto,KDTO Gnd/Twr,US-Class-D,"KDTO 311953Z 14005KT 9SM OVC009 21/20 A3007 RMK AO2 RAB02E41 SLP175 P0000 T02060200 $
","Denton, Texas, United States",2021-05-31 20:15:43 UTC
kdto_twr,http://d.liveatc.net/kdto_twr,KDTO Tower,US-Class-D,"KDTO 311953Z 14005KT 9SM OVC009 21/20 A3007 RMK AO2 RAB02E41 SLP175 P0000 T02060200 $
","Denton, Texas, United States",2021-05-31 20:15:43 UTC
kdvo,http://d.liveatc.net/kdvo,KDVO CTAF,US-Class-D,"KDVO 311935Z AUTO 08005G10KT 10SM CLR 32/12 A2989 RMK AO2
","Novato, California, United States",2021-05-31 20:15:43 UTC
kdvt3_atis,http://d.liveatc.net/kdvt3_atis,KDVT ATIS,US-Class-D,"KDVT 311953Z 20009KT 10SM CLR 35/04 A2989 RMK AO2 SLP097 T03500044
","Phoenix, Arizona, United States",2021-05-31 20:15:43 UTC
kdvt3_del,http://d.liveatc.net/kdvt3_del,KDVT Clearance Delivery,US-Class-D,"KDVT 311953Z 20009KT 10SM CLR 35/04 A2989 RMK AO2 SLP097 T03500044
","Phoenix, Arizona, United States",2021-05-31 20:15:43 UTC
kdvt3_del_gnd,http://d.liveatc.net/kdvt3_del_gnd,KDVT Delivery/Ground,US-Class-D,"KDVT 311953Z 20009KT 10SM CLR 35/04 A2989 RMK AO2 SLP097 T03500044
","Phoenix, Arizona, United States",2021-05-31 20:15:43 UTC
kdvt3_gnd,http://d.liveatc.net/kdvt3_gnd,KDVT Ground,US-Class-D,"KDVT 311953Z 20009KT 10SM CLR 35/04 A2989 RMK AO2 SLP097 T03500044
","Phoenix, Arizona, United States",2021-05-31 20:15:43 UTC
kdvt3_twr,http://d.liveatc.net/kdvt3_twr,KDVT Tower (Both),US-Class-D,"KDVT 311953Z 20009KT 10SM CLR 35/04 A2989 RMK AO2 SLP097 T03500044
","Phoenix, Arizona, United States",2021-05-31 20:15:43 UTC
kdvt3_twr2,http://d.liveatc.net/kdvt3_twr2,KDVT Tower (North),US-Class-D,"KDVT 311953Z 20009KT 10SM CLR 35/04 A2989 RMK AO2 SLP097 T03500044
","Phoenix, Arizona, United States",2021-05-31 20:15:43 UTC
kdvt3_twr1,http://d.liveatc.net/kdvt3_twr1,KDVT Tower (South),US-Class-D,"KDVT 311953Z 20009KT 10SM CLR 35/04 A2989 RMK AO2 SLP097 T03500044
","Phoenix, Arizona, United States",2021-05-31 20:15:43 UTC
kdwh2,http://d.liveatc.net/kdwh2,KDWH Del/ Gnd/Twr,US-Class-D,"KDWH 311953Z 12007KT 090V160 10SM FEW038 SCT050 29/21 A3005 RMK AO2 SLP174 T02940211
","Houston, Texas, United States",2021-05-31 20:15:43 UTC
kdxr_atis,http://d.liveatc.net/kdxr_atis,KDXR ATIS,US-Class-D,"KDXR 311953Z 33009KT 10SM BKN038 OVC046 18/09 A3018 RMK AO2 SLP220 T01780089
","Danbury, Connecticut, United States",2021-05-31 20:15:43 UTC
kdxr,http://d.liveatc.net/kdxr,KDXR Ground/Tower,US-Class-D,"KDXR 311953Z 33009KT 10SM BKN038 OVC046 18/09 A3018 RMK AO2 SLP220 T01780089
","Danbury, Connecticut, United States",2021-05-31 20:15:43 UTC
kdyb2,http://d.liveatc.net/kdyb2,KDYB CTAF,US-Class-D,,"Summerville, South Carolina, United States",2021-05-31 20:15:43 UTC
kdyl,http://d.liveatc.net/kdyl,KDYL CTAF #1,US-Class-D,"KDYL 311954Z AUTO 32007KT 290V350 10SM CLR 23/07 A3019 RMK AO2 SLP221 T02330067 $
","Doylestown, Pennsylvania, United States",2021-05-31 20:15:43 UTC
kdyl2,http://d.liveatc.net/kdyl2,KDYL CTAF #2,US-Class-D,"KDYL 311954Z AUTO 32007KT 290V350 10SM CLR 23/07 A3019 RMK AO2 SLP221 T02330067 $
","Doylestown, Pennsylvania, United States",2021-05-31 20:15:43 UTC
kear_awos,http://d.liveatc.net/kear_awos,KEAR AWOS,US-Class-D,"KEAR 311956Z AUTO 10007G14KT 10SM FEW031 20/12 A3023 RMK AO2 SLP231 T02000122
","Kearney, Nebraska, United States",2021-05-31 20:15:43 UTC
kear_olu,http://d.liveatc.net/kear_olu,KEAR Columbus Radio,US-Class-D,"KEAR 311956Z AUTO 10007G14KT 10SM FEW031 20/12 A3023 RMK AO2 SLP231 T02000122
","Kearney, Nebraska, United States",2021-05-31 20:15:43 UTC
kear_ctaf,http://d.liveatc.net/kear_ctaf,KEAR CTAF,US-Class-D,"KEAR 311956Z AUTO 10007G14KT 10SM FEW031 20/12 A3023 RMK AO2 SLP231 T02000122
","Kearney, Nebraska, United States",2021-05-31 20:15:43 UTC
keau,http://d.liveatc.net/keau,KEAU Tower,US-Class-D,"KEAU 311956Z 26010KT 10SM FEW047 SCT085 SCT120 23/11 A3011 RMK AO2 SLP194 T02330111
","Eau Claire, Wisconsin, United States",2021-05-31 20:15:43 UTC
kedc1_atis,http://d.liveatc.net/kedc1_atis,KEDC ATIS,US-Class-D,"KEDC 311955Z AUTO 15009KT 10SM FEW032 FEW050 28/21 A3000 RMK AO2
","Austin, Texas, United States",2021-05-31 20:15:43 UTC
kedc1_app,http://d.liveatc.net/kedc1_app,KEDC Austin App/Dep,US-Class-D,"KEDC 311955Z AUTO 15009KT 10SM FEW032 FEW050 28/21 A3000 RMK AO2
","Austin, Texas, United States",2021-05-31 20:15:43 UTC
kedc1_del,http://d.liveatc.net/kedc1_del,KEDC Clearance Delivery,US-Class-D,"KEDC 311955Z AUTO 15009KT 10SM FEW032 FEW050 28/21 A3000 RMK AO2
","Austin, Texas, United States",2021-05-31 20:15:43 UTC
kedc1_del_gnd,http://d.liveatc.net/kedc1_del_gnd,KEDC Clearance/Ground,US-Class-D,"KEDC 311955Z AUTO 15009KT 10SM FEW032 FEW050 28/21 A3000 RMK AO2
","Austin, Texas, United States",2021-05-31 20:15:43 UTC
kedc1_del_gnd_twr,http://d.liveatc.net/kedc1_del_gnd_twr,KEDC Del/Gnd/Twr,US-Class-D,"KEDC 311955Z AUTO 15009KT 10SM FEW032 FEW050 28/21 A3000 RMK AO2
","Austin, Texas, United States",2021-05-31 20:15:43 UTC
kedc1_gnd,http://d.liveatc.net/kedc1_gnd,KEDC Ground,US-Class-D,"KEDC 311955Z AUTO 15009KT 10SM FEW032 FEW050 28/21 A3000 RMK AO2
","Austin, Texas, United States",2021-05-31 20:15:43 UTC
kedc1_gnd_twr,http://d.liveatc.net/kedc1_gnd_twr,KEDC Ground/Tower,US-Class-D,"KEDC 311955Z AUTO 15009KT 10SM FEW032 FEW050 28/21 A3000 RMK AO2
","Austin, Texas, United States",2021-05-31 20:15:43 UTC
kedc1_twr,http://d.liveatc.net/kedc1_twr,KEDC Tower,US-Class-D,"KEDC 311955Z AUTO 15009KT 10SM FEW032 FEW050 28/21 A3000 RMK AO2
","Austin, Texas, United States",2021-05-31 20:15:43 UTC
kedu,http://d.liveatc.net/kedu,KEDU CTAF,US-Class-D,"KEDU 311950Z AUTO 33005KT 10SM CLR A2987 RMK AO1
","Davis, California, United States",2021-05-31 20:15:43 UTC
kmht_murp_123000,http://d.liveatc.net/kmht_murp_123000,KEEN CTAF,US-Class-D,"KMHT 311953Z 32012G17KT 10SM OVC025 16/09 A3007 RMK AO2 SLP196 T01610089
","Keene, New Hampshire, United States",2021-05-31 20:15:43 UTC
kbos_area_ctaf,http://d.liveatc.net/kbos_area_ctaf,MA/NH/RI/CT Area CTAF,US-Class-D,"KBOS 311954Z 27006KT 10SM FEW015 OVC020 16/11 A3009 RMK AO2 SLP190 T01610106
","Keene, New Hampshire, United States",2021-05-31 20:15:43 UTC
kbos_area_ctaf,http://d.liveatc.net/kbos_area_ctaf,MA/NH/RI/CT Area CTAF,US-Class-D,"KBOS 311954Z 27006KT 10SM FEW015 OVC020 16/11 A3009 RMK AO2 SLP190 T01610106
","Keene, New Hampshire, United States",2021-05-31 20:15:43 UTC
kbos_area_ctaf,http://d.liveatc.net/kbos_area_ctaf,MA/NH/RI/CT Area CTAF,US-Class-D,"KBOS 311954Z 27006KT 10SM FEW015 OVC020 16/11 A3009 RMK AO2 SLP190 T01610106
","Keene, New Hampshire, United States",2021-05-31 20:15:43 UTC
kefd3_twr,http://d.liveatc.net/kefd3_twr,KEFD Tower,US-Class-D,"KEFD 311950Z 11013G18KT 10SM BKN025 BKN032 BKN050 28/22 A3007
","Houston, Texas, United States",2021-05-31 20:15:43 UTC
kden1_8,http://d.liveatc.net/kden1_8,KFTG/KEIK/KBDU/KLMO/Misc,US-Class-D,"KDEN 311953Z 04004KT 10SM SCT025 SCT033 BKN047 14/09 A3028 RMK AO2 SLP217 T01390089
","Erie, Colorado, United States",2021-05-31 20:15:43 UTC
kelm1_app,http://d.liveatc.net/kelm1_app,KELM App/Dep,US-Class-D,"KELM 311953Z 29007KT 260V350 10SM FEW080 23/05 A3020 RMK AO2 SLP225 T02280050
","Elmira, New York, United States",2021-05-31 20:15:43 UTC
kelm1_atis,http://d.liveatc.net/kelm1_atis,KELM ATIS,US-Class-D,"KELM 311953Z 29007KT 260V350 10SM FEW080 23/05 A3020 RMK AO2 SLP225 T02280050
","Elmira, New York, United States",2021-05-31 20:15:43 UTC
kelm1_all,http://d.liveatc.net/kelm1_all,KELM Del/Gnd/Twr/App,US-Class-D,"KELM 311953Z 29007KT 260V350 10SM FEW080 23/05 A3020 RMK AO2 SLP225 T02280050
","Elmira, New York, United States",2021-05-31 20:15:43 UTC
kelm1_del_gnd,http://d.liveatc.net/kelm1_del_gnd,KELM Del/Ground,US-Class-D,"KELM 311953Z 29007KT 260V350 10SM FEW080 23/05 A3020 RMK AO2 SLP225 T02280050
","Elmira, New York, United States",2021-05-31 20:15:43 UTC
kelm1_guard,http://d.liveatc.net/kelm1_guard,KELM Emergency/Guard,US-Class-D,"KELM 311953Z 29007KT 260V350 10SM FEW080 23/05 A3020 RMK AO2 SLP225 T02280050
","Elmira, New York, United States",2021-05-31 20:15:43 UTC
kelm1_twr,http://d.liveatc.net/kelm1_twr,KELM Tower,US-Class-D,"KELM 311953Z 29007KT 260V350 10SM FEW080 23/05 A3020 RMK AO2 SLP225 T02280050
","Elmira, New York, United States",2021-05-31 20:15:43 UTC
kemt,http://d.liveatc.net/kemt,KEMT Gnd/Twr,US-Class-D,"KEMT 311945Z 23005KT 10SM FEW070 23/13 A2994
","El Monte, California, United States",2021-05-31 20:15:43 UTC
kman,http://d.liveatc.net/kman,KMAN/KEUL CTAF,US-Class-D,"KMAN 311955Z AUTO 31009KT 10SM CLR 28/03 A3012 RMK A01
","Nampa, Idaho, United States",2021-05-31 20:15:43 UTC
kevb,http://d.liveatc.net/kevb,KEVB Gnd/Twr,US-Class-D,"KEVB 311947Z 06011KT 10SM SCT035 27/19 A3018
","New Smyrna Beach, Florida, United States",2021-05-31 20:15:43 UTC
kfar2,http://d.liveatc.net/kfar2,KFAR Tower,US-Class-D,"KFAR 311953Z 31009G15KT 10SM CLR 22/06 A3015 RMK AO2 SLP212 T02220061
","Fargo, North Dakota, United States",2021-05-31 20:15:43 UTC
kfcm2,http://d.liveatc.net/kfcm2,KFCM Tower,US-Class-D,"KFCM 311953Z 21004KT 10SM FEW065 24/08 A3009 RMK AO2 SLP189 T02390078
","Minneapolis, Minnesota, United States",2021-05-31 20:15:43 UTC
kfdk2_atis,http://d.liveatc.net/kfdk2_atis,KFDK ATIS,US-Class-D,"KFDK 311947Z VRB05KT 10SM SCT055 23/06 A3026
","Frederick, Maryland, United States",2021-05-31 20:15:43 UTC
kfdk2,http://d.liveatc.net/kfdk2,KFDK Del/Gnd/Twr/CTAF #1,US-Class-D,"KFDK 311947Z VRB05KT 10SM SCT055 23/06 A3026
","Frederick, Maryland, United States",2021-05-31 20:15:43 UTC
kfdk,http://d.liveatc.net/kfdk,KFDK Del/Gnd/Twr/CTAF #2,US-Class-D,"KFDK 311947Z VRB05KT 10SM SCT055 23/06 A3026
","Frederick, Maryland, United States",2021-05-31 20:15:43 UTC
kcco1_123050,http://d.liveatc.net/kcco1_123050,KFFC CTAF,US-Class-D,"KCCO 311935Z AUTO 16008KT 10SM SCT050 27/10 A3026 RMK AO2 T02670099
","Atlanta, Georgia, United States",2021-05-31 20:15:43 UTC
kffz_atis,http://d.liveatc.net/kffz_atis,KFFZ ATIS,US-Class-D,KFFZ Airport Info,"Mesa, Arizona, United States",2021-05-31 20:15:43 UTC
kffz_gnd,http://d.liveatc.net/kffz_gnd,KFFZ Ground,US-Class-D,KFFZ Airport Info,"Mesa, Arizona, United States",2021-05-31 20:15:43 UTC
kffz_twr_b,http://d.liveatc.net/kffz_twr_b,KFFZ Twr #1,US-Class-D,KFFZ Airport Info,"Mesa, Arizona, United States",2021-05-31 20:15:43 UTC
kffz2,http://d.liveatc.net/kffz2,KFFZ Twr #2,US-Class-D,KFFZ Airport Info,"Mesa, Arizona, United States",2021-05-31 20:15:43 UTC
kffz_twr_n,http://d.liveatc.net/kffz_twr_n,KFFZ Twr (North),US-Class-D,KFFZ Airport Info,"Mesa, Arizona, United States",2021-05-31 20:15:43 UTC
kffz_twr_s,http://d.liveatc.net/kffz_twr_s,KFFZ Twr (South)/CTAF,US-Class-D,KFFZ Airport Info,"Mesa, Arizona, United States",2021-05-31 20:15:43 UTC
kfhr,http://d.liveatc.net/kfhr,KFHR CTAF,US-Class-D,"KFHR 311953Z AUTO 12005KT 10SM CLR 22/12 A3021 RMK AO2 SLP229 T02170122 TSNO
","Friday Harbor, Washington, United States",2021-05-31 20:15:43 UTC
kfhu,http://d.liveatc.net/kfhu,KFHU Gnd/Twr/Radar,US-Class-D,"KFHU 311958Z AUTO 00000KT 10SM CLR 28/M05 A3011 RMK AO2 SLP120 T02831050
","Fort Huachuca/Sierra Vista, Arizona, United States",2021-05-31 20:15:43 UTC
kmht_murp_122700,http://d.liveatc.net/kmht_murp_122700,KCON/KDAW/KFIT CTAF,US-Class-D,"KMHT 311953Z 32012G17KT 10SM OVC025 16/09 A3007 RMK AO2 SLP196 T01610089
","Fitchburg, Massachusetts, United States",2021-05-31 20:15:43 UTC
kfit2,http://d.liveatc.net/kfit2,KFIT CTAF,US-Class-D,"KFIT 311952Z AUTO 31012KT 10SM BKN027 OVC034 16/10 A3010 RMK AO2 SLP194 T01560100
","Fitchburg, Massachusetts, United States",2021-05-31 20:15:43 UTC
kfit,http://d.liveatc.net/kfit,KFIT CTAF/FSS RCO,US-Class-D,"KFIT 311952Z AUTO 31012KT 10SM BKN027 OVC034 16/10 A3010 RMK AO2 SLP194 T01560100
","Fitchburg, Massachusetts, United States",2021-05-31 20:15:43 UTC
kbos_area_ctaf,http://d.liveatc.net/kbos_area_ctaf,MA/NH/RI/CT Area CTAF,US-Class-D,"KBOS 311954Z 27006KT 10SM FEW015 OVC020 16/11 A3009 RMK AO2 SLP190 T01610106
","Fitchburg, Massachusetts, United States",2021-05-31 20:15:43 UTC
kbos_area_ctaf,http://d.liveatc.net/kbos_area_ctaf,MA/NH/RI/CT Area CTAF,US-Class-D,"KBOS 311954Z 27006KT 10SM FEW015 OVC020 16/11 A3009 RMK AO2 SLP190 T01610106
","Fitchburg, Massachusetts, United States",2021-05-31 20:15:43 UTC
kbos_area_ctaf,http://d.liveatc.net/kbos_area_ctaf,MA/NH/RI/CT Area CTAF,US-Class-D,"KBOS 311954Z 27006KT 10SM FEW015 OVC020 16/11 A3009 RMK AO2 SLP190 T01610106
","Fitchburg, Massachusetts, United States",2021-05-31 20:15:43 UTC
kfka,http://d.liveatc.net/kfka,KFKA CTAF,US-Class-D,"KFKA 311955Z AUTO 20007KT 10SM VCTS SCT047 22/12 A3016 RMK AO2 LTG DSNT W AND NW T02220118
","Preston, Minnesota, United States",2021-05-31 20:15:43 UTC
kflg,http://d.liveatc.net/kflg,KFLG Ground/Tower,US-Class-D,"KFLG 311957Z 07010KT 10SM SCT110 19/M02 A3025 RMK AO2 RAB01E28 SLP160 P0000 T01941017
","Flagstaff, Arizona, United States",2021-05-31 20:15:43 UTC
kflo1_app,http://d.liveatc.net/kflo1_app,KFLO App/Dep,US-Class-D,"KFLO 311953Z AUTO 03008KT 10SM FEW055 27/09 A3027 RMK AO2 SLP250 T02670094
","Florence, South Carolina, United States",2021-05-31 20:15:43 UTC
kflo1_atis,http://d.liveatc.net/kflo1_atis,KFLO ATIS,US-Class-D,"KFLO 311953Z AUTO 03008KT 10SM FEW055 27/09 A3027 RMK AO2 SLP250 T02670094
","Florence, South Carolina, United States",2021-05-31 20:15:43 UTC
kflo1_guard,http://d.liveatc.net/kflo1_guard,KFLO Emergency/Guard,US-Class-D,"KFLO 311953Z AUTO 03008KT 10SM FEW055 27/09 A3027 RMK AO2 SLP250 T02670094
","Florence, South Carolina, United States",2021-05-31 20:15:43 UTC
kflo2,http://d.liveatc.net/kflo2,KFLO Gnd/Twr/App,US-Class-D,"KFLO 311953Z AUTO 03008KT 10SM FEW055 27/09 A3027 RMK AO2 SLP250 T02670094
","Florence, South Carolina, United States",2021-05-31 20:15:43 UTC
kflo1_gnd,http://d.liveatc.net/kflo1_gnd,KFLO Ground,US-Class-D,"KFLO 311953Z AUTO 03008KT 10SM FEW055 27/09 A3027 RMK AO2 SLP250 T02670094
","Florence, South Carolina, United States",2021-05-31 20:15:43 UTC
kflo1_twr,http://d.liveatc.net/kflo1_twr,KFLO Tower,US-Class-D,"KFLO 311953Z AUTO 03008KT 10SM FEW055 27/09 A3027 RMK AO2 SLP250 T02670094
","Florence, South Carolina, United States",2021-05-31 20:15:43 UTC
kfmh1_app,http://d.liveatc.net/kfmh1_app,Boston Approach (Cape North),US-Class-D,"KFMH 311950Z 28006KT 6SM BR OVC006 14/13 A3010
","Falmouth, Massachusetts, United States",2021-05-31 20:15:43 UTC
kfmh1_app2,http://d.liveatc.net/kfmh1_app2,Boston Approach (OTIS Arrival),US-Class-D,"KFMH 311950Z 28006KT 6SM BR OVC006 14/13 A3010
","Falmouth, Massachusetts, United States",2021-05-31 20:15:43 UTC
kfmh1_atis,http://d.liveatc.net/kfmh1_atis,KFMH ATIS,US-Class-D,"KFMH 311950Z 28006KT 6SM BR OVC006 14/13 A3010
","Falmouth, Massachusetts, United States",2021-05-31 20:15:43 UTC
kfmh1_gnd,http://d.liveatc.net/kfmh1_gnd,KFMH Ground,US-Class-D,"KFMH 311950Z 28006KT 6SM BR OVC006 14/13 A3010
","Falmouth, Massachusetts, United States",2021-05-31 20:15:43 UTC
kfmh1_twr,http://d.liveatc.net/kfmh1_twr,KFMH Tower,US-Class-D,"KFMH 311950Z 28006KT 6SM BR OVC006 14/13 A3010
","Falmouth, Massachusetts, United States",2021-05-31 20:15:43 UTC
kfmy_atis,http://d.liveatc.net/kfmy_atis,KFMY ATIS,US-Class-D,"KFMY 311953Z 10008G16KT 10SM CLR 34/18 A3006 RMK AO2 LTG DSNT SE SLP182 T03440178
","Fort Myers, Florida, United States",2021-05-31 20:15:43 UTC
kfmy,http://d.liveatc.net/kfmy,KFMY Del/Gnd/Twr,US-Class-D,"KFMY 311953Z 10008G16KT 10SM CLR 34/18 A3006 RMK AO2 LTG DSNT SE SLP182 T03440178
","Fort Myers, Florida, United States",2021-05-31 20:15:43 UTC
kfnl3_unicom,http://d.liveatc.net/kfnl3_unicom,KFNL ASRI (FBO),US-Class-D,"KFNL 311956Z 00000KT 10SM OVC060 15/09 A3029 RMK AO2 SLP231 T01500089 PNO $
","Fort Collins/Loveland, Colorado, United States",2021-05-31 20:15:43 UTC
kfnl3_ground,http://d.liveatc.net/kfnl3_ground,KFNL Ground,US-Class-D,"KFNL 311956Z 00000KT 10SM OVC060 15/09 A3029 RMK AO2 SLP231 T01500089 PNO $
","Fort Collins/Loveland, Colorado, United States",2021-05-31 20:15:43 UTC
kfnl2,http://d.liveatc.net/kfnl2,KFNL Tower/CTAF,US-Class-D,"KFNL 311956Z 00000KT 10SM OVC060 15/09 A3029 RMK AO2 SLP231 T01500089 PNO $
","Fort Collins/Loveland, Colorado, United States",2021-05-31 20:15:43 UTC
kfpr1_atis,http://d.liveatc.net/kfpr1_atis,KFPR ATIS #1,US-Class-D,"KFPR 311953Z 08011KT 10SM CLR 28/19 A3014 RMK AO2 SLP205 T02830189
","Fort Pierce, Florida, United States",2021-05-31 20:15:43 UTC
kfpr1_gnd_twr,http://d.liveatc.net/kfpr1_gnd_twr,KFPR Gnd/Twr #1,US-Class-D,"KFPR 311953Z 08011KT 10SM CLR 28/19 A3014 RMK AO2 SLP205 T02830189
","Fort Pierce, Florida, United States",2021-05-31 20:15:43 UTC
kfpr1_gnd,http://d.liveatc.net/kfpr1_gnd,KFPR Ground,US-Class-D,"KFPR 311953Z 08011KT 10SM CLR 28/19 A3014 RMK AO2 SLP205 T02830189
","Fort Pierce, Florida, United States",2021-05-31 20:15:43 UTC
kfpr1_twr,http://d.liveatc.net/kfpr1_twr,KFPR Tower,US-Class-D,"KFPR 311953Z 08011KT 10SM CLR 28/19 A3014 RMK AO2 SLP205 T02830189
","Fort Pierce, Florida, United States",2021-05-31 20:15:43 UTC
kfpr1_app,http://d.liveatc.net/kfpr1_app,Palm Beach App/Dep,US-Class-D,"KFPR 311953Z 08011KT 10SM CLR 28/19 A3014 RMK AO2 SLP205 T02830189
","Fort Pierce, Florida, United States",2021-05-31 20:15:43 UTC
kfrg_jbas,http://d.liveatc.net/kfrg_jbas,Jones Beach Air Show,US-Class-D,"KFRG 311953Z 31009G17KT 280V340 10SM BKN037 OVC046 17/09 A3019 RMK AO2 SLP223 T01720094
","Farmingdale, New York, United States",2021-05-31 20:15:43 UTC
kfrg_atis1,http://d.liveatc.net/kfrg_atis1,KFRG ATIS,US-Class-D,"KFRG 311953Z 31009G17KT 280V340 10SM BKN037 OVC046 17/09 A3019 RMK AO2 SLP223 T01720094
","Farmingdale, New York, United States",2021-05-31 20:15:43 UTC
kfrg_del_gnd1,http://d.liveatc.net/kfrg_del_gnd1,KFRG Delivery/Ground,US-Class-D,"KFRG 311953Z 31009G17KT 280V340 10SM BKN037 OVC046 17/09 A3019 RMK AO2 SLP223 T01720094
","Farmingdale, New York, United States",2021-05-31 20:15:43 UTC
kfrg_twr1,http://d.liveatc.net/kfrg_twr1,KFRG Tower,US-Class-D,"KFRG 311953Z 31009G17KT 280V340 10SM BKN037 OVC046 17/09 A3019 RMK AO2 SLP223 T01720094
","Farmingdale, New York, United States",2021-05-31 20:15:43 UTC
kfsd1,http://d.liveatc.net/kfsd1,KFSD Twr/App/Dep/ZMP,US-Class-D,"KFSD 311956Z 31009G17KT 10SM SCT090 26/03 A3015 RMK AO2 SLP205 T02610028
","Sioux Falls, South Dakota, United States",2021-05-31 20:15:43 UTC
kftw1,http://d.liveatc.net/kftw1,KFTW Del/Gnd/Twr,US-Class-D,"KFTW 311953Z 05007KT 6SM BR FEW010 OVC018 22/21 A3004 RMK AO2 LTG DSNT S SLP164 T02170206
","Fort Worth, Texas, United States",2021-05-31 20:15:43 UTC
kftw1_2,http://d.liveatc.net/kftw1_2,KFTW Del/Ground,US-Class-D,"KFTW 311953Z 05007KT 6SM BR FEW010 OVC018 22/21 A3004 RMK AO2 LTG DSNT S SLP164 T02170206
","Fort Worth, Texas, United States",2021-05-31 20:15:43 UTC
kftw1_1,http://d.liveatc.net/kftw1_1,KFTW Tower,US-Class-D,"KFTW 311953Z 05007KT 6SM BR FEW010 OVC018 22/21 A3004 RMK AO2 LTG DSNT S SLP164 T02170206
","Fort Worth, Texas, United States",2021-05-31 20:15:43 UTC
kftw2_1,http://d.liveatc.net/kftw2_1,Regional App (Meacham North),US-Class-D,"KFTW 311953Z 05007KT 6SM BR FEW010 OVC018 22/21 A3004 RMK AO2 LTG DSNT S SLP164 T02170206
","Fort Worth, Texas, United States",2021-05-31 20:15:43 UTC
kdfw2_app_ftw_s,http://d.liveatc.net/kdfw2_app_ftw_s,Regional App (Meacham South),US-Class-D,"KDFW 311953Z 12005KT 10SM OVC085 23/20 A3004 RMK AO2 LTG DSNT SW SLP167 T02330200
","Fort Worth, Texas, United States",2021-05-31 20:15:43 UTC
kftw2,http://d.liveatc.net/kftw2,Regional Approach (Meacham North/South),US-Class-D,"KFTW 311953Z 05007KT 6SM BR FEW010 OVC018 22/21 A3004 RMK AO2 LTG DSNT S SLP164 T02170206
","Fort Worth, Texas, United States",2021-05-31 20:15:43 UTC
kryy1_atlapp_121000,http://d.liveatc.net/kryy1_atlapp_121000,Atlanta Approach (N. Sat),US-Class-D,"KRYY 311950Z 16004KT 10SM BKN049 24/13 A3028 RMK AO2 SLP971 T02440128 $
","Atlanta, Georgia, United States",2021-05-31 20:15:43 UTC
kfty,http://d.liveatc.net/kfty,KFTY Ground/Tower,US-Class-D,"KFTY 311953Z 19005KT 10SM BKN055 26/11 A3026 RMK AO2 SLP240 T02610111
","Atlanta, Georgia, United States",2021-05-31 20:15:43 UTC
kful2,http://d.liveatc.net/kful2,KFUL Ground/Tower,US-Class-D,"KFUL 311953Z 20009KT 10SM FEW020 23/15 A2994 RMK AO2 SLP137 T02280150
","Fullerton, California, United States",2021-05-31 20:15:43 UTC
kfws,http://d.liveatc.net/kfws,KFWS Ground/Tower,US-Class-D,"KFWS 311950Z 09006KT 10SM VCTS SCT025 BKN036 OVC055 25/21 A3004
","Fort Worth, Texas, United States",2021-05-31 20:15:43 UTC
kfxe3_atis,http://d.liveatc.net/kfxe3_atis,KFXE ATIS,US-Class-D,"KFXE 311953Z 06013KT 10SM CLR 29/20 A3009 RMK AO2 SLP192 T02940200
","Fort Lauderdale, Florida, United States",2021-05-31 20:15:43 UTC
kfxe3_gnd,http://d.liveatc.net/kfxe3_gnd,KFXE Ground,US-Class-D,"KFXE 311953Z 06013KT 10SM CLR 29/20 A3009 RMK AO2 SLP192 T02940200
","Fort Lauderdale, Florida, United States",2021-05-31 20:15:43 UTC
kfxe_pa,http://d.liveatc.net/kfxe_pa,KFXE Practice Area,US-Class-D,"KFXE 311953Z 06013KT 10SM CLR 29/20 A3009 RMK AO2 SLP192 T02940200
","Fort Lauderdale, Florida, United States",2021-05-31 20:15:43 UTC
kfxe3,http://d.liveatc.net/kfxe3,KFXE Tower #1,US-Class-D,"KFXE 311953Z 06013KT 10SM CLR 29/20 A3009 RMK AO2 SLP192 T02940200
","Fort Lauderdale, Florida, United States",2021-05-31 20:15:43 UTC
kfyv,http://d.liveatc.net/kfyv,KFYV Gnd/Twr/App/ZME,US-Class-D,"KFYV 311953Z 10005KT 10SM BKN047 BKN055 19/13 A3020 RMK AO2 SLP220 T01890128
","Fayetteville, Arkansas, United States",2021-05-31 20:15:43 UTC
kgai,http://d.liveatc.net/kgai,KGAI CTAF/UNICOM,US-Class-D,"KGAI 311956Z AUTO 27005KT 10SM CLR 22/09 A3027 RMK AO2 SLP261 T02220089
","Gaithersburg, Maryland, United States",2021-05-31 20:15:43 UTC
kgdm,http://d.liveatc.net/kgdm,KGDM/KORE CTAF,US-Class-D,KGDM Airport Info,"Gardner, Massachusetts, United States",2021-05-31 20:15:43 UTC
kgeu1_app,http://d.liveatc.net/kgeu1_app,KGEU App/Dep,US-Class-D,"KGEU 311948Z 19006KT 10SM SKC 35/01 A2989
","Glendale, Arizona, United States",2021-05-31 20:15:43 UTC
kgeu1_atis,http://d.liveatc.net/kgeu1_atis,KGEU ATIS,US-Class-D,"KGEU 311948Z 19006KT 10SM SKC 35/01 A2989
","Glendale, Arizona, United States",2021-05-31 20:15:43 UTC
kgeu1_gnd,http://d.liveatc.net/kgeu1_gnd,KGEU Ground,US-Class-D,"KGEU 311948Z 19006KT 10SM SKC 35/01 A2989
","Glendale, Arizona, United States",2021-05-31 20:15:43 UTC
kgeu1_twr,http://d.liveatc.net/kgeu1_twr,KGEU Tower,US-Class-D,"KGEU 311948Z 19006KT 10SM SKC 35/01 A2989
","Glendale, Arizona, United States",2021-05-31 20:15:43 UTC
kgfk3_app,http://d.liveatc.net/kgfk3_app,KGFK Approach,US-Class-D,"KGFK 311953Z 01003KT 10SM FEW070 FEW250 22/03 A3014 RMK AO2 SLP210 T02170028
","Grand Forks, North Dakota, United States",2021-05-31 20:15:43 UTC
kgfk3_atis,http://d.liveatc.net/kgfk3_atis,KGFK ATIS,US-Class-D,"KGFK 311953Z 01003KT 10SM FEW070 FEW250 22/03 A3014 RMK AO2 SLP210 T02170028
","Grand Forks, North Dakota, United States",2021-05-31 20:15:43 UTC
kgfk3_gnd,http://d.liveatc.net/kgfk3_gnd,KGFK Ground,US-Class-D,"KGFK 311953Z 01003KT 10SM FEW070 FEW250 22/03 A3014 RMK AO2 SLP210 T02170028
","Grand Forks, North Dakota, United States",2021-05-31 20:15:43 UTC
kgfk3_twr1,http://d.liveatc.net/kgfk3_twr1,KGFK Tower 1 (118.4/IFR/VFR),US-Class-D,"KGFK 311953Z 01003KT 10SM FEW070 FEW250 22/03 A3014 RMK AO2 SLP210 T02170028
","Grand Forks, North Dakota, United States",2021-05-31 20:15:43 UTC
kgfk3_twr2,http://d.liveatc.net/kgfk3_twr2,KGFK Tower 2 (120.55/VFR),US-Class-D,"KGFK 311953Z 01003KT 10SM FEW070 FEW250 22/03 A3014 RMK AO2 SLP210 T02170028
","Grand Forks, North Dakota, United States",2021-05-31 20:15:43 UTC
kgfl,http://d.liveatc.net/kgfl,KGFL CTAF/App,US-Class-D,"KGFL 311953Z AUTO 13005KT 10SM FEW060 OVC075 13/10 A3017 RMK AO2 SLP222 T01330100
","Glens Falls, New York, United States",2021-05-31 20:15:43 UTC
kgif_awos,http://d.liveatc.net/kgif_awos,KGIF ASOS,US-Class-D,"KGIF 311953Z AUTO 07012KT 10SM FEW048 32/17 A3014 RMK AO2 SLP205 T03220167
","Winter Haven, Florida, United States",2021-05-31 20:15:43 UTC
kgif_s,http://d.liveatc.net/kgif_s,KGIF CTAF/GCO/Guard,US-Class-D,"KGIF 311953Z AUTO 07012KT 10SM FEW048 32/17 A3014 RMK AO2 SLP205 T03220167
","Winter Haven, Florida, United States",2021-05-31 20:15:43 UTC
kgif_gco_guard,http://d.liveatc.net/kgif_gco_guard,KGIF GCO/Guard,US-Class-D,"KGIF 311953Z AUTO 07012KT 10SM FEW048 32/17 A3014 RMK AO2 SLP205 T03220167
","Winter Haven, Florida, United States",2021-05-31 20:15:43 UTC
kgif_ctaf,http://d.liveatc.net/kgif_ctaf,KGIF/F57 CTAF,US-Class-D,"KGIF 311953Z AUTO 07012KT 10SM FEW048 32/17 A3014 RMK AO2 SLP205 T03220167
","Winter Haven, Florida, United States",2021-05-31 20:15:43 UTC
kgjt,http://d.liveatc.net/kgjt,KGJT Gnd/Twr/App/ZDV,US-Class-D,"KGJT 311953Z 28010G20KT 10SM CLR 26/02 A3007 RMK AO2 SLP119 T02610017
","Grand Junction, Colorado, United States",2021-05-31 20:15:43 UTC
kgkt2,http://d.liveatc.net/kgkt2,KGKT CTAF,US-Class-D,"KGKT 311955Z AUTO 00000KT 10SM FEW050 25/13 A3024 RMK A01
","Sevierville, Tennessee, United States",2021-05-31 20:15:43 UTC
kgky_gnd_twr,http://d.liveatc.net/kgky_gnd_twr,KGKY Ground/Tower,US-Class-D,"KGKY 311953Z 08008KT 10SM FEW036 BKN045 OVC100 26/21 A3003 RMK AO2 LTG DSNT SW PRESFR SLP160 T02560206
","Arlington, Texas, United States",2021-05-31 20:15:43 UTC
kgmu_atis,http://d.liveatc.net/kgmu_atis,KGMU ATIS,US-Class-D,"KGMU 311953Z 20007KT 10SM BKN050 23/12 A3030 RMK AO2 SLP255 T02330117
","Greenville, South Carolina, United States",2021-05-31 20:15:43 UTC
kgmu_gnd,http://d.liveatc.net/kgmu_gnd,KGMU Ground,US-Class-D,"KGMU 311953Z 20007KT 10SM BKN050 23/12 A3030 RMK AO2 SLP255 T02330117
","Greenville, South Carolina, United States",2021-05-31 20:15:43 UTC
kgmu,http://d.liveatc.net/kgmu,KGMU Ground/Tower,US-Class-D,"KGMU 311953Z 20007KT 10SM BKN050 23/12 A3030 RMK AO2 SLP255 T02330117
","Greenville, South Carolina, United States",2021-05-31 20:15:43 UTC
kgmu_twr,http://d.liveatc.net/kgmu_twr,KGMU Tower,US-Class-D,"KGMU 311953Z 20007KT 10SM BKN050 23/12 A3030 RMK AO2 SLP255 T02330117
","Greenville, South Carolina, United States",2021-05-31 20:15:43 UTC
kgnv,http://d.liveatc.net/kgnv,KGNV Ground/Tower,US-Class-D,"KGNV 311953Z 03008KT 10SM FEW070 31/16 A3019 RMK AO2 SLP219 T03110161
","Gainesville, Florida, United States",2021-05-31 20:15:43 UTC
kgpm2_twr,http://d.liveatc.net/kgpm2_twr,KGPM Tower,US-Class-D,"KGPM 311950Z 08006KT 10SM SCT021 24/19 A3006
","Grand Prairie, Texas, United States",2021-05-31 20:15:43 UTC
kgpt_app,http://d.liveatc.net/kgpt_app,KGPT App/Dep,US-Class-D,"KGPT 311953Z 14011KT 10SM CLR 29/19 A3015 RMK AO2 SLP210 T02890189
","Gulfport, Mississippi, United States",2021-05-31 20:15:43 UTC
kgpt_app1,http://d.liveatc.net/kgpt_app1,KGPT App/Dep #1,US-Class-D,"KGPT 311953Z 14011KT 10SM CLR 29/19 A3015 RMK AO2 SLP210 T02890189
","Gulfport, Mississippi, United States",2021-05-31 20:15:43 UTC
kgpt_app2,http://d.liveatc.net/kgpt_app2,KGPT App/Dep #2,US-Class-D,"KGPT 311953Z 14011KT 10SM CLR 29/19 A3015 RMK AO2 SLP210 T02890189
","Gulfport, Mississippi, United States",2021-05-31 20:15:43 UTC
kgpt_app_final,http://d.liveatc.net/kgpt_app_final,KGPT Approach (Final),US-Class-D,"KGPT 311953Z 14011KT 10SM CLR 29/19 A3015 RMK AO2 SLP210 T02890189
","Gulfport, Mississippi, United States",2021-05-31 20:15:43 UTC
kgpt_atis,http://d.liveatc.net/kgpt_atis,KGPT ATIS,US-Class-D,"KGPT 311953Z 14011KT 10SM CLR 29/19 A3015 RMK AO2 SLP210 T02890189
","Gulfport, Mississippi, United States",2021-05-31 20:15:43 UTC
kgpt_guard,http://d.liveatc.net/kgpt_guard,KGPT Emergency/Guard,US-Class-D,"KGPT 311953Z 14011KT 10SM CLR 29/19 A3015 RMK AO2 SLP210 T02890189
","Gulfport, Mississippi, United States",2021-05-31 20:15:43 UTC
kgpt_gnd_twr,http://d.liveatc.net/kgpt_gnd_twr,KGPT Gnd/Twr,US-Class-D,"KGPT 311953Z 14011KT 10SM CLR 29/19 A3015 RMK AO2 SLP210 T02890189
","Gulfport, Mississippi, United States",2021-05-31 20:15:43 UTC
kgpt_gnd,http://d.liveatc.net/kgpt_gnd,KGPT Ground,US-Class-D,"KGPT 311953Z 14011KT 10SM CLR 29/19 A3015 RMK AO2 SLP210 T02890189
","Gulfport, Mississippi, United States",2021-05-31 20:15:43 UTC
kgpt_twr,http://d.liveatc.net/kgpt_twr,KGPT Tower,US-Class-D,"KGPT 311953Z 14011KT 10SM CLR 29/19 A3015 RMK AO2 SLP210 T02890189
","Gulfport, Mississippi, United States",2021-05-31 20:15:43 UTC
kgqq,http://d.liveatc.net/kgqq,KGQQ CTAF/Del/App,US-Class-D,KGQQ Airport Info,"Galion, Ohio, United States",2021-05-31 20:15:43 UTC
kgtu,http://d.liveatc.net/kgtu,KGTU Gnd/Twr,US-Class-D,"KGTU 311956Z 15012G17KT 10SM SCT047 29/21 A3002 RMK AO2 SLP157 T02890206
","Georgetown, Texas, United States",2021-05-31 20:15:43 UTC
kgvl1_awos,http://d.liveatc.net/kgvl1_awos,KGVL AWOS,US-Class-D,"KGVL 311953Z AUTO 15005KT 10SM OVC050 22/12 A3031 RMK AO2 SLP253 T02220117
","Gainesville, Georgia, United States",2021-05-31 20:15:43 UTC
kgvl1_ctaf,http://d.liveatc.net/kgvl1_ctaf,KGVL CTAF/Clearance,US-Class-D,"KGVL 311953Z AUTO 15005KT 10SM OVC050 22/12 A3031 RMK AO2 SLP253 T02220117
","Gainesville, Georgia, United States",2021-05-31 20:15:43 UTC
kgwb1_awos,http://d.liveatc.net/kgwb1_awos,KGWB AWOS,US-Class-D,"KGWB 311955Z AUTO 24006KT 10SM CLR 21/08 A3026 RMK AO2
","Auburn, Indiana, United States",2021-05-31 20:15:43 UTC
kgwb1_ctaf,http://d.liveatc.net/kgwb1_ctaf,KGWB CTAF,US-Class-D,"KGWB 311955Z AUTO 24006KT 10SM CLR 21/08 A3026 RMK AO2
","Auburn, Indiana, United States",2021-05-31 20:15:43 UTC
kgws2,http://d.liveatc.net/kgws2,KGWS CTAF/Guard,US-Class-D,KGWS Airport Info,"Glenwood Springs, Colorado, United States",2021-05-31 20:15:43 UTC
kgxy2_rco,http://d.liveatc.net/kgxy2_rco,KGXY RCO (Denver Radio),US-Class-D,"KGXY 311956Z 09005KT 10SM BKN045 18/07 A3028 RMK AO2 SLP238 T01780067
","Greeley, Colorado, United States",2021-05-31 20:15:43 UTC
kgmu_kgyh_twr,http://d.liveatc.net/kgmu_kgyh_twr,KGYH Tower,US-Class-D,"KGMU 311953Z 20007KT 10SM BKN050 23/12 A3030 RMK AO2 SLP255 T02330117
","Greenville, South Carolina, United States",2021-05-31 20:15:43 UTC
kgyi_atis,http://d.liveatc.net/kgyi_atis,KGYI ATIS,US-Class-D,"KGYI 311955Z 14005KT 10SM BKN010 BKN016 OVC070 22/20 A3009
","Sherman/Denison, Texas, United States",2021-05-31 20:15:43 UTC
kgyi,http://d.liveatc.net/kgyi,KGYI Ground/Tower,US-Class-D,"KGYI 311955Z 14005KT 10SM BKN010 BKN016 OVC070 22/20 A3009
","Sherman/Denison, Texas, United States",2021-05-31 20:15:43 UTC
kgyr2_gnd,http://d.liveatc.net/kgyr2_gnd,KGYR Ground,US-Class-D,"KGYR 311947Z 27012G17KT 10SM SKC 36/03 A2988
","Goodyear, Arizona, United States",2021-05-31 20:15:43 UTC
kgyr2_gnd_twr,http://d.liveatc.net/kgyr2_gnd_twr,KGYR Ground/Tower,US-Class-D,"KGYR 311947Z 27012G17KT 10SM SKC 36/03 A2988
","Goodyear, Arizona, United States",2021-05-31 20:15:43 UTC
kgyr2_twr,http://d.liveatc.net/kgyr2_twr,KGYR Tower,US-Class-D,"KGYR 311947Z 27012G17KT 10SM SKC 36/03 A2988
","Goodyear, Arizona, United States",2021-05-31 20:15:43 UTC
khbz1_ctaf,http://d.liveatc.net/khbz1_ctaf,KHBZ CTAF,US-Class-D,KHBZ Airport Info,"Heber Springs, Arkansas, United States",2021-05-31 20:15:43 UTC
khdc,http://d.liveatc.net/khdc,KHDC De/Gnd/Twr/App/ZHU,US-Class-D,"KHDC 311935Z AUTO 12006KT 080V210 10SM SCT045 28/18 A3015 RMK AO2
","Hammond, Louisiana, United States",2021-05-31 20:15:43 UTC
khef,http://d.liveatc.net/khef,KHEF Del/Gnd/Twr,US-Class-D,"KHEF 311956Z VRB03KT 10SM CLR 22/08 A3026 RMK AO2 SLP253 T02220083
","Manassas, Virginia, United States",2021-05-31 20:15:43 UTC
khfd,http://d.liveatc.net/khfd,KHFD Ground/Tower,US-Class-D,"KHFD 311953Z 30009G19KT 10SM OVC029 16/09 A3016 RMK AO2 SLP212 T01560089
","Hartford, Connecticut, United States",2021-05-31 20:15:43 UTC
kmrb1_khgr_twr,http://d.liveatc.net/kmrb1_khgr_twr,KHGR Tower,US-Class-D,"KMRB 311953Z VRB03KT 10SM CLR 23/05 A3024 RMK AO2 SLP239 T02280050
","Hagerstown, Maryland, United States",2021-05-31 20:15:43 UTC
khio_gnd,http://d.liveatc.net/khio_gnd,KHIO Ground,US-Class-D,"KHIO 311953Z 07004KT 10SM CLR 27/12 A3012 RMK AO2 SLP197 T02670122
","Portland, Oregon, United States",2021-05-31 20:15:43 UTC
khio,http://d.liveatc.net/khio,KHIO Tower (Both),US-Class-D,"KHIO 311953Z 07004KT 10SM CLR 27/12 A3012 RMK AO2 SLP197 T02670122
","Portland, Oregon, United States",2021-05-31 20:15:43 UTC
khio_twr_pri,http://d.liveatc.net/khio_twr_pri,KHIO Tower (Primary),US-Class-D,"KHIO 311953Z 07004KT 10SM CLR 27/12 A3012 RMK AO2 SLP197 T02670122
","Portland, Oregon, United States",2021-05-31 20:15:43 UTC
khky2_asos,http://d.liveatc.net/khky2_asos,KHKY ASOS,US-Class-D,"KHKY 311953Z 19004KT 10SM BKN043 22/13 A3029 RMK AO2 SLP242 T02170128
","Hickory, North Carolina, United States",2021-05-31 20:15:43 UTC
khky2_del,http://d.liveatc.net/khky2_del,KHKY Clearance Delivery (ZTL),US-Class-D,"KHKY 311953Z 19004KT 10SM BKN043 22/13 A3029 RMK AO2 SLP242 T02170128
","Hickory, North Carolina, United States",2021-05-31 20:15:43 UTC
khky2_guard,http://d.liveatc.net/khky2_guard,KHKY Emergency/Guard,US-Class-D,"KHKY 311953Z 19004KT 10SM BKN043 22/13 A3029 RMK AO2 SLP242 T02170128
","Hickory, North Carolina, United States",2021-05-31 20:15:43 UTC
khky2_gnd,http://d.liveatc.net/khky2_gnd,KHKY Ground,US-Class-D,"KHKY 311953Z 19004KT 10SM BKN043 22/13 A3029 RMK AO2 SLP242 T02170128
","Hickory, North Carolina, United States",2021-05-31 20:15:43 UTC
khky2_twr,http://d.liveatc.net/khky2_twr,KHKY Tower,US-Class-D,"KHKY 311953Z 19004KT 10SM BKN043 22/13 A3029 RMK AO2 SLP242 T02170128
","Hickory, North Carolina, United States",2021-05-31 20:15:43 UTC
khnd_atis,http://d.liveatc.net/khnd_atis,KHND ATIS,US-Class-D,"KHND 311956Z 13006KT 10SM CLR 36/M07 A2996 RMK AO2 SLP128 T03561067
","Las Vegas, Nevada, United States",2021-05-31 20:15:43 UTC
khnd,http://d.liveatc.net/khnd,KHND Ground/Tower,US-Class-D,"KHND 311956Z 13006KT 10SM CLR 36/M07 A2996 RMK AO2 SLP128 T03561067
","Las Vegas, Nevada, United States",2021-05-31 20:15:43 UTC
khpn_atis2,http://d.liveatc.net/khpn_atis2,KHPN ATIS,US-Class-D,"KHPN 311956Z 32009KT 10SM BKN034 BKN045 18/11 A3018 RMK AO2 SLP218 T01780106
","White Plains, New York, United States",2021-05-31 20:15:43 UTC
khpn2_del_gnd_twr,http://d.liveatc.net/khpn2_del_gnd_twr,KHPN Del/Gnd/Tower #1,US-Class-D,"KHPN 311956Z 32009KT 10SM BKN034 BKN045 18/11 A3018 RMK AO2 SLP218 T01780106
","White Plains, New York, United States",2021-05-31 20:15:43 UTC
khpn_del_gnd_twr,http://d.liveatc.net/khpn_del_gnd_twr,KHPN Del/Gnd/Tower #2,US-Class-D,"KHPN 311956Z 32009KT 10SM BKN034 BKN045 18/11 A3018 RMK AO2 SLP218 T01780106
","White Plains, New York, United States",2021-05-31 20:15:43 UTC
khpn_del_gnd,http://d.liveatc.net/khpn_del_gnd,KHPN Delivery/Ground,US-Class-D,"KHPN 311956Z 32009KT 10SM BKN034 BKN045 18/11 A3018 RMK AO2 SLP218 T01780106
","White Plains, New York, United States",2021-05-31 20:15:43 UTC
khpn_twr,http://d.liveatc.net/khpn_twr,KHPN Tower,US-Class-D,"KHPN 311956Z 32009KT 10SM BKN034 BKN045 18/11 A3018 RMK AO2 SLP218 T01780106
","New York, New York, United States",2021-05-31 20:15:43 UTC
khpn_twr,http://d.liveatc.net/khpn_twr,KHPN Tower,US-Class-D,"KHPN 311956Z 32009KT 10SM BKN034 BKN045 18/11 A3018 RMK AO2 SLP218 T01780106
","New York, New York, United States",2021-05-31 20:15:43 UTC
khpn2,http://d.liveatc.net/khpn2,NY Approach (NOBBI/NYACK/HAARP),US-Class-D,"KHPN 311956Z 32009KT 10SM BKN034 BKN045 18/11 A3018 RMK AO2 SLP218 T01780106
","New York, New York, United States",2021-05-31 20:15:43 UTC
khrl2,http://d.liveatc.net/khrl2,KHRL Gnd/Twr/App,US-Class-D,"KHRL 311952Z 15016KT 10SM SCT038 SCT047 32/24 A2996 RMK AO2 SLP144 T03170244
","Harlingen, Texas, United States",2021-05-31 20:15:43 UTC
khro,http://d.liveatc.net/khro,KHRO CTAF/ZME/Misc,US-Class-D,"KHRO 311953Z AUTO 15004KT 10SM BKN032 19/12 A3022 RMK AO2 SLP228 T01940117
","Harrison, Arkansas, United States",2021-05-31 20:15:43 UTC
khsd2,http://d.liveatc.net/khsd2,KHSD CTAF,US-Class-D,KHSD Airport Info,"Oklahoma City, Oklahoma, United States",2021-05-31 20:15:43 UTC
khul_asos,http://d.liveatc.net/khul_asos,KHUL ASOS,US-Class-D,"KHUL 311953Z AUTO 01005KT 10SM -RA OVC007 12/11 A3008 RMK AO2 RAB22 CIG 005V012 SLP189 P0000 T01220106
","Houlton, Maine, United States",2021-05-31 20:15:43 UTC
khul,http://d.liveatc.net/khul,KHUL/KPQI/ZBW01/15,US-Class-D,"KHUL 311953Z AUTO 01005KT 10SM -RA OVC007 12/11 A3008 RMK AO2 RAB22 CIG 005V012 SLP189 P0000 T01220106
","Houlton, Maine, United States",2021-05-31 20:15:43 UTC
khut,http://d.liveatc.net/khut,KHUT Ground/Twr,US-Class-D,"KHUT 311952Z 10007KT 10SM BKN009 OVC012 17/15 A3017 RMK AO2 CIG 006V012 SLP202 T01720150
","Hutchinson, Kansas, United States",2021-05-31 20:15:43 UTC
khvn,http://d.liveatc.net/khvn,KHVN Ground/Tower,US-Class-D,"KHVN 311953Z 31008G16KT 280V340 10SM BKN032 OVC038 17/10 A3016 RMK AO2 SLP213 T01670100
","New Haven, Connecticut, United States",2021-05-31 20:15:43 UTC
khwd,http://d.liveatc.net/khwd,KHWD Ground/Tower,US-Class-D,"KHWD 311954Z 28010KT 10SM CLR 26/14 A2990 RMK AO2 SLP133 T02610139
","Hayward, California, United States",2021-05-31 20:15:43 UTC
khwo2_atis,http://d.liveatc.net/khwo2_atis,KHWO ATIS,US-Class-D,"KHWO 311953Z 06017KT 10SM FEW023 29/20 A3012 RMK AO2 SLP198 T02890200 $
","Hollywood, Florida, United States",2021-05-31 20:15:43 UTC
khwo2_gnd,http://d.liveatc.net/khwo2_gnd,KHWO Ground,US-Class-D,"KHWO 311953Z 06017KT 10SM FEW023 29/20 A3012 RMK AO2 SLP198 T02890200 $
","Hollywood, Florida, United States",2021-05-31 20:15:43 UTC
khwo2_twr,http://d.liveatc.net/khwo2_twr,KHWO Tower (Both),US-Class-D,"KHWO 311953Z 06017KT 10SM FEW023 29/20 A3012 RMK AO2 SLP198 T02890200 $
","Hollywood, Florida, United States",2021-05-31 20:15:43 UTC
khwo2_twr2,http://d.liveatc.net/khwo2_twr2,KHWO Tower (Secondary),US-Class-D,"KHWO 311953Z 06017KT 10SM FEW023 29/20 A3012 RMK AO2 SLP198 T02890200 $
","Hollywood, Florida, United States",2021-05-31 20:15:43 UTC
khwv,http://d.liveatc.net/khwv,KHWV CTAF,US-Class-D,"KHWV 311956Z AUTO 30010KT 10SM OVC036 17/09 A3018 RMK AO2 SLP221 T01670089
","Shirley, New York, United States",2021-05-31 20:15:43 UTC
khxd,http://d.liveatc.net/khxd,KHXD Ground/Tower,US-Class-D,"KHXD 311850Z 06009G15KT 10SM CLR 24/15 A3028
","Hilton Head Island, South Carolina, United States",2021-05-31 20:15:43 UTC
khya2_arinc,http://d.liveatc.net/khya2_arinc,ARINC Oceanic,US-Class-D,"KHYA 311956Z 35005KT 5SM BR OVC007 13/11 A3008 RMK AO2 SLP188 T01330111
","Hyannis, Massachusetts, United States",2021-05-31 20:15:43 UTC
kfmh1_app,http://d.liveatc.net/kfmh1_app,Boston Approach (Cape North),US-Class-D,"KFMH 311950Z 28006KT 6SM BR OVC006 14/13 A3010
","Hyannis, Massachusetts, United States",2021-05-31 20:15:43 UTC
khya2_atis,http://d.liveatc.net/khya2_atis,KHYA ATIS,US-Class-D,"KHYA 311956Z 35005KT 5SM BR OVC007 13/11 A3008 RMK AO2 SLP188 T01330111
","Hyannis, Massachusetts, United States",2021-05-31 20:15:43 UTC
khya2_del_gnd,http://d.liveatc.net/khya2_del_gnd,KHYA Del/Gnd,US-Class-D,"KHYA 311956Z 35005KT 5SM BR OVC007 13/11 A3008 RMK AO2 SLP188 T01330111
","Hyannis, Massachusetts, United States",2021-05-31 20:15:43 UTC
khya2_del_gnd_twr,http://d.liveatc.net/khya2_del_gnd_twr,KHYA Del/Gnd/Twr,US-Class-D,"KHYA 311956Z 35005KT 5SM BR OVC007 13/11 A3008 RMK AO2 SLP188 T01330111
","Hyannis, Massachusetts, United States",2021-05-31 20:15:43 UTC
khya2_121500,http://d.liveatc.net/khya2_121500,KHYA Emergency/Guard,US-Class-D,"KHYA 311956Z 35005KT 5SM BR OVC007 13/11 A3008 RMK AO2 SLP188 T01330111
","Hyannis, Massachusetts, United States",2021-05-31 20:15:43 UTC
khya2_twr,http://d.liveatc.net/khya2_twr,KHYA Tower,US-Class-D,"KHYA 311956Z 35005KT 5SM BR OVC007 13/11 A3008 RMK AO2 SLP188 T01330111
","Hyannis, Massachusetts, United States",2021-05-31 20:15:43 UTC
khyi1,http://d.liveatc.net/khyi1,KHYI Gnd/Twr/Misc,US-Class-D,"KHYI 311956Z 14013KT 10SM FEW037 30/22 A3000 RMK AO2 SLP148 T03000217
","Austin, Texas, United States",2021-05-31 20:15:43 UTC
khys2,http://d.liveatc.net/khys2,KHYS CTAF,US-Class-D,,"Hays, Kansas, United States",2021-05-31 20:15:43 UTC
kiag2,http://d.liveatc.net/kiag2,KIAG Del/Gnd/Twr,US-Class-D,"KIAG 311953Z 21015KT 10SM CLR 21/06 A3024 RMK AO2 SLP243 T02110056 $
","Niagara Falls, New York, United States",2021-05-31 20:15:43 UTC
kifp2_twr,http://d.liveatc.net/kifp2_twr,KIFP Tower,US-Class-D,"KIFP 311947Z 21006KT 20SM SCT080 37/M01 A2983
","Bullhead City, Arizona, United States",2021-05-31 20:15:43 UTC
kikv2,http://d.liveatc.net/kikv2,KIKV Del/CTAF,US-Class-D,"KIKV 311955Z AUTO VRB06KT 10SM CLR 22/10 A3021 RMK AO2
","Ankeny, Iowa, United States",2021-05-31 20:15:43 UTC
kilm2_gnd_twr_app,http://d.liveatc.net/kilm2_gnd_twr_app,KILM Gnd/Twr/App,US-Class-D,"KILM 311953Z VRB06KT 10SM CLR 25/13 A3027 RMK AO2 SLP250 T02500128
","Wilmington, North Carolina, United States",2021-05-31 20:15:43 UTC
kilm2_s,http://d.liveatc.net/kilm2_s,KILM Gnd/Twr/App/ZDC,US-Class-D,"KILM 311953Z VRB06KT 10SM CLR 25/13 A3027 RMK AO2 SLP250 T02500128
","Wilmington, North Carolina, United States",2021-05-31 20:15:43 UTC
kinf2,http://d.liveatc.net/kinf2,KINF CTAF,US-Class-D,"KINF 311955Z AUTO 08007KT 7SM SCT060 SCT070 SCT080 31/19 A3014 RMK AO2
","Inverness, Florida, United States",2021-05-31 20:15:43 UTC
kcid,http://d.liveatc.net/kcid,KCID Gnd/Twr/App/KIOW,US-Class-D,"KCID 311952Z VRB05KT 10SM FEW047 20/09 A3020 RMK AO2 SLP226 T02000094
","Iowa City, Iowa, United States",2021-05-31 20:15:43 UTC
kipj,http://d.liveatc.net/kipj,KIPJ CTAF/Del,US-Class-D,"KIPJ 311955Z AUTO 00000KT 10SM CLR 23/10 A3030 RMK AO2 T02250101
","Lincolnton, North Carolina, United States",2021-05-31 20:15:43 UTC
kjsm_gnd,http://d.liveatc.net/kjsm_gnd,KISM Del/Gnd,US-Class-D,KJSM Airport Info,"Orlando, Florida, United States",2021-05-31 20:15:43 UTC
kjsm,http://d.liveatc.net/kjsm,KISM Del/Gnd/Twr,US-Class-D,KJSM Airport Info,"Orlando, Florida, United States",2021-05-31 20:15:43 UTC
kjsm_twr,http://d.liveatc.net/kjsm_twr,KISM Tower,US-Class-D,KJSM Airport Info,"Orlando, Florida, United States",2021-05-31 20:15:43 UTC
kiua1_ctaf,http://d.liveatc.net/kiua1_ctaf,KIUA CTAF,US-Class-D,"KIUA 311955Z AUTO 30006KT 10SM CLR 23/07 A3022 RMK AO2 T02270069
","Canandaigua, New York, United States",2021-05-31 20:15:43 UTC
kiwa1_atis,http://d.liveatc.net/kiwa1_atis,KIWA ATIS,US-Class-D,"KIWA 311955Z 24012KT 10SM FEW200 35/03 A2991
","Phoenix, Arizona, United States",2021-05-31 20:15:43 UTC
kiwa1_del,http://d.liveatc.net/kiwa1_del,KIWA Clearance Delivery,US-Class-D,"KIWA 311955Z 24012KT 10SM FEW200 35/03 A2991
","Phoenix, Arizona, United States",2021-05-31 20:15:43 UTC
kiwa1_gnd,http://d.liveatc.net/kiwa1_gnd,KIWA Ground,US-Class-D,"KIWA 311955Z 24012KT 10SM FEW200 35/03 A2991
","Phoenix, Arizona, United States",2021-05-31 20:15:43 UTC
kiwa1_twr,http://d.liveatc.net/kiwa1_twr,KIWA Tower,US-Class-D,"KIWA 311955Z 24012KT 10SM FEW200 35/03 A2991
","Phoenix, Arizona, United States",2021-05-31 20:15:43 UTC
kixd_atis,http://d.liveatc.net/kixd_atis,KIXD ASOS/ATIS,US-Class-D,"KIXD 311953Z VRB03KT 10SM BKN017 BKN090 OVC110 18/13 A3022 RMK AO2 RAE1858 SLP229 P0000 T01830133
","Olathe, Kansas, United States",2021-05-31 20:15:43 UTC
kixd_gnd_twr,http://d.liveatc.net/kixd_gnd_twr,KIXD Ground/Tower/K34,US-Class-D,"KIXD 311953Z VRB03KT 10SM BKN017 BKN090 OVC110 18/13 A3022 RMK AO2 RAE1858 SLP229 P0000 T01830133
","Olathe, Kansas, United States",2021-05-31 20:15:43 UTC
kjln2_atis,http://d.liveatc.net/kjln2_atis,KJLN ATIS,US-Class-D,"KJLN 311953Z 16005KT 10SM FEW046 BKN100 OVC120 18/13 A3021 RMK AO2 RAB40E52 SLP224 P0000 T01830133
","Joplin, Missouri, United States",2021-05-31 20:15:43 UTC
kjln2_gnd,http://d.liveatc.net/kjln2_gnd,KJLN Ground,US-Class-D,"KJLN 311953Z 16005KT 10SM FEW046 BKN100 OVC120 18/13 A3021 RMK AO2 RAB40E52 SLP224 P0000 T01830133
","Joplin, Missouri, United States",2021-05-31 20:15:43 UTC
kjln2_gnd_twr,http://d.liveatc.net/kjln2_gnd_twr,KJLN Ground/Tower,US-Class-D,"KJLN 311953Z 16005KT 10SM FEW046 BKN100 OVC120 18/13 A3021 RMK AO2 RAB40E52 SLP224 P0000 T01830133
","Joplin, Missouri, United States",2021-05-31 20:15:43 UTC
kjln2_twr,http://d.liveatc.net/kjln2_twr,KJLN Tower,US-Class-D,"KJLN 311953Z 16005KT 10SM FEW046 BKN100 OVC120 18/13 A3021 RMK AO2 RAB40E52 SLP224 P0000 T01830133
","Joplin, Missouri, United States",2021-05-31 20:15:43 UTC
kjnx2,http://d.liveatc.net/kjnx2,KJNX AWOS,US-Class-D,"KJNX 311955Z AUTO 02003KT 10SM BKN047 23/11 A3029 RMK AO2
","Smithfield, North Carolina, United States",2021-05-31 20:15:43 UTC
kjnx,http://d.liveatc.net/kjnx,KJNX CTAF,US-Class-D,"KJNX 311955Z AUTO 02003KT 10SM BKN047 23/11 A3029 RMK AO2
","Smithfield, North Carolina, United States",2021-05-31 20:15:43 UTC
kjqf,http://d.liveatc.net/kjqf,KJQF Ground/Tower,US-Class-D,"KJQF 311950Z 01003KT 10SM BKN049 23/09 A3032
","Concord, North Carolina, United States",2021-05-31 20:15:43 UTC
kjra1_ctaf,http://d.liveatc.net/kjra1_ctaf,KJRA/KJRB CTAF #1,US-Class-D,KJRA Airport Info,"New York, New York, United States",2021-05-31 20:15:43 UTC
jfk118_kjra,http://d.liveatc.net/jfk118_kjra,KJRA/KJRB CTAF #2,US-Class-D,,"New York, New York, United States",2021-05-31 20:15:43 UTC
kjra1_ctaf,http://d.liveatc.net/kjra1_ctaf,KJRA/KJRB CTAF,US-Class-D,KJRA Airport Info,"New York, New York, United States",2021-05-31 20:15:43 UTC
kjwy2,http://d.liveatc.net/kjwy2,KJWY/2TS6 CTAF/Unicom,US-Class-D,"KJWY 311955Z AUTO 12005KT 10SM BKN026 OVC033 25/21 A3005 RMK AO2 T02510205
","Midlothian/Waxahachie, Texas, United States",2021-05-31 20:15:43 UTC
kjyo1_awos,http://d.liveatc.net/kjyo1_awos,KJYO AWOS,US-Class-D,"KJYO 311955Z AUTO 32007KT 10SM CLR 21/08 A3027 RMK AO2
","Leesburg, Virginia, United States",2021-05-31 20:15:43 UTC
kjyo1_twr_ctaf,http://d.liveatc.net/kjyo1_twr_ctaf,KJYO CTAF/Tower,US-Class-D,"KJYO 311955Z AUTO 32007KT 10SM CLR 21/08 A3027 RMK AO2
","Leesburg, Virginia, United States",2021-05-31 20:15:43 UTC
kjyo1_del_gnd,http://d.liveatc.net/kjyo1_del_gnd,KJYO Del/Gnd,US-Class-D,"KJYO 311955Z AUTO 32007KT 10SM CLR 21/08 A3027 RMK AO2
","Leesburg, Virginia, United States",2021-05-31 20:15:43 UTC
kjyo1_s,http://d.liveatc.net/kjyo1_s,KJYO Del/Gnd/Twr/CTAF,US-Class-D,"KJYO 311955Z AUTO 32007KT 10SM CLR 21/08 A3027 RMK AO2
","Leesburg, Virginia, United States",2021-05-31 20:15:43 UTC
kiad2_5,http://d.liveatc.net/kiad2_5,ZDC Sectors 12/04,US-Class-D,"KIAD 311952Z 30007KT 10SM FEW050 FEW250 23/08 A3026 RMK AO2 SLP245 T02280083
","Leesburg, Virginia, United States",2021-05-31 20:15:43 UTC
klaf1_app,http://d.liveatc.net/klaf1_app,KLAF App/Dep,US-Class-D,"KLAF 311954Z 10SM CLR 24/09 A3025 RMK AO2 SLP239 T02390089
","Lafayette, Indiana, United States",2021-05-31 20:15:43 UTC
klaf1_atis,http://d.liveatc.net/klaf1_atis,KLAF ATIS,US-Class-D,"KLAF 311954Z 10SM CLR 24/09 A3025 RMK AO2 SLP239 T02390089
","Lafayette, Indiana, United States",2021-05-31 20:15:43 UTC
klaf1_gnd,http://d.liveatc.net/klaf1_gnd,KLAF Ground,US-Class-D,"KLAF 311954Z 10SM CLR 24/09 A3025 RMK AO2 SLP239 T02390089
","Lafayette, Indiana, United States",2021-05-31 20:15:43 UTC
klaf,http://d.liveatc.net/klaf,KLAF Tower,US-Class-D,"KLAF 311954Z 10SM CLR 24/09 A3025 RMK AO2 SLP239 T02390089
","Lafayette, Indiana, United States",2021-05-31 20:15:43 UTC
klal_app_dep,http://d.liveatc.net/klal_app_dep,KLAL Approach/Departure,US-Class-D,"KLAL 311950Z 08007KT 10SM SCT050 31/18 A3013
","Lakeland, Florida, United States",2021-05-31 20:15:43 UTC
klal_atis,http://d.liveatc.net/klal_atis,KLAL ATIS,US-Class-D,"KLAL 311950Z 08007KT 10SM SCT050 31/18 A3013
","Lakeland, Florida, United States",2021-05-31 20:15:43 UTC
klal_gnd,http://d.liveatc.net/klal_gnd,KLAL Ground/Advisory,US-Class-D,"KLAL 311950Z 08007KT 10SM SCT050 31/18 A3013
","Lakeland, Florida, United States",2021-05-31 20:15:43 UTC
klal_twr,http://d.liveatc.net/klal_twr,KLAL Tower,US-Class-D,"KLAL 311950Z 08007KT 10SM SCT050 31/18 A3013
","Lakeland, Florida, United States",2021-05-31 20:15:43 UTC
klal_air,http://d.liveatc.net/klal_air,Sun 'n Fun Air Show/Dep/Misc,US-Class-D,"KLAL 311950Z 08007KT 10SM SCT050 31/18 A3013
","Lakeland, Florida, United States",2021-05-31 20:15:43 UTC
klbe1,http://d.liveatc.net/klbe1,KLBE Ground/Tower,US-Class-D,"KLBE 311945Z VRB05KT 15SM CLR 19/06 A3029
","Latrobe, Pennsylvania, United States",2021-05-31 20:15:43 UTC
klbx,http://d.liveatc.net/klbx,KLBX CTAF,US-Class-D,"KLBX 311953Z AUTO 12012G21KT 10SM BKN026 BKN034 28/22 A3006 RMK AO2 SLP178 T02830222
","Angleton/Lake Jackson, Texas, United States",2021-05-31 20:15:43 UTC
klci_awos,http://d.liveatc.net/klci_awos,KLCI AWOS,US-Class-D,"KLCI 311956Z AUTO 27006KT 10SM OVC022 14/11 A3009 RMK AO2 SLP189 T01390106 PNO $
","Laconia, New Hampshire, United States",2021-05-31 20:15:43 UTC
klci_del,http://d.liveatc.net/klci_del,KLCI Clearance Delivery,US-Class-D,"KLCI 311956Z AUTO 27006KT 10SM OVC022 14/11 A3009 RMK AO2 SLP189 T01390106 PNO $
","Laconia, New Hampshire, United States",2021-05-31 20:15:43 UTC
klci,http://d.liveatc.net/klci,KLCI Del/CTAF,US-Class-D,"KLCI 311956Z AUTO 27006KT 10SM OVC022 14/11 A3009 RMK AO2 SLP189 T01390106 PNO $
","Laconia, New Hampshire, United States",2021-05-31 20:15:43 UTC
kjra1_kldj,http://d.liveatc.net/kjra1_kldj,KLDJ CTAF,US-Class-D,KJRA Airport Info,"Linden, New Jersey, United States",2021-05-31 20:15:43 UTC
klee1_app,http://d.liveatc.net/klee1_app,KLEE App/Dep,US-Class-D,"KLEE 311953Z 06012KT 10SM CLR 31/18 A3015 RMK AO2 SLP210 T03110183
","Leesburg, Florida, United States",2021-05-31 20:15:43 UTC
klee1_asos,http://d.liveatc.net/klee1_asos,KLEE ASOS,US-Class-D,"KLEE 311953Z 06012KT 10SM CLR 31/18 A3015 RMK AO2 SLP210 T03110183
","Leesburg, Florida, United States",2021-05-31 20:15:43 UTC
klee1_gnd,http://d.liveatc.net/klee1_gnd,KLEE Ground,US-Class-D,"KLEE 311953Z 06012KT 10SM CLR 31/18 A3015 RMK AO2 SLP210 T03110183
","Leesburg, Florida, United States",2021-05-31 20:15:43 UTC
klee1_twr,http://d.liveatc.net/klee1_twr,KLEE Tower,US-Class-D,"KLEE 311953Z 06012KT 10SM CLR 31/18 A3015 RMK AO2 SLP210 T03110183
","Leesburg, Florida, United States",2021-05-31 20:15:43 UTC
klfi,http://d.liveatc.net/klfi,KLFI Del/Gnd/Twr,US-Class-D,"KLFI 311856Z AUTO 08007KT 9SM BKN045 21/12 A3029 RMK AO2 SLP264 T02100121 $
","Hampton, Virginia, United States",2021-05-31 20:15:43 UTC
klgb_del,http://d.liveatc.net/klgb_del,KLGB Clearance Delivery,US-Class-D,"KLGB 311953Z 23007KT 10SM BKN017 19/13 A2996 RMK AO2 SLP145 T01940133
","Long Beach, California, United States",2021-05-31 20:15:43 UTC
klgb_gnd,http://d.liveatc.net/klgb_gnd,KLGB Ground,US-Class-D,"KLGB 311953Z 23007KT 10SM BKN017 19/13 A2996 RMK AO2 SLP145 T01940133
","Long Beach, California, United States",2021-05-31 20:15:43 UTC
klgb_twr,http://d.liveatc.net/klgb_twr,KLGB Tower,US-Class-D,"KLGB 311953Z 23007KT 10SM BKN017 19/13 A2996 RMK AO2 SLP145 T01940133
","Long Beach, California, United States",2021-05-31 20:15:43 UTC
kcco1_122975,http://d.liveatc.net/kcco1_122975,KCTJ/KLGC CTAF,US-Class-D,"KCCO 311935Z AUTO 16008KT 10SM SCT050 27/10 A3026 RMK AO2 T02670099
","LaGrange, Georgia, United States",2021-05-31 20:15:43 UTC
klhz,http://d.liveatc.net/klhz,KLHZ CTAF,US-Class-D,"KLHZ 311955Z AUTO 28007KT 10SM BKN047 22/11 A3032 RMK AO2
","Louisburg, North Carolina, United States",2021-05-31 20:15:43 UTC
kden1_8,http://d.liveatc.net/kden1_8,KFTG/KEIK/KBDU/KLMO/Misc,US-Class-D,"KDEN 311953Z 04004KT 10SM SCT025 SCT033 BKN047 14/09 A3028 RMK AO2 SLP217 T01390089
","Longmont, Colorado, United States",2021-05-31 20:15:43 UTC
klmo,http://d.liveatc.net/klmo,KLMO CTAF,US-Class-D,"KLMO 311955Z AUTO 00000KT 5SM HZ SCT039 BKN048 OVC060 16/10 A3030 RMK AO2 T01570096
","Longmont, Colorado, United States",2021-05-31 20:15:43 UTC
kpbi2_klna,http://d.liveatc.net/kpbi2_klna,KLNA CTAF,US-Class-D,"KPBI 311953Z 06014KT 10SM SCT022 SCT180 BKN250 30/21 A3012 RMK AO2 SLP199 T03000211
","West Palm Beach, Florida, United States",2021-05-31 20:15:43 UTC
klns_gnd_twr,http://d.liveatc.net/klns_gnd_twr,KLNS Ground/Tower,US-Class-D,"KLNS 311953Z 29010G17KT 10SM CLR 23/07 A3022 RMK AO2 SLP231 T02330067
","Lancaster, Pennsylvania, United States",2021-05-31 20:15:43 UTC
klns_twr,http://d.liveatc.net/klns_twr,KLNS Tower,US-Class-D,"KLNS 311953Z 29010G17KT 10SM CLR 23/07 A3022 RMK AO2 SLP231 T02330067
","Lancaster, Pennsylvania, United States",2021-05-31 20:15:43 UTC
klou_atis,http://d.liveatc.net/klou_atis,KLOU ATIS,US-Class-D,"KLOU 311953Z VRB05KT 10SM CLR 24/09 A3024 RMK AO2 SLP239 T02390094
","Louisville, Kentucky, United States",2021-05-31 20:15:43 UTC
klou_del_gnd,http://d.liveatc.net/klou_del_gnd,KLOU Del/Gnd,US-Class-D,"KLOU 311953Z VRB05KT 10SM CLR 24/09 A3024 RMK AO2 SLP239 T02390094
","Louisville, Kentucky, United States",2021-05-31 20:15:43 UTC
klou1_s,http://d.liveatc.net/klou1_s,KLOU Del/Gnd/Twr,US-Class-D,"KLOU 311953Z VRB05KT 10SM CLR 24/09 A3024 RMK AO2 SLP239 T02390094
","Louisville, Kentucky, United States",2021-05-31 20:15:43 UTC
klou,http://d.liveatc.net/klou,KLOU Tower,US-Class-D,"KLOU 311953Z VRB05KT 10SM CLR 24/09 A3024 RMK AO2 SLP239 T02390094
","Louisville, Kentucky, United States",2021-05-31 20:15:43 UTC
klrd,http://d.liveatc.net/klrd,KLRD Ground/Tower,US-Class-D,"KLRD 311956Z 16012G19KT 10SM SCT046 OVC070 32/22 A2994 RMK AO2 SLP134 T03170217
","Laredo, Texas, United States",2021-05-31 20:15:43 UTC
kluk2,http://d.liveatc.net/kluk2,KLUK Twr/App/Dep,US-Class-D,"KLUK 311953Z 18009KT 10SM CLR 23/10 A3026 RMK AO2 SLP245 T02280100
","Cincinnati, Ohio, United States",2021-05-31 20:15:43 UTC
klvj1,http://d.liveatc.net/klvj1,KLVJ CTAF,US-Class-D,"KLVJ 311953Z AUTO 15012G20KT 10SM FEW027 FEW032 SCT043 29/21 A3008 RMK AO2 SLP185 T02940211
","Houston, Texas, United States",2021-05-31 20:15:43 UTC
klwm,http://d.liveatc.net/klwm,KLWM Ground/Tower,US-Class-D,"KLWM 311954Z 29005KT 10SM OVC026 16/11 A3010 RMK AO2 SLP192 T01560106
","Lawrence, Massachusetts, United States",2021-05-31 20:15:43 UTC
klws,http://d.liveatc.net/klws,KLWS Ground/Tower,US-Class-D,"KLWS 311956Z 03004KT 10SM CLR 29/01 A3011 RMK AO2 SLP188 T02940011
","Lewiston, Idaho, United States",2021-05-31 20:15:43 UTC
kojc2_2,http://d.liveatc.net/kojc2_2,KLXT/3GV CTAF,US-Class-D,"KOJC 311953Z 11003KT 10SM OVC019 18/14 A3022 RMK AO2 SLP227 T01780139
","Lee's Summit, Missouri, United States",2021-05-31 20:15:43 UTC
kojc2_1,http://d.liveatc.net/kojc2_1,KLXT/KMKC Area Helicopters,US-Class-D,"KOJC 311953Z 11003KT 10SM OVC019 18/14 A3022 RMK AO2 SLP227 T01780139
","Lee's Summit, Missouri, United States",2021-05-31 20:15:43 UTC
klxv,http://d.liveatc.net/klxv,KLXV CTAF,US-Class-D,"KLXV 311953Z AUTO 19016KT 10SM SCT080 OVC100 07/01 A3035 RMK AO2 SLP168 T00720006 $
","Leadville, Colorado, United States",2021-05-31 20:15:43 UTC
klyh2_gnd,http://d.liveatc.net/klyh2_gnd,KLYH Ground,US-Class-D,"KLYH 311954Z 00000KT 10SM CLR 22/10 A3030 RMK AO2 SLP255 T02170100
","Lynchburg, Virginia, United States",2021-05-31 20:15:43 UTC
klyh_roa_app,http://d.liveatc.net/klyh_roa_app,KLYH Roanoke Approach,US-Class-D,"KLYH 311954Z 00000KT 10SM CLR 22/10 A3030 RMK AO2 SLP255 T02170100
","Lynchburg, Virginia, United States",2021-05-31 20:15:43 UTC
klyh2_twr,http://d.liveatc.net/klyh2_twr,KLYH Tower,US-Class-D,"KLYH 311954Z 00000KT 10SM CLR 22/10 A3030 RMK AO2 SLP255 T02170100
","Lynchburg, Virginia, United States",2021-05-31 20:15:43 UTC
klzu4_app,http://d.liveatc.net/klzu4_app,Atlanta App/Dep (SAT-P),US-Class-D,"KLZU 311956Z 12005KT 10SM BKN047 BKN055 23/13 A3028 RMK AO2 SLP259 T02330128
","Lawrenceville, Georgia, United States",2021-05-31 20:15:43 UTC
klzu4_twr,http://d.liveatc.net/klzu4_twr,KLZU Tower,US-Class-D,"KLZU 311956Z 12005KT 10SM BKN047 BKN055 23/13 A3028 RMK AO2 SLP259 T02330128
","Lawrenceville, Georgia, United States",2021-05-31 20:15:43 UTC
kman,http://d.liveatc.net/kman,KMAN/KEUL CTAF,US-Class-D,"KMAN 311955Z AUTO 31009KT 10SM CLR 28/03 A3012 RMK A01
","Nampa, Idaho, United States",2021-05-31 20:15:43 UTC
kmcc,http://d.liveatc.net/kmcc,KMCC CTAF/Del/Gnd/Twr,US-Class-D,"KMCC 311955Z AUTO 31006KT 10SM CLR 35/09 A2985 RMK AO2
","Sacramento, California, United States",2021-05-31 20:15:43 UTC
korl_kmco_app_135300,http://d.liveatc.net/korl_kmco_app_135300,KMCO App/Dep (North Satellite),US-Class-D,"KORL 311953Z 07014KT 10SM FEW039 31/19 A3016 RMK AO2 SLP214 T03110194
","Orlando, Florida, United States",2021-05-31 20:15:43 UTC
kmaf2_kmdd_asos,http://d.liveatc.net/kmaf2_kmdd_asos,KMDD ASOS,US-Class-D,"KMAF 311953Z 08013G21KT 10SM VCTS BKN007 BKN027 OVC065 17/16 A3010 RMK AO2 LTG DSNT NE AND E RAE1854B06E21 CIG 005V009 SLP159 P0000 T01670161
","Midland, Texas, United States",2021-05-31 20:15:43 UTC
kmaf2_kmdd_del,http://d.liveatc.net/kmaf2_kmdd_del,KMDD Clearance Delivery,US-Class-D,"KMAF 311953Z 08013G21KT 10SM VCTS BKN007 BKN027 OVC065 17/16 A3010 RMK AO2 LTG DSNT NE AND E RAE1854B06E21 CIG 005V009 SLP159 P0000 T01670161
","Midland, Texas, United States",2021-05-31 20:15:43 UTC
kmaf2_kmdd_ctaf,http://d.liveatc.net/kmaf2_kmdd_ctaf,KMDD CTAF,US-Class-D,"KMAF 311953Z 08013G21KT 10SM VCTS BKN007 BKN027 OVC065 17/16 A3010 RMK AO2 LTG DSNT NE AND E RAE1854B06E21 CIG 005V009 SLP159 P0000 T01670161
","Midland, Texas, United States",2021-05-31 20:15:43 UTC
kmev,http://d.liveatc.net/kmev,KMEV CTAF/Unicom,US-Class-D,"KMEV 311955Z AUTO 23008KT 10SM CLR 29/M04 A3017 RMK AO2
","Minden, Nevada, United States",2021-05-31 20:15:43 UTC
kmfd1_atis,http://d.liveatc.net/kmfd1_atis,KMFD ATIS,US-Class-D,"KMFD 311952Z 30003KT 10SM CLR 23/06 A3028 RMK AO2 SLP251 T02280056
","Mansfield, Ohio, United States",2021-05-31 20:15:43 UTC
kmfe_app,http://d.liveatc.net/kmfe_app,KMFE App/Dep,US-Class-D,"KMFE 311953Z 14013G21KT 10SM SCT041 BKN060 32/22 A2996 RMK AO2 SLP143 T03220217
","Mc Allen, Texas, United States",2021-05-31 20:15:43 UTC
kmfe,http://d.liveatc.net/kmfe,KMFE Gnd/Twr,US-Class-D,"KMFE 311953Z 14013G21KT 10SM SCT041 BKN060 32/22 A2996 RMK AO2 SLP143 T03220217
","Mc Allen, Texas, United States",2021-05-31 20:15:43 UTC
kmfr_app,http://d.liveatc.net/kmfr_app,KMFR App/Dep,US-Class-D,"KMFR 311953Z 00000KT 10SM CLR 30/08 A3004 RMK AO2 SLP161 T03000078
","Medford, Oregon, United States",2021-05-31 20:15:43 UTC
kmfr_guard,http://d.liveatc.net/kmfr_guard,KMFR Emergency/Guard,US-Class-D,"KMFR 311953Z 00000KT 10SM CLR 30/08 A3004 RMK AO2 SLP161 T03000078
","Medford, Oregon, United States",2021-05-31 20:15:43 UTC
kmfr_gnd,http://d.liveatc.net/kmfr_gnd,KMFR Ground,US-Class-D,"KMFR 311953Z 00000KT 10SM CLR 30/08 A3004 RMK AO2 SLP161 T03000078
","Medford, Oregon, United States",2021-05-31 20:15:43 UTC
kmfr_gnd_twr,http://d.liveatc.net/kmfr_gnd_twr,KMFR Ground/Tower,US-Class-D,"KMFR 311953Z 00000KT 10SM CLR 30/08 A3004 RMK AO2 SLP161 T03000078
","Medford, Oregon, United States",2021-05-31 20:15:43 UTC
kryy1_atlapp_121000,http://d.liveatc.net/kryy1_atlapp_121000,Atlanta Approach (N. Sat),US-Class-D,"KRYY 311950Z 16004KT 10SM BKN049 24/13 A3028 RMK AO2 SLP971 T02440128 $
","Marietta, Georgia, United States",2021-05-31 20:15:43 UTC
kryy1_kmge_gnd,http://d.liveatc.net/kryy1_kmge_gnd,KMGE Ground,US-Class-D,"KRYY 311950Z 16004KT 10SM BKN049 24/13 A3028 RMK AO2 SLP971 T02440128 $
","Marietta, Georgia, United States",2021-05-31 20:15:43 UTC
kryy1_kmge_twr,http://d.liveatc.net/kryy1_kmge_twr,KMGE Tower,US-Class-D,"KRYY 311950Z 16004KT 10SM BKN049 24/13 A3028 RMK AO2 SLP971 T02440128 $
","Marietta, Georgia, United States",2021-05-31 20:15:43 UTC
kmgw1_asos,http://d.liveatc.net/kmgw1_asos,KMGW ASOS,US-Class-D,"KMGW 311953Z 30005KT 10SM SCT049 21/08 A3029 RMK AO2 SLP255 T02060078
","Morgantown, West Virginia, United States",2021-05-31 20:15:43 UTC
kmgw1_gnd,http://d.liveatc.net/kmgw1_gnd,KMGW Ground,US-Class-D,"KMGW 311953Z 30005KT 10SM SCT049 21/08 A3029 RMK AO2 SLP255 T02060078
","Morgantown, West Virginia, United States",2021-05-31 20:15:43 UTC
kmgw1_twr,http://d.liveatc.net/kmgw1_twr,KMGW Tower,US-Class-D,"KMGW 311953Z 30005KT 10SM SCT049 21/08 A3029 RMK AO2 SLP255 T02060078
","Morgantown, West Virginia, United States",2021-05-31 20:15:43 UTC
kmhr,http://d.liveatc.net/kmhr,KMHR Ground/Tower,US-Class-D,"KMHR 311950Z 00000KT 10SM SKC 34/09 A2985
","Sacramento, California, United States",2021-05-31 20:15:43 UTC
kmhr_norcal,http://d.liveatc.net/kmhr_norcal,NORCAL App (EXPO/127.4),US-Class-D,"KMHR 311950Z 00000KT 10SM SKC 34/09 A2985
","Sacramento, California, United States",2021-05-31 20:15:43 UTC
kmhv1_app_133650,http://d.liveatc.net/kmhv1_app_133650,KMHV App/Dep (133.65),US-Class-D,"KMHV 311940Z AUTO 07009KT 10SM CLR 34/M05 A2997 RMK A01
","Mojave, California, United States",2021-05-31 20:15:43 UTC
kmhv1_app,http://d.liveatc.net/kmhv1_app,KMHV App/Dep (All),US-Class-D,"KMHV 311940Z AUTO 07009KT 10SM CLR 34/M05 A2997 RMK A01
","Mojave, California, United States",2021-05-31 20:15:43 UTC
kmhv1_awos,http://d.liveatc.net/kmhv1_awos,KMHV AWOS,US-Class-D,"KMHV 311940Z AUTO 07009KT 10SM CLR 34/M05 A2997 RMK A01
","Mojave, California, United States",2021-05-31 20:15:43 UTC
kmhv1_local,http://d.liveatc.net/kmhv1_local,KMHV Ground/Tower,US-Class-D,"KMHV 311940Z AUTO 07009KT 10SM CLR 34/M05 A2997 RMK A01
","Mojave, California, United States",2021-05-31 20:15:43 UTC
kmic,http://d.liveatc.net/kmic,KMIC Tower/CTAF,US-Class-D,"KMIC 311953Z 26006KT 10SM FEW060 SCT075 BKN090 24/09 A3009 RMK AO2 SLP188 T02390089
","Minneapolis, Minnesota, United States",2021-05-31 20:15:43 UTC
kblm2,http://d.liveatc.net/kblm2,KBLM/N12/3N6/KMJX,US-Class-D,"KBLM 311956Z AUTO 30009KT 10SM BKN045 20/09 A3021 RMK AO2 SLP230 T02000094 PNO $
","Toms River, New Jersey, United States",2021-05-31 20:15:43 UTC
kmjx1,http://d.liveatc.net/kmjx1,KMJX CTAF,US-Class-D,,"Toms River, New Jersey, United States",2021-05-31 20:15:43 UTC
kojc2_1,http://d.liveatc.net/kojc2_1,KLXT/KMKC Area Helicopters,US-Class-D,"KOJC 311953Z 11003KT 10SM OVC019 18/14 A3022 RMK AO2 SLP227 T01780139
","Kansas City, Missouri, United States",2021-05-31 20:15:43 UTC
kmkc_atis,http://d.liveatc.net/kmkc_atis,KMKC ATIS,US-Class-D,"KMKC 311954Z 05003KT 10SM FEW015 BKN024 OVC032 18/14 A3021 RMK AO2 RAE44 SLP227 P0000 T01780139
","Kansas City, Missouri, United States",2021-05-31 20:15:43 UTC
kmkc_gnd,http://d.liveatc.net/kmkc_gnd,KMKC Ground,US-Class-D,"KMKC 311954Z 05003KT 10SM FEW015 BKN024 OVC032 18/14 A3021 RMK AO2 RAE44 SLP227 P0000 T01780139
","Kansas City, Missouri, United States",2021-05-31 20:15:43 UTC
kmkc_twr,http://d.liveatc.net/kmkc_twr,KMKC Tower,US-Class-D,"KMKC 311954Z 05003KT 10SM FEW015 BKN024 OVC032 18/14 A3021 RMK AO2 RAE44 SLP227 P0000 T01780139
","Kansas City, Missouri, United States",2021-05-31 20:15:43 UTC
kmkg3_app_n,http://d.liveatc.net/kmkg3_app_n,KMKG App/Dep (North),US-Class-D,"KMKG 311955Z 22008KT 10SM FEW160 BKN210 19/07 A3024 RMK AO2 SLP242 T01890067
","Muskegon, Michigan, United States",2021-05-31 20:15:43 UTC
kmkg3_app,http://d.liveatc.net/kmkg3_app,KMKG App/Dep (North/South),US-Class-D,"KMKG 311955Z 22008KT 10SM FEW160 BKN210 19/07 A3024 RMK AO2 SLP242 T01890067
","Muskegon, Michigan, United States",2021-05-31 20:15:43 UTC
kmkg3_app,http://d.liveatc.net/kmkg3_app,KMKG App/Dep (North/South),US-Class-D,"KMKG 311955Z 22008KT 10SM FEW160 BKN210 19/07 A3024 RMK AO2 SLP242 T01890067
","Muskegon, Michigan, United States",2021-05-31 20:15:43 UTC
kmkg3_app_s,http://d.liveatc.net/kmkg3_app_s,KMKG App/Dep (South),US-Class-D,"KMKG 311955Z 22008KT 10SM FEW160 BKN210 19/07 A3024 RMK AO2 SLP242 T01890067
","Muskegon, Michigan, United States",2021-05-31 20:15:43 UTC
kmkg3_atis,http://d.liveatc.net/kmkg3_atis,KMKG ATIS,US-Class-D,"KMKG 311955Z 22008KT 10SM FEW160 BKN210 19/07 A3024 RMK AO2 SLP242 T01890067
","Muskegon, Michigan, United States",2021-05-31 20:15:43 UTC
kmkg3_guard,http://d.liveatc.net/kmkg3_guard,KMKG Emergency/Guard,US-Class-D,"KMKG 311955Z 22008KT 10SM FEW160 BKN210 19/07 A3024 RMK AO2 SLP242 T01890067
","Muskegon, Michigan, United States",2021-05-31 20:15:43 UTC
kmkg3_all,http://d.liveatc.net/kmkg3_all,KMKG Gnd/Twr/App/Dep,US-Class-D,"KMKG 311955Z 22008KT 10SM FEW160 BKN210 19/07 A3024 RMK AO2 SLP242 T01890067
","Muskegon, Michigan, United States",2021-05-31 20:15:43 UTC
kmkg3_gnd,http://d.liveatc.net/kmkg3_gnd,KMKG Ground,US-Class-D,"KMKG 311955Z 22008KT 10SM FEW160 BKN210 19/07 A3024 RMK AO2 SLP242 T01890067
","Muskegon, Michigan, United States",2021-05-31 20:15:43 UTC
kmkg3_gnd_twr,http://d.liveatc.net/kmkg3_gnd_twr,KMKG Ground/Tower,US-Class-D,"KMKG 311955Z 22008KT 10SM FEW160 BKN210 19/07 A3024 RMK AO2 SLP242 T01890067
","Muskegon, Michigan, United States",2021-05-31 20:15:43 UTC
kmkg3_twr,http://d.liveatc.net/kmkg3_twr,KMKG Tower,US-Class-D,"KMKG 311955Z 22008KT 10SM FEW160 BKN210 19/07 A3024 RMK AO2 SLP242 T01890067
","Muskegon, Michigan, United States",2021-05-31 20:15:43 UTC
kmkg3_unicom,http://d.liveatc.net/kmkg3_unicom,KMKG UNICOM,US-Class-D,"KMKG 311955Z 22008KT 10SM FEW160 BKN210 19/07 A3024 RMK AO2 SLP242 T01890067
","Muskegon, Michigan, United States",2021-05-31 20:15:43 UTC
kmlb,http://d.liveatc.net/kmlb,KMLB Twr/App,US-Class-D,"KMLB 311953Z 07011KT 10SM CLR 28/18 A3016 RMK AO2 SLP211 T02830183 $
","Melbourne, Florida, United States",2021-05-31 20:15:43 UTC
kmmu2_atis2,http://d.liveatc.net/kmmu2_atis2,KMMU ATIS,US-Class-D,"KMMU 311951Z 31006G14KT 10SM SCT060 22/11 A3018
","Morristown, New Jersey, United States",2021-05-31 20:15:43 UTC
kmmu2_del,http://d.liveatc.net/kmmu2_del,KMMU Clearance Delivery,US-Class-D,"KMMU 311951Z 31006G14KT 10SM SCT060 22/11 A3018
","Morristown, New Jersey, United States",2021-05-31 20:15:43 UTC
kmmu2_gnd2,http://d.liveatc.net/kmmu2_gnd2,KMMU Ground,US-Class-D,"KMMU 311951Z 31006G14KT 10SM SCT060 22/11 A3018
","Morristown, New Jersey, United States",2021-05-31 20:15:43 UTC
kmmu2_twr,http://d.liveatc.net/kmmu2_twr,KMMU Tower #1,US-Class-D,"KMMU 311951Z 31006G14KT 10SM SCT060 22/11 A3018
","Morristown, New Jersey, United States",2021-05-31 20:15:43 UTC
kmmu3,http://d.liveatc.net/kmmu3,KMMU Tower #2,US-Class-D,"KMMU 311951Z 31006G14KT 10SM SCT060 22/11 A3018
","Morristown, New Jersey, United States",2021-05-31 20:15:43 UTC
kmmv2,http://d.liveatc.net/kmmv2,KMMV CTAF,US-Class-D,"KMMV 311953Z AUTO VRB03KT 10SM CLR 28/11 A3011 RMK AO2 SLP196 T02830106
","Mc Minnville, Oregon, United States",2021-05-31 20:15:43 UTC
kmqy1_del,http://d.liveatc.net/kmqy1_del,KMQY Clearance Delivery,US-Class-D,"KMQY 311956Z VRB06KT 10SM CLR 26/12 A3024 RMK AO2 SLP244 T02610122
","Smyrna, Tennessee, United States",2021-05-31 20:15:43 UTC
kmqy1_guard,http://d.liveatc.net/kmqy1_guard,KMQY Emergency/Guard,US-Class-D,"KMQY 311956Z VRB06KT 10SM CLR 26/12 A3024 RMK AO2 SLP244 T02610122
","Smyrna, Tennessee, United States",2021-05-31 20:15:43 UTC
kmqy1_gnd,http://d.liveatc.net/kmqy1_gnd,KMQY Ground,US-Class-D,"KMQY 311956Z VRB06KT 10SM CLR 26/12 A3024 RMK AO2 SLP244 T02610122
","Smyrna, Tennessee, United States",2021-05-31 20:15:43 UTC
kmqy1_gnd_twr,http://d.liveatc.net/kmqy1_gnd_twr,KMQY Ground/Tower,US-Class-D,"KMQY 311956Z VRB06KT 10SM CLR 26/12 A3024 RMK AO2 SLP244 T02610122
","Smyrna, Tennessee, United States",2021-05-31 20:15:43 UTC
kmqy1_twr,http://d.liveatc.net/kmqy1_twr,KMQY Tower,US-Class-D,"KMQY 311956Z VRB06KT 10SM CLR 26/12 A3024 RMK AO2 SLP244 T02610122
","Smyrna, Tennessee, United States",2021-05-31 20:15:43 UTC
kmrb1_atis,http://d.liveatc.net/kmrb1_atis,KMRB ATIS,US-Class-D,"KMRB 311953Z VRB03KT 10SM CLR 23/05 A3024 RMK AO2 SLP239 T02280050
","Martinsburg, West Virginia, United States",2021-05-31 20:15:43 UTC
kmrb1_gnd,http://d.liveatc.net/kmrb1_gnd,KMRB Del/Gnd,US-Class-D,"KMRB 311953Z VRB03KT 10SM CLR 23/05 A3024 RMK AO2 SLP239 T02280050
","Martinsburg, West Virginia, United States",2021-05-31 20:15:43 UTC
kmrb1_guard,http://d.liveatc.net/kmrb1_guard,KMRB Emergency/Guard,US-Class-D,"KMRB 311953Z VRB03KT 10SM CLR 23/05 A3024 RMK AO2 SLP239 T02280050
","Martinsburg, West Virginia, United States",2021-05-31 20:15:43 UTC
kmrb1_twr,http://d.liveatc.net/kmrb1_twr,KMRB Tower/CTAF,US-Class-D,"KMRB 311953Z VRB03KT 10SM CLR 23/05 A3024 RMK AO2 SLP239 T02280050
","Martinsburg, West Virginia, United States",2021-05-31 20:15:43 UTC
khky2_kmrn,http://d.liveatc.net/khky2_kmrn,KMRN CTAF,US-Class-D,"KHKY 311953Z 19004KT 10SM BKN043 22/13 A3029 RMK AO2 SLP242 T02170128
","Morganton, North Carolina, United States",2021-05-31 20:15:43 UTC
kmso,http://d.liveatc.net/kmso,KMSO Gnd/Twr/App/ZLC/ZSE,US-Class-D,"KMSO 311953Z 31007KT 10SM CLR 24/04 A3015 RMK AO2 SLP200 T02440044
","Missoula, Montana, United States",2021-05-31 20:15:43 UTC
kmtj2,http://d.liveatc.net/kmtj2,KMTJ CTAF/ZDV/Guard,US-Class-D,"KMTJ 311953Z AUTO 10SM CLR 23/01 A3014 RMK AO2 LTG DSNT SW SLP142 T02330006
","Montrose, Colorado, United States",2021-05-31 20:15:43 UTC
kmtn_gnd,http://d.liveatc.net/kmtn_gnd,KMTN Ground/Misc,US-Class-D,"KMTN 311955Z 35004KT 10SM CLR 23/06 A3025
","Baltimore, Maryland, United States",2021-05-31 20:15:43 UTC
kmtn_twr,http://d.liveatc.net/kmtn_twr,KMTN Tower,US-Class-D,"KMTN 311955Z 35004KT 10SM CLR 23/06 A3025
","Baltimore, Maryland, United States",2021-05-31 20:15:43 UTC
kmtw2,http://d.liveatc.net/kmtw2,KMTW CTAF,US-Class-D,"KMTW 311956Z AUTO 16010KT 10SM CLR 21/08 A3017 RMK AO2 SLP218 T02060078
","Manitowoc, Wisconsin, United States",2021-05-31 20:15:43 UTC
kmwa,http://d.liveatc.net/kmwa,KMWA Gnd/Twr/CTAF,US-Class-D,"KMWA 311945Z 26006KT 20SM CLR 23/11 A3023
","Marion, Illinois, United States",2021-05-31 20:15:43 UTC
kmke3_kmwc,http://d.liveatc.net/kmke3_kmwc,KMWC Gnd/Twr,US-Class-D,"KMKE 311952Z 22009G19KT 10SM FEW060 SCT085 BKN180 22/06 A3019 RMK AO2 SLP222 T02220056
","Milwaukee, Wisconsin, United States",2021-05-31 20:15:43 UTC
ksan_kmyf_atis,http://d.liveatc.net/ksan_kmyf_atis,KMYF ATIS,US-Class-D,"KSAN 311951Z 27006KT 10SM SCT021 20/12 A2997 RMK AO2 SLP148 T02000122
","San Diego, California, United States",2021-05-31 20:15:43 UTC
ksan_kmyf_gnd,http://d.liveatc.net/ksan_kmyf_gnd,KMYF Ground #2,US-Class-D,"KSAN 311951Z 27006KT 10SM SCT021 20/12 A2997 RMK AO2 SLP148 T02000122
","San Diego, California, United States",2021-05-31 20:15:43 UTC
kmyf1_twr,http://d.liveatc.net/kmyf1_twr,KMYF Tower,US-Class-D,"KMYF 311953Z 25009KT 10SM CLR 21/13 A2995 RMK AO2 SLP139 T02110128
","San Diego, California, United States",2021-05-31 20:15:43 UTC
ksan_kmyf_twr,http://d.liveatc.net/ksan_kmyf_twr,KMYF Tower (Primary),US-Class-D,"KSAN 311951Z 27006KT 10SM SCT021 20/12 A2997 RMK AO2 SLP148 T02000122
","San Diego, California, United States",2021-05-31 20:15:43 UTC
kblm1,http://d.liveatc.net/kblm1,KNEL/KWRI/ZNY,US-Class-D,"KBLM 311956Z AUTO 30009KT 10SM BKN045 20/09 A3021 RMK AO2 SLP230 T02000094 PNO $
","Lakehurst, New Jersey, United States",2021-05-31 20:15:43 UTC
kngp2_twr,http://d.liveatc.net/kngp2_twr,KNGP Tower,US-Class-D,"KNGP 311956Z AUTO 16015KT 10SM SCT023 SCT030 31/23 A3001 RMK AO2 SLP160 T03060228 TSNO $
","Corpus Christi, Texas, United States",2021-05-31 20:15:43 UTC
kngu1,http://d.liveatc.net/kngu1,KNGU Del/Gnd/Twr,US-Class-D,"KNGU 311959Z 07005KT 10SM SCT040 BKN200 22/12 A3029 RMK AO2 SLP258 T02170117 $
","Norfolk, Virginia, United States",2021-05-31 20:15:43 UTC
knkt1_app,http://d.liveatc.net/knkt1_app,KNKT App/Dep,US-Class-D,"KNKT 311954Z 11003KT 10SM SCT070 22/12 A3029 RMK AO2 SLP255 T02220122
","Cherry Point, North Carolina, United States",2021-05-31 20:15:43 UTC
knkt1_atis,http://d.liveatc.net/knkt1_atis,KNKT ATIS,US-Class-D,"KNKT 311954Z 11003KT 10SM SCT070 22/12 A3029 RMK AO2 SLP255 T02220122
","Cherry Point, North Carolina, United States",2021-05-31 20:15:43 UTC
knkt1_twr,http://d.liveatc.net/knkt1_twr,KNKT Del/Gnd/Twr,US-Class-D,"KNKT 311954Z 11003KT 10SM SCT070 22/12 A3029 RMK AO2 SLP255 T02220122
","Cherry Point, North Carolina, United States",2021-05-31 20:15:43 UTC
knkt1_sc,http://d.liveatc.net/knkt1_sc,KNKT Giant Killer/Misc,US-Class-D,"KNKT 311954Z 11003KT 10SM SCT070 22/12 A3029 RMK AO2 SLP255 T02220122
","Cherry Point, North Carolina, United States",2021-05-31 20:15:43 UTC
knkt1_gnd,http://d.liveatc.net/knkt1_gnd,KNKT Ground,US-Class-D,"KNKT 311954Z 11003KT 10SM SCT070 22/12 A3029 RMK AO2 SLP255 T02220122
","Cherry Point, North Carolina, United States",2021-05-31 20:15:43 UTC
knkx,http://d.liveatc.net/knkx,KNKX Del/Gnd/Twr,US-Class-D,"KNKX 311855Z VRB06KT 10SM CLR 22/12 A2995 RMK AO2 SLP136 T02170122 $
","San Diego, California, United States",2021-05-31 20:15:43 UTC
korf_gk,http://d.liveatc.net/korf_gk,KNTU Giant Killer,US-Class-D,"KORF 311951Z 02009KT 10SM FEW039 21/12 A3028 RMK AO2 SLP254 T02110117
","Virginia Beach, Virginia, United States",2021-05-31 20:15:43 UTC
kntu1,http://d.liveatc.net/kntu1,KNTU Gnd/Twr/App/Radar,US-Class-D,"KNTU 311956Z 33005KT 10SM FEW040 SCT200 BKN250 23/11 A3028 RMK AO2 SLP255 T02280111 $
","Virginia Beach, Virginia, United States",2021-05-31 20:15:43 UTC
knuq,http://d.liveatc.net/knuq,KNUQ Gnd/Twr,US-Class-D,"KNUQ 311955Z AUTO 32010KT 10SM CLR 25/13 A2990 RMK AO2
","Mountain View, California, United States",2021-05-31 20:15:43 UTC
knyl1_app,http://d.liveatc.net/knyl1_app,KNYL App/Dep,US-Class-D,"KNYL 311957Z AUTO 10SM CLR 35/04 A2987 RMK AO2 SLP110 T03500039 $
","Yuma, Arizona, United States",2021-05-31 20:15:43 UTC
knyl1_local,http://d.liveatc.net/knyl1_local,KNYL Del/Gnd/Twr,US-Class-D,"KNYL 311957Z AUTO 10SM CLR 35/04 A2987 RMK AO2 SLP110 T03500039 $
","Yuma, Arizona, United States",2021-05-31 20:15:43 UTC
koaj,http://d.liveatc.net/koaj,KOAJ Gnd/Twr,US-Class-D,"KOAJ 311956Z 35008KT 10SM FEW050 24/11 A3028 RMK AO2 SLP257 T02390111
","Jacksonville, North Carolina, United States",2021-05-31 20:15:43 UTC
kocf2,http://d.liveatc.net/kocf2,KOCF Gnd/Twr/App,US-Class-D,"KOCF 311951Z 08008KT 10SM SCT060 32/17 A3015 RMK AO2 SLP208 T03220167 $
","Ocala, Florida, United States",2021-05-31 20:15:43 UTC
kofp2_ctaf,http://d.liveatc.net/kofp2_ctaf,KOFP CTAF,US-Class-D,"KOFP 311954Z AUTO 25006KT 10SM FEW050 22/09 A3029 RMK AO2 SLP255 T02220089 $
","Richmond/Ashland, Virginia, United States",2021-05-31 20:15:43 UTC
kogb2,http://d.liveatc.net/kogb2,KOGB CTAF,US-Class-D,"KOGB 311953Z AUTO 06005KT 10SM BKN060 26/11 A3026 RMK AO2 SLP246 T02610106
","Orangeburg, South Carolina, United States",2021-05-31 20:15:43 UTC
kojc1_app,http://d.liveatc.net/kojc1_app,KOJC App/Dep,US-Class-D,"KOJC 311953Z 11003KT 10SM OVC019 18/14 A3022 RMK AO2 SLP227 T01780139
","Olathe, Kansas, United States",2021-05-31 20:15:43 UTC
kojc1_atis,http://d.liveatc.net/kojc1_atis,KOJC ATIS,US-Class-D,"KOJC 311953Z 11003KT 10SM OVC019 18/14 A3022 RMK AO2 SLP227 T01780139
","Olathe, Kansas, United States",2021-05-31 20:15:43 UTC
kojc1,http://d.liveatc.net/kojc1,KOJC Gnd/Twr,US-Class-D,"KOJC 311953Z 11003KT 10SM OVC019 18/14 A3022 RMK AO2 SLP227 T01780139
","Olathe, Kansas, United States",2021-05-31 20:15:43 UTC
kolm1_gnd_twr,http://d.liveatc.net/kolm1_gnd_twr,KOLM Ground/Tower,US-Class-D,"KOLM 311954Z 36006KT 10SM CLR 23/08 A3018 RMK AO2 SLP220 T02330078
","Olympia, Washington, United States",2021-05-31 20:15:43 UTC
kolm1_app,http://d.liveatc.net/kolm1_app,Seattle App/Dep,US-Class-D,"KOLM 311954Z 36006KT 10SM CLR 23/08 A3018 RMK AO2 SLP220 T02330078
","Olympia, Washington, United States",2021-05-31 20:15:43 UTC
kgdm,http://d.liveatc.net/kgdm,KGDM/KORE CTAF,US-Class-D,KGDM Airport Info,"Orange, Massachusetts, United States",2021-05-31 20:15:43 UTC
kmht_murp_122800,http://d.liveatc.net/kmht_murp_122800,MA/NH CTAF 122.8,US-Class-D,"KMHT 311953Z 32012G17KT 10SM OVC025 16/09 A3007 RMK AO2 SLP196 T01610089
","Orange, Massachusetts, United States",2021-05-31 20:15:43 UTC
kbos_area_ctaf,http://d.liveatc.net/kbos_area_ctaf,MA/NH/RI/CT Area CTAF,US-Class-D,"KBOS 311954Z 27006KT 10SM FEW015 OVC020 16/11 A3009 RMK AO2 SLP190 T01610106
","Orange, Massachusetts, United States",2021-05-31 20:15:43 UTC
kbos_area_ctaf,http://d.liveatc.net/kbos_area_ctaf,MA/NH/RI/CT Area CTAF,US-Class-D,"KBOS 311954Z 27006KT 10SM FEW015 OVC020 16/11 A3009 RMK AO2 SLP190 T01610106
","Orange, Massachusetts, United States",2021-05-31 20:15:43 UTC
kbos_area_ctaf,http://d.liveatc.net/kbos_area_ctaf,MA/NH/RI/CT Area CTAF,US-Class-D,"KBOS 311954Z 27006KT 10SM FEW015 OVC020 16/11 A3009 RMK AO2 SLP190 T01610106
","Orange, Massachusetts, United States",2021-05-31 20:15:43 UTC
korh_murp_atis,http://d.liveatc.net/korh_murp_atis,KORH ATIS,US-Class-D,"KORH 311954Z 30011KT 10SM BKN019 OVC025 14/09 A3011 RMK AO2 SLP200 T01390089
","Worcester, Massachusetts, United States",2021-05-31 20:15:43 UTC
korh_murp_app,http://d.liveatc.net/korh_murp_app,KORH Bradley App/Dep,US-Class-D,"KORH 311954Z 30011KT 10SM BKN019 OVC025 14/09 A3011 RMK AO2 SLP200 T01390089
","Worcester, Massachusetts, United States",2021-05-31 20:15:43 UTC
korh_murp_twr,http://d.liveatc.net/korh_murp_twr,KORH Tower,US-Class-D,"KORH 311954Z 30011KT 10SM BKN019 OVC025 14/09 A3011 RMK AO2 SLP200 T01390089
","Worcester, Massachusetts, United States",2021-05-31 20:15:43 UTC
kork,http://d.liveatc.net/kork,KORK CTAF/ZME,US-Class-D,KORK Airport Info,"North Little Rock, Arkansas, United States",2021-05-31 20:15:43 UTC
kork_lcl_app,http://d.liveatc.net/kork_lcl_app,KORK/KLIT CTAF/Del/Gnd/Twr/App,US-Class-D,KORK Airport Info,"North Little Rock, Arkansas, United States",2021-05-31 20:15:43 UTC
korl_kmco_app_135300,http://d.liveatc.net/korl_kmco_app_135300,KMCO App/Dep (North Satellite),US-Class-D,"KORL 311953Z 07014KT 10SM FEW039 31/19 A3016 RMK AO2 SLP214 T03110194
","Orlando, Florida, United States",2021-05-31 20:15:43 UTC
korl_atis,http://d.liveatc.net/korl_atis,KORL ATIS,US-Class-D,"KORL 311953Z 07014KT 10SM FEW039 31/19 A3016 RMK AO2 SLP214 T03110194
","Orlando, Florida, United States",2021-05-31 20:15:43 UTC
korl_gnd,http://d.liveatc.net/korl_gnd,KORL Del/Gnd,US-Class-D,"KORL 311953Z 07014KT 10SM FEW039 31/19 A3016 RMK AO2 SLP214 T03110194
","Orlando, Florida, United States",2021-05-31 20:15:43 UTC
korl_del_gnd_twr,http://d.liveatc.net/korl_del_gnd_twr,KORL Del/Gnd/Twr,US-Class-D,"KORL 311953Z 07014KT 10SM FEW039 31/19 A3016 RMK AO2 SLP214 T03110194
","Orlando, Florida, United States",2021-05-31 20:15:43 UTC
korl_twr,http://d.liveatc.net/korl_twr,KORL Tower,US-Class-D,"KORL 311953Z 07014KT 10SM FEW039 31/19 A3016 RMK AO2 SLP214 T03110194
","Orlando, Florida, United States",2021-05-31 20:15:43 UTC
kosh_perm,http://d.liveatc.net/kosh_perm,KOSH Gnd/Twr/App #1,US-Class-D,"KOSH 311953Z 22008G16KT 200V260 10SM CLR 22/06 A3016 RMK AO2 SLP205 T02220056
","Oshkosh, Wisconsin, United States",2021-05-31 20:15:43 UTC
kosh5_all,http://d.liveatc.net/kosh5_all,KOSH Gnd/Twr/App #2,US-Class-D,"KOSH 311953Z 22008G16KT 200V260 10SM CLR 22/06 A3016 RMK AO2 SLP205 T02220056
","Oshkosh, Wisconsin, United States",2021-05-31 20:15:43 UTC
kosu,http://d.liveatc.net/kosu,KOSU Ground/Tower,US-Class-D,"KOSU 311953Z AUTO VRB03G15KT 10SM CLR 23/04 A3026 RMK AO2 SLP244 T02280044
","Columbus, Ohio, United States",2021-05-31 20:15:43 UTC
koth_atis,http://d.liveatc.net/koth_atis,KOTH ATIS/AWOS,US-Class-D,"KOTH 311956Z 35017KT 10SM CLR 20/11 A3012 RMK AO2 SLP199 T02000106
","North Bend, Oregon, United States",2021-05-31 20:15:43 UTC
koth_gnd_twr,http://d.liveatc.net/koth_gnd_twr,KOTH Gnd/Twr,US-Class-D,"KOTH 311956Z 35017KT 10SM CLR 20/11 A3012 RMK AO2 SLP199 T02000106
","North Bend, Oregon, United States",2021-05-31 20:15:43 UTC
koth_gnd,http://d.liveatc.net/koth_gnd,KOTH Ground,US-Class-D,"KOTH 311956Z 35017KT 10SM CLR 20/11 A3012 RMK AO2 SLP199 T02000106
","North Bend, Oregon, United States",2021-05-31 20:15:43 UTC
koth_twr,http://d.liveatc.net/koth_twr,KOTH Tower/CTAF,US-Class-D,"KOTH 311956Z 35017KT 10SM CLR 20/11 A3012 RMK AO2 SLP199 T02000106
","North Bend, Oregon, United States",2021-05-31 20:15:43 UTC
kotm,http://d.liveatc.net/kotm,KOTM Del/Twr/App/Center,US-Class-D,"KOTM 311953Z AUTO 18009KT 10SM FEW018 FEW110 18/13 A3022 RMK AO2 SLP234 P0001 T01780128
","Ottumwa, Iowa, United States",2021-05-31 20:15:43 UTC
kowd,http://d.liveatc.net/kowd,KOWD Ground/Tower,US-Class-D,"KOWD 311953Z VRB04KT 10SM OVC020 16/11 A3009 RMK AO2 SLP187 T01560111
","Norwood, Massachusetts, United States",2021-05-31 20:15:43 UTC
koxc2,http://d.liveatc.net/koxc2,KOXC Ground/Tower,US-Class-D,"KOXC 311951Z 32009G16KT 280V340 10SM BKN025 14/11 A3018 RMK AO2 SLP233 T01440106
","Oxford, Connecticut, United States",2021-05-31 20:15:43 UTC
kpae2,http://d.liveatc.net/kpae2,KPAE Gnd/Twr/App,US-Class-D,"KPAE 311953Z 36005KT 10SM CLR 21/09 A3021 RMK AO2 SLP228 T02110094
","Everett, Washington, United States",2021-05-31 20:15:43 UTC
kpao2_atis,http://d.liveatc.net/kpao2_atis,KPAO ATIS,US-Class-D,"KPAO 311947Z 33012KT 10SM SKC 24/13 A2991
","Palo Alto, California, United States",2021-05-31 20:15:43 UTC
kpao2_gnd,http://d.liveatc.net/kpao2_gnd,KPAO Ground,US-Class-D,"KPAO 311947Z 33012KT 10SM SKC 24/13 A2991
","Palo Alto, California, United States",2021-05-31 20:15:43 UTC
kpao2,http://d.liveatc.net/kpao2,KPAO Tower,US-Class-D,"KPAO 311947Z 33012KT 10SM SKC 24/13 A2991
","Palo Alto, California, United States",2021-05-31 20:15:43 UTC
kpcw1_ctaf,http://d.liveatc.net/kpcw1_ctaf,KPCW CTAF/App,US-Class-D,"KPCW 311955Z AUTO 7SM CLR 22/07 A3025 RMK AO2
","Port Clinton, Ohio, United States",2021-05-31 20:15:43 UTC
kpcw1_ctaf,http://d.liveatc.net/kpcw1_ctaf,KPCW CTAF/App,US-Class-D,"KPCW 311955Z AUTO 7SM CLR 22/07 A3025 RMK AO2
","Port Clinton, Ohio, United States",2021-05-31 20:15:43 UTC
klzu4_app,http://d.liveatc.net/klzu4_app,Atlanta App/Dep (SAT-P),US-Class-D,"KLZU 311956Z 12005KT 10SM BKN047 BKN055 23/13 A3028 RMK AO2 SLP259 T02330128
","Atlanta, Georgia, United States",2021-05-31 20:15:43 UTC
kpdk2_guard,http://d.liveatc.net/kpdk2_guard,KPDK Emergency/Guard,US-Class-D,"KPDK 311953Z VRB05KT 10SM BKN055 25/13 A3027 RMK AO2 SLP241 T02500133
","Atlanta, Georgia, United States",2021-05-31 20:15:43 UTC
kpdk2_gnd,http://d.liveatc.net/kpdk2_gnd,KPDK Ground,US-Class-D,"KPDK 311953Z VRB05KT 10SM BKN055 25/13 A3027 RMK AO2 SLP241 T02500133
","Atlanta, Georgia, United States",2021-05-31 20:15:43 UTC
kpdk2_twr,http://d.liveatc.net/kpdk2_twr,KPDK Tower #1,US-Class-D,"KPDK 311953Z VRB05KT 10SM BKN055 25/13 A3027 RMK AO2 SLP241 T02500133
","Atlanta, Georgia, United States",2021-05-31 20:15:43 UTC
kpdt2,http://d.liveatc.net/kpdt2,KPDT Gnd/Twr/App,US-Class-D,"KPDT 311953Z VRB04KT 10SM CLR 29/00 A3012 RMK AO2 SLP187 T02890000
","Pendleton, Oregon, United States",2021-05-31 20:15:43 UTC
kpeo2,http://d.liveatc.net/kpeo2,KPEO CTAF,US-Class-D,"KPEO 311953Z AUTO 31009KT 10SM CLR 21/04 A3022 RMK AO2 SLP232 T02110039
","Penn Yan, New York, United States",2021-05-31 20:15:43 UTC
kpgd_atis,http://d.liveatc.net/kpgd_atis,KPGD ATIS,US-Class-D,"KPGD 311953Z 08011G21KT 10SM SCT060 32/20 A3010 RMK AO2 SLP191 T03220200
","Punta Gorda, Florida, United States",2021-05-31 20:15:43 UTC
kpgd_gnd,http://d.liveatc.net/kpgd_gnd,KPGD Ground,US-Class-D,"KPGD 311953Z 08011G21KT 10SM SCT060 32/20 A3010 RMK AO2 SLP191 T03220200
","Punta Gorda, Florida, United States",2021-05-31 20:15:43 UTC
kpgd_twr,http://d.liveatc.net/kpgd_twr,KPGD Tower,US-Class-D,"KPGD 311953Z 08011G21KT 10SM SCT060 32/20 A3010 RMK AO2 SLP191 T03220200
","Punta Gorda, Florida, United States",2021-05-31 20:15:43 UTC
kpgv,http://d.liveatc.net/kpgv,KPGV CTAF,US-Class-D,"KPGV 311955Z AUTO 04003KT 10SM SCT044 22/11 A3030 RMK AO2
","Greenville, North Carolina, United States",2021-05-31 20:15:43 UTC
kphf,http://d.liveatc.net/kphf,KPHF Ground/Tower,US-Class-D,"KPHF 311954Z 04004KT 10SM CLR 21/12 A3028 RMK AO2 SLP254 T02110117
","Newport News, Virginia, United States",2021-05-31 20:15:43 UTC
kplu2,http://d.liveatc.net/kplu2,KPLU Del/CTAF/App,US-Class-D,"KPLU 311955Z AUTO VRB03KT 10SM CLR 23/11 A3019 RMK AO2
","Puyallup, Washington, United States",2021-05-31 20:15:43 UTC
kpmp_atis,http://d.liveatc.net/kpmp_atis,KPMP ATIS,US-Class-D,"KPMP 311953Z 06013KT 10SM CLR 28/21 A3010 RMK AO2 SLP192 T02780211
","Pompano Beach, Florida, United States",2021-05-31 20:15:43 UTC
kpmp_gnd,http://d.liveatc.net/kpmp_gnd,KPMP Ground,US-Class-D,"KPMP 311953Z 06013KT 10SM CLR 28/21 A3010 RMK AO2 SLP192 T02780211
","Pompano Beach, Florida, United States",2021-05-31 20:15:43 UTC
kpmp,http://d.liveatc.net/kpmp,KPMP Tower,US-Class-D,"KPMP 311953Z 06013KT 10SM CLR 28/21 A3010 RMK AO2 SLP192 T02780211
","Pompano Beach, Florida, United States",2021-05-31 20:15:43 UTC
kpoc2_atis,http://d.liveatc.net/kpoc2_atis,KPOC ATIS,US-Class-D,"KPOC 311947Z 24006KT 10SM CLR 22/13 A2998
","La Verne, California, United States",2021-05-31 20:15:43 UTC
kpoc2_gnd,http://d.liveatc.net/kpoc2_gnd,KPOC Ground,US-Class-D,"KPOC 311947Z 24006KT 10SM CLR 22/13 A2998
","La Verne, California, United States",2021-05-31 20:15:43 UTC
kpoc2_app,http://d.liveatc.net/kpoc2_app,KPOC SOCAL App (Pomona),US-Class-D,"KPOC 311947Z 24006KT 10SM CLR 22/13 A2998
","La Verne, California, United States",2021-05-31 20:15:43 UTC
kpoc2_twr,http://d.liveatc.net/kpoc2_twr,KPOC Tower/CTAF,US-Class-D,"KPOC 311947Z 24006KT 10SM CLR 22/13 A2998
","La Verne, California, United States",2021-05-31 20:15:43 UTC
kpou,http://d.liveatc.net/kpou,KPOU Ground/Tower,US-Class-D,"KPOU 311953Z 32009G15KT 10SM FEW047 19/09 A3017 RMK AO2 SLP212 T01890094
","Poughkeepsie, New York, United States",2021-05-31 20:15:43 UTC
khul,http://d.liveatc.net/khul,KHUL/KPQI/ZBW01/15,US-Class-D,"KHUL 311953Z AUTO 01005KT 10SM -RA OVC007 12/11 A3008 RMK AO2 RAB22 CIG 005V012 SLP189 P0000 T01220106
","Presque Isle, Maine, United States",2021-05-31 20:15:43 UTC
kprb1,http://d.liveatc.net/kprb1,KPRB CTAF,US-Class-D,"KPRB 311953Z AUTO 20012KT 10SM CLR 33/12 A2988 RMK AO2 SLP109 T03280117
","Paso Robles, California, United States",2021-05-31 20:15:43 UTC
kprc6,http://d.liveatc.net/kprc6,KPRC Ground,US-Class-D,"KPRC 311953Z 24009G16KT 200V290 10SM SCT120 28/M04 A3009 RMK AO2 SLP105 T02781039
","Prescott, Arizona, United States",2021-05-31 20:15:43 UTC
kprc5,http://d.liveatc.net/kprc5,KPRC Phoenix Approach,US-Class-D,"KPRC 311953Z 24009G16KT 200V290 10SM SCT120 28/M04 A3009 RMK AO2 SLP105 T02781039
","Prescott, Arizona, United States",2021-05-31 20:15:43 UTC
kprc5,http://d.liveatc.net/kprc5,KPRC Phoenix Approach,US-Class-D,"KPRC 311953Z 24009G16KT 200V290 10SM SCT120 28/M04 A3009 RMK AO2 SLP105 T02781039
","Prescott, Arizona, United States",2021-05-31 20:15:43 UTC
kprc3,http://d.liveatc.net/kprc3,KPRC Practice Area,US-Class-D,"KPRC 311953Z 24009G16KT 200V290 10SM SCT120 28/M04 A3009 RMK AO2 SLP105 T02781039
","Prescott, Arizona, United States",2021-05-31 20:15:43 UTC
kprc_twr,http://d.liveatc.net/kprc_twr,KPRC Tower (1/2),US-Class-D,"KPRC 311953Z 24009G16KT 200V290 10SM SCT120 28/M04 A3009 RMK AO2 SLP105 T02781039
","Prescott, Arizona, United States",2021-05-31 20:15:43 UTC
kprc7,http://d.liveatc.net/kprc7,KPRC Tower 1,US-Class-D,"KPRC 311953Z 24009G16KT 200V290 10SM SCT120 28/M04 A3009 RMK AO2 SLP105 T02781039
","Prescott, Arizona, United States",2021-05-31 20:15:43 UTC
kprc4,http://d.liveatc.net/kprc4,KPRC Tower 2,US-Class-D,"KPRC 311953Z 24009G16KT 200V290 10SM SCT120 28/M04 A3009 RMK AO2 SLP105 T02781039
","Prescott, Arizona, United States",2021-05-31 20:15:43 UTC
kpsm,http://d.liveatc.net/kpsm,KPSM Gnd/Twr/App/GCA,US-Class-D,"KPSM 311956Z 27005KT 10SM OVC017 15/11 A3007 RMK AO2A SLP185 T01490109
","Portsmouth, New Hampshire, United States",2021-05-31 20:15:43 UTC
kpso1_ctaf,http://d.liveatc.net/kpso1_ctaf,KPSO CTAF/Guard,US-Class-D,"KPSO 311955Z AUTO 34017G26KT 10SM TS SCT060 BKN080 BKN085 14/01 A3021 RMK AO2 LTG DSNT ALQS T01360005
","Pagosa Springs, Colorado, United States",2021-05-31 20:15:43 UTC
kpsp2_all,http://d.liveatc.net/kpsp2_all,KPSP Twr/App,US-Class-D,"KPSP 311953Z 10006KT 10SM CLR 34/13 A2987 RMK AO2 SLP112 T03440128 $
","Palm Springs, California, United States",2021-05-31 20:15:43 UTC
kptk1_app,http://d.liveatc.net/kptk1_app,KPTK App/Dep,US-Class-D,"KPTK 311953Z 18007KT 10SM SCT100 BKN170 OVC250 21/04 A3022 RMK AO2 SLP234 T02110039
","Pontiac, Michigan, United States",2021-05-31 20:15:43 UTC
kptk1_atis,http://d.liveatc.net/kptk1_atis,KPTK ATIS,US-Class-D,"KPTK 311953Z 18007KT 10SM SCT100 BKN170 OVC250 21/04 A3022 RMK AO2 SLP234 T02110039
","Pontiac, Michigan, United States",2021-05-31 20:15:43 UTC
kptk1_del_gnd,http://d.liveatc.net/kptk1_del_gnd,KPTK Del/Gnd/App,US-Class-D,"KPTK 311953Z 18007KT 10SM SCT100 BKN170 OVC250 21/04 A3022 RMK AO2 SLP234 T02110039
","Pontiac, Michigan, United States",2021-05-31 20:15:43 UTC
kptk1_gnd_twr,http://d.liveatc.net/kptk1_gnd_twr,KPTK Del/Gnd/Twr/App,US-Class-D,"KPTK 311953Z 18007KT 10SM SCT100 BKN170 OVC250 21/04 A3022 RMK AO2 SLP234 T02110039
","Pontiac, Michigan, United States",2021-05-31 20:15:43 UTC
kptk1_twr,http://d.liveatc.net/kptk1_twr,KPTK Tower #1,US-Class-D,"KPTK 311953Z 18007KT 10SM SCT100 BKN170 OVC250 21/04 A3022 RMK AO2 SLP234 T02110039
","Pontiac, Michigan, United States",2021-05-31 20:15:43 UTC
kpub1_app,http://d.liveatc.net/kpub1_app,KPUB App/Dep (Denver App),US-Class-D,"KPUB 311953Z 14006KT 10SM OVC060 16/08 A3025 RMK AO2 SLP213 T01560083
","Pueblo, Colorado, United States",2021-05-31 20:15:43 UTC
kpub2_atis,http://d.liveatc.net/kpub2_atis,KPUB ATIS,US-Class-D,"KPUB 311953Z 14006KT 10SM OVC060 16/08 A3025 RMK AO2 SLP213 T01560083
","Pueblo, Colorado, United States",2021-05-31 20:15:43 UTC
kpub2_gnd,http://d.liveatc.net/kpub2_gnd,KPUB Ground,US-Class-D,"KPUB 311953Z 14006KT 10SM OVC060 16/08 A3025 RMK AO2 SLP213 T01560083
","Pueblo, Colorado, United States",2021-05-31 20:15:43 UTC
kpub1_co,http://d.liveatc.net/kpub1_co,KPUB Tiger Traffic,US-Class-D,"KPUB 311953Z 14006KT 10SM OVC060 16/08 A3025 RMK AO2 SLP213 T01560083
","Pueblo, Colorado, United States",2021-05-31 20:15:43 UTC
kpub1_twr,http://d.liveatc.net/kpub1_twr,KPUB Tower,US-Class-D,"KPUB 311953Z 14006KT 10SM OVC060 16/08 A3025 RMK AO2 SLP213 T01560083
","Pueblo, Colorado, United States",2021-05-31 20:15:43 UTC
kpub1_twr2,http://d.liveatc.net/kpub1_twr2,KPUB Tower #2,US-Class-D,"KPUB 311953Z 14006KT 10SM OVC060 16/08 A3025 RMK AO2 SLP213 T01560083
","Pueblo, Colorado, United States",2021-05-31 20:15:43 UTC
kpvb1_awos,http://d.liveatc.net/kpvb1_awos,KPVB AWOS,US-Class-D,"KPVB 311955Z AUTO 21011G17KT 10SM SCT080 SCT110 22/10 A3021 RMK AO1 T02150095
","Platteville, Wisconsin, United States",2021-05-31 20:15:43 UTC
kpvb1_122700,http://d.liveatc.net/kpvb1_122700,KPVB/KSFY CTAF,US-Class-D,"KPVB 311955Z AUTO 21011G17KT 10SM SCT080 SCT110 22/10 A3021 RMK AO1 T02150095
","Platteville, Wisconsin, United States",2021-05-31 20:15:43 UTC
khya2_122800,http://d.liveatc.net/khya2_122800,5B6/KCQX/KPVC CTAF,US-Class-D,"KHYA 311956Z 35005KT 5SM BR OVC007 13/11 A3008 RMK AO2 SLP188 T01330111
","Provincetown, Massachusetts, United States",2021-05-31 20:15:43 UTC
kugn_app,http://d.liveatc.net/kugn_app,Chicago Approach (North),US-Class-D,"KUGN 311955Z 23008KT 10SM SCT100 22/08 A3021 RMK AO2 SLP227 T02170078
","Chicago/Prospect Heights/Wheeling, Illinois, United States",2021-05-31 20:15:43 UTC
kpwk1_atis,http://d.liveatc.net/kpwk1_atis,KPWK ATIS,US-Class-D,"KPWK 311952Z 20010G20KT 10SM CLR 22/07 A3023 RMK AO2 SLP237 T02220067 $
","Chicago/Prospect Heights/Wheeling, Illinois, United States",2021-05-31 20:15:43 UTC
kpwk1_del,http://d.liveatc.net/kpwk1_del,KPWK Clearance Delivery,US-Class-D,"KPWK 311952Z 20010G20KT 10SM CLR 22/07 A3023 RMK AO2 SLP237 T02220067 $
","Chicago/Prospect Heights/Wheeling, Illinois, United States",2021-05-31 20:15:43 UTC
kpwk,http://d.liveatc.net/kpwk,KPWK Del/Gnd/Tower,US-Class-D,"KPWK 311952Z 20010G20KT 10SM CLR 22/07 A3023 RMK AO2 SLP237 T02220067 $
","Chicago/Prospect Heights/Wheeling, Illinois, United States",2021-05-31 20:15:43 UTC
kpwk1_gnd,http://d.liveatc.net/kpwk1_gnd,KPWK Ground,US-Class-D,"KPWK 311952Z 20010G20KT 10SM CLR 22/07 A3023 RMK AO2 SLP237 T02220067 $
","Chicago/Prospect Heights/Wheeling, Illinois, United States",2021-05-31 20:15:43 UTC
kpwk1_gnd_twr2,http://d.liveatc.net/kpwk1_gnd_twr2,KPWK Ground/Tower,US-Class-D,"KPWK 311952Z 20010G20KT 10SM CLR 22/07 A3023 RMK AO2 SLP237 T02220067 $
","Chicago/Prospect Heights/Wheeling, Illinois, United States",2021-05-31 20:15:43 UTC
kpwk1_twr,http://d.liveatc.net/kpwk1_twr,KPWK Tower #1,US-Class-D,"KPWK 311952Z 20010G20KT 10SM CLR 22/07 A3023 RMK AO2 SLP237 T02220067 $
","Chicago/Prospect Heights/Wheeling, Illinois, United States",2021-05-31 20:15:43 UTC
kpwk1_twr2,http://d.liveatc.net/kpwk1_twr2,KPWK Tower #2,US-Class-D,"KPWK 311952Z 20010G20KT 10SM CLR 22/07 A3023 RMK AO2 SLP237 T02220067 $
","Chicago/Prospect Heights/Wheeling, Illinois, United States",2021-05-31 20:15:43 UTC
kpwt,http://d.liveatc.net/kpwt,KPWT CTAF,US-Class-D,"KPWT 311956Z AUTO 05009KT 10SM CLR 23/11 A3019 RMK AO2 SLP226 T02330106
","Bremerton, Washington, United States",2021-05-31 20:15:43 UTC
kpxe,http://d.liveatc.net/kpxe,KPXE CTAF,US-Class-D,"KPXE 311955Z AUTO 05007KT 10SM CLR 27/11 A3024 RMK AO2 T02710115
","Perry, Georgia, United States",2021-05-31 20:15:43 UTC
kpym,http://d.liveatc.net/kpym,KPYM CTAF,US-Class-D,"KPYM 311952Z AUTO 27005KT 10SM BKN010 OVC014 14/11 A3009 RMK AO2 CIG 007V012 SLP191 T01390111
","Plymouth, Massachusetts, United States",2021-05-31 20:15:43 UTC
kbos_area_ctaf,http://d.liveatc.net/kbos_area_ctaf,MA/NH/RI/CT Area CTAF,US-Class-D,"KBOS 311954Z 27006KT 10SM FEW015 OVC020 16/11 A3009 RMK AO2 SLP190 T01610106
","Plymouth, Massachusetts, United States",2021-05-31 20:15:43 UTC
kbos_area_ctaf,http://d.liveatc.net/kbos_area_ctaf,MA/NH/RI/CT Area CTAF,US-Class-D,"KBOS 311954Z 27006KT 10SM FEW015 OVC020 16/11 A3009 RMK AO2 SLP190 T01610106
","Plymouth, Massachusetts, United States",2021-05-31 20:15:43 UTC
kbos_area_ctaf,http://d.liveatc.net/kbos_area_ctaf,MA/NH/RI/CT Area CTAF,US-Class-D,"KBOS 311954Z 27006KT 10SM FEW015 OVC020 16/11 A3009 RMK AO2 SLP190 T01610106
","Plymouth, Massachusetts, United States",2021-05-31 20:15:43 UTC
krac,http://d.liveatc.net/krac,KRAC CTAF,US-Class-D,"KRAC 311953Z AUTO 23014G23KT 10SM CLR 22/07 A3022 RMK AO2 SLP231 T02170072
","Racine, Wisconsin, United States",2021-05-31 20:15:43 UTC
kral2,http://d.liveatc.net/kral2,KRAL/KRIV Gnd/Twr/App,US-Class-D,"KRAL 311953Z VRB05KT 10SM CLR 26/13 A2992 RMK AO2 SLP120 T02610128
","Riverside, California, United States",2021-05-31 20:15:43 UTC
krbd,http://d.liveatc.net/krbd,KRBD Ground/Tower,US-Class-D,"KRBD 311953Z 11008KT 10SM SCT023 BKN100 26/19 A3004 RMK AO2 LTG DSNT SW AND W SLP166 T02560194
","Dallas, Texas, United States",2021-05-31 20:15:43 UTC
krdg2_app,http://d.liveatc.net/krdg2_app,KRDG Approach/Departure,US-Class-D,"KRDG 311954Z 32006G15KT 10SM FEW060 23/08 A3019 RMK AO2 SLP229 T02330078 $
","Reading, Pennsylvania, United States",2021-05-31 20:15:43 UTC
krdg2,http://d.liveatc.net/krdg2,KRDG Gnd/Twr/App,US-Class-D,"KRDG 311954Z 32006G15KT 10SM FEW060 23/08 A3019 RMK AO2 SLP229 T02330078 $
","Reading, Pennsylvania, United States",2021-05-31 20:15:43 UTC
krdg2_gnd_twr,http://d.liveatc.net/krdg2_gnd_twr,KRDG Ground/Tower,US-Class-D,"KRDG 311954Z 32006G15KT 10SM FEW060 23/08 A3019 RMK AO2 SLP229 T02330078 $
","Reading, Pennsylvania, United States",2021-05-31 20:15:43 UTC
krfd2_app,http://d.liveatc.net/krfd2_app,KRFD App/Dep,US-Class-D,"KRFD 311954Z 22009KT 10SM FEW055 BKN140 OVC250 20/07 A3024 RMK AO2 SLP239 T02000067 $
","Rockford, Illinois, United States",2021-05-31 20:15:43 UTC
krfd2_del_gnd,http://d.liveatc.net/krfd2_del_gnd,KRFD Del/Gnd,US-Class-D,"KRFD 311954Z 22009KT 10SM FEW055 BKN140 OVC250 20/07 A3024 RMK AO2 SLP239 T02000067 $
","Rockford, Illinois, United States",2021-05-31 20:15:43 UTC
krfd2_del_gnd_twr,http://d.liveatc.net/krfd2_del_gnd_twr,KRFD Del/Gnd/Twr,US-Class-D,"KRFD 311954Z 22009KT 10SM FEW055 BKN140 OVC250 20/07 A3024 RMK AO2 SLP239 T02000067 $
","Rockford, Illinois, United States",2021-05-31 20:15:43 UTC
krfd2_del_gnd_twr_app,http://d.liveatc.net/krfd2_del_gnd_twr_app,KRFD Del/Gnd/Twr/App,US-Class-D,"KRFD 311954Z 22009KT 10SM FEW055 BKN140 OVC250 20/07 A3024 RMK AO2 SLP239 T02000067 $
","Rockford, Illinois, United States",2021-05-31 20:15:43 UTC
krfd2_twr,http://d.liveatc.net/krfd2_twr,KRFD Tower,US-Class-D,"KRFD 311954Z 22009KT 10SM FEW055 BKN140 OVC250 20/07 A3024 RMK AO2 SLP239 T02000067 $
","Rockford, Illinois, United States",2021-05-31 20:15:43 UTC
krhv1_atis,http://d.liveatc.net/krhv1_atis,KRHV ATIS,US-Class-D,"KRHV 311947Z 00000KT 10SM SKC 32/09 A2989
","San Jose, California, United States",2021-05-31 20:15:43 UTC
krhv1_gnd,http://d.liveatc.net/krhv1_gnd,KRHV Ground,US-Class-D,"KRHV 311947Z 00000KT 10SM SKC 32/09 A2989
","San Jose, California, United States",2021-05-31 20:15:43 UTC
krhv1,http://d.liveatc.net/krhv1,KRHV Ground/Tower,US-Class-D,"KRHV 311947Z 00000KT 10SM SKC 32/09 A2989
","San Jose, California, United States",2021-05-31 20:15:43 UTC
krhv1_twr,http://d.liveatc.net/krhv1_twr,KRHV Tower #2,US-Class-D,"KRHV 311947Z 00000KT 10SM SKC 32/09 A2989
","San Jose, California, United States",2021-05-31 20:15:43 UTC
kril2,http://d.liveatc.net/kril2,KRIL CTAF/ZDV,US-Class-D,"KRIL 311953Z AUTO 10SM CLR 23/02 A3011 RMK AO2 LTG DSNT NE SLP141 T02330022
","Rifle, Colorado, United States",2021-05-31 20:15:43 UTC
kral2,http://d.liveatc.net/kral2,KRAL/KRIV Gnd/Twr/App,US-Class-D,"KRAL 311953Z VRB05KT 10SM CLR 26/13 A2992 RMK AO2 SLP120 T02610128
","Riverside, California, United States",2021-05-31 20:15:43 UTC
krnh,http://d.liveatc.net/krnh,KRNH CTAF/Clearance,US-Class-D,"KRNH 311955Z AUTO 29007KT 10SM SCT050 SCT075 SCT085 24/08 A3012 RMK AO2 T02360083
","New Richmond, Wisconsin, United States",2021-05-31 20:15:43 UTC
krnt,http://d.liveatc.net/krnt,KRNT Gnd/Twr/Unicom,US-Class-D,"KRNT 311953Z 33007KT 9SM CLR 23/11 A3017 RMK AO2 SLP222 T02330111
","Renton, Washington, United States",2021-05-31 20:15:43 UTC
klyh_roa_app,http://d.liveatc.net/klyh_roa_app,KLYH Roanoke Approach,US-Class-D,"KLYH 311954Z 00000KT 10SM CLR 22/10 A3030 RMK AO2 SLP255 T02170100
","Roanoke, Virginia, United States",2021-05-31 20:15:43 UTC
krog,http://d.liveatc.net/krog,KROG/KXNA/KVBT/Misc,US-Class-D,"KROG 311958Z 00000KT 10SM CLR 19/12 A3023 RMK AO2 SLP229 T01890122
","Rogers, Arkansas, United States",2021-05-31 20:15:43 UTC
krow1_app1,http://d.liveatc.net/krow1_app1,KROW App/Dep (East),US-Class-D,"KROW 311951Z 07012G19KT 10SM SCT023 22/15 A3014 RMK AO2 SLP154 T02170150
","Roswell, New Mexico, United States",2021-05-31 20:15:43 UTC
krow1_app,http://d.liveatc.net/krow1_app,KROW App/Dep (East/West),US-Class-D,"KROW 311951Z 07012G19KT 10SM SCT023 22/15 A3014 RMK AO2 SLP154 T02170150
","Roswell, New Mexico, United States",2021-05-31 20:15:43 UTC
krow1_app2,http://d.liveatc.net/krow1_app2,KROW App/Dep (West),US-Class-D,"KROW 311951Z 07012G19KT 10SM SCT023 22/15 A3014 RMK AO2 SLP154 T02170150
","Roswell, New Mexico, United States",2021-05-31 20:15:43 UTC
krow1_atis,http://d.liveatc.net/krow1_atis,KROW ATIS,US-Class-D,"KROW 311951Z 07012G19KT 10SM SCT023 22/15 A3014 RMK AO2 SLP154 T02170150
","Roswell, New Mexico, United States",2021-05-31 20:15:43 UTC
krow1_del,http://d.liveatc.net/krow1_del,KROW Clearance Delivery,US-Class-D,"KROW 311951Z 07012G19KT 10SM SCT023 22/15 A3014 RMK AO2 SLP154 T02170150
","Roswell, New Mexico, United States",2021-05-31 20:15:43 UTC
krow1_gnd,http://d.liveatc.net/krow1_gnd,KROW Ground,US-Class-D,"KROW 311951Z 07012G19KT 10SM SCT023 22/15 A3014 RMK AO2 SLP154 T02170150
","Roswell, New Mexico, United States",2021-05-31 20:15:43 UTC
krow1_gnd_twr,http://d.liveatc.net/krow1_gnd_twr,KROW Ground/Tower,US-Class-D,"KROW 311951Z 07012G19KT 10SM SCT023 22/15 A3014 RMK AO2 SLP154 T02170150
","Roswell, New Mexico, United States",2021-05-31 20:15:43 UTC
krow1_twr,http://d.liveatc.net/krow1_twr,KROW Tower,US-Class-D,"KROW 311951Z 07012G19KT 10SM SCT023 22/15 A3014 RMK AO2 SLP154 T02170150
","Roswell, New Mexico, United States",2021-05-31 20:15:43 UTC
krst,http://d.liveatc.net/krst,KRST Gnd/Twr/App,US-Class-D,"KRST 311954Z 20012G17KT 10SM FEW045 22/14 A3013 RMK AO2 LTG DSNT W-N SLP204 T02220139
","Rochester, Minnesota, United States",2021-05-31 20:15:43 UTC
krvs,http://d.liveatc.net/krvs,KRVS Ground/Tower,US-Class-D,"KRVS 311953Z 04007KT 2SM -RA BR FEW009 OVC029 17/16 A3015 RMK AO2 SFC VIS 6 SLP217 P0006 T01670156
","Tulsa, Oklahoma, United States",2021-05-31 20:15:43 UTC
kryy1_atlapp_121000,http://d.liveatc.net/kryy1_atlapp_121000,Atlanta Approach (N. Sat),US-Class-D,"KRYY 311950Z 16004KT 10SM BKN049 24/13 A3028 RMK AO2 SLP971 T02440128 $
","Atlanta, Georgia, United States",2021-05-31 20:15:43 UTC
kryy1_atis,http://d.liveatc.net/kryy1_atis,KRYY ATIS,US-Class-D,"KRYY 311950Z 16004KT 10SM BKN049 24/13 A3028 RMK AO2 SLP971 T02440128 $
","Atlanta, Georgia, United States",2021-05-31 20:15:43 UTC
kryy1_gnd,http://d.liveatc.net/kryy1_gnd,KRYY Ground,US-Class-D,"KRYY 311950Z 16004KT 10SM BKN049 24/13 A3028 RMK AO2 SLP971 T02440128 $
","Atlanta, Georgia, United States",2021-05-31 20:15:43 UTC
kryy1_twr,http://d.liveatc.net/kryy1_twr,KRYY Tower,US-Class-D,"KRYY 311950Z 16004KT 10SM BKN049 24/13 A3028 RMK AO2 SLP971 T02440128 $
","Atlanta, Georgia, United States",2021-05-31 20:15:43 UTC
ksac_atis,http://d.liveatc.net/ksac_atis,KSAC ATIS,US-Class-D,"KSAC 311953Z 32005KT 10SM CLR 34/09 A2986 RMK AO2 SLP111 T03440094
","Sacramento, California, United States",2021-05-31 20:15:43 UTC
ksac,http://d.liveatc.net/ksac,KSAC Tower,US-Class-D,"KSAC 311953Z 32005KT 10SM CLR 34/09 A2986 RMK AO2 SLP111 T03440094
","Sacramento, California, United States",2021-05-31 20:15:43 UTC
ksaf,http://d.liveatc.net/ksaf,KSAF Tower,US-Class-D,"KSAF 311953Z 16017G30KT 10SM FEW047 FEW055 21/08 A3018 RMK AO2 PK WND 16030/1944 LTG DSNT NW-NE SLP133 T02110078
","Santa Fe, New Mexico, United States",2021-05-31 20:15:43 UTC
ksbp1_app,http://d.liveatc.net/ksbp1_app,KSBP App/Dep,US-Class-D,"KSBP 311956Z 21004KT 10SM CLR 20/12 A2996 RMK AO2 SLP145 T02000117
","San Luis Obispo, California, United States",2021-05-31 20:15:43 UTC
ksbp1_atis,http://d.liveatc.net/ksbp1_atis,KSBP ATIS,US-Class-D,"KSBP 311956Z 21004KT 10SM CLR 20/12 A2996 RMK AO2 SLP145 T02000117
","San Luis Obispo, California, United States",2021-05-31 20:15:43 UTC
ksbp1_guard,http://d.liveatc.net/ksbp1_guard,KSBP Emergency/Guard,US-Class-D,"KSBP 311956Z 21004KT 10SM CLR 20/12 A2996 RMK AO2 SLP145 T02000117
","San Luis Obispo, California, United States",2021-05-31 20:15:43 UTC
ksbp1_s,http://d.liveatc.net/ksbp1_s,KSBP Gnd/Twr,US-Class-D,"KSBP 311956Z 21004KT 10SM CLR 20/12 A2996 RMK AO2 SLP145 T02000117
","San Luis Obispo, California, United States",2021-05-31 20:15:43 UTC
ksbp1_gnd,http://d.liveatc.net/ksbp1_gnd,KSBP Ground,US-Class-D,"KSBP 311956Z 21004KT 10SM CLR 20/12 A2996 RMK AO2 SLP145 T02000117
","San Luis Obispo, California, United States",2021-05-31 20:15:43 UTC
ksbp1_twr,http://d.liveatc.net/ksbp1_twr,KSBP Tower,US-Class-D,"KSBP 311956Z 21004KT 10SM CLR 20/12 A2996 RMK AO2 SLP145 T02000117
","San Luis Obispo, California, United States",2021-05-31 20:15:43 UTC
ksch,http://d.liveatc.net/ksch,KSCH Gnd/Twr,US-Class-D,"KSCH 311947Z 28004KT 15SM SCT039 BKN080 BKN120 19/10 A3017
","Schenectady, New York, United States",2021-05-31 20:15:43 UTC
ksck,http://d.liveatc.net/ksck,KSCK Gnd/Tower/NORCAL App,US-Class-D,"KSCK 311955Z VRB03KT 10SM CLR 33/11 A2986 RMK AO2 SLP109 T03330106
","Stockton, California, United States",2021-05-31 20:15:43 UTC
ksdl2_atis,http://d.liveatc.net/ksdl2_atis,KSDL ATIS,US-Class-D,"KSDL 311953Z VRB06KT 10SM CLR 35/03 A2990 RMK AO2 SLP097 T03500028
","Scottsdale, Arizona, United States",2021-05-31 20:15:43 UTC
ksdl2_guard,http://d.liveatc.net/ksdl2_guard,KSDL Emergency/Guard,US-Class-D,"KSDL 311953Z VRB06KT 10SM CLR 35/03 A2990 RMK AO2 SLP097 T03500028
","Scottsdale, Arizona, United States",2021-05-31 20:15:43 UTC
ksdl2_gnd,http://d.liveatc.net/ksdl2_gnd,KSDL Ground,US-Class-D,"KSDL 311953Z VRB06KT 10SM CLR 35/03 A2990 RMK AO2 SLP097 T03500028
","Scottsdale, Arizona, United States",2021-05-31 20:15:43 UTC
ksdl2_twr,http://d.liveatc.net/ksdl2_twr,KSDL Tower,US-Class-D,"KSDL 311953Z VRB06KT 10SM CLR 35/03 A2990 RMK AO2 SLP097 T03500028
","Scottsdale, Arizona, United States",2021-05-31 20:15:43 UTC
ksdm_twr,http://d.liveatc.net/ksdm_twr,KSDM Ground/Tower,US-Class-D,"KSDM 311953Z 29006KT 10SM CLR 22/12 A2995 RMK AO2 SLP138 T02220117
","San Diego, California, United States",2021-05-31 20:15:43 UTC
ksee,http://d.liveatc.net/ksee,KSEE Tower,US-Class-D,"KSEE 311947Z 24005KT 10SM SKC 24/12 A2994
","San Diego/El Cajon, California, United States",2021-05-31 20:15:43 UTC
ksef,http://d.liveatc.net/ksef,KSEF CTAF,US-Class-D,"KSEF 311955Z AUTO 09011KT 10SM BKN046 BKN050 31/19 A3013 RMK AO2 T03060193
","Sebring, Florida, United States",2021-05-31 20:15:43 UTC
ksef_guard,http://d.liveatc.net/ksef_guard,KSEF Emergency/Guard,US-Class-D,"KSEF 311955Z AUTO 09011KT 10SM BKN046 BKN050 31/19 A3013 RMK AO2 T03060193
","Sebring, Florida, United States",2021-05-31 20:15:43 UTC
korl_kmco_app_135300,http://d.liveatc.net/korl_kmco_app_135300,KMCO App/Dep (North Satellite),US-Class-D,"KORL 311953Z 07014KT 10SM FEW039 31/19 A3016 RMK AO2 SLP214 T03110194
","Orlando, Florida, United States",2021-05-31 20:15:43 UTC
kmht_murp_123075,http://d.liveatc.net/kmht_murp_123075,KSFM CTAF,US-Class-D,"KMHT 311953Z 32012G17KT 10SM OVC025 16/09 A3007 RMK AO2 SLP196 T01610089
","Sanford, Maine, United States",2021-05-31 20:15:43 UTC
kbos_area_ctaf,http://d.liveatc.net/kbos_area_ctaf,MA/NH/RI/CT Area CTAF,US-Class-D,"KBOS 311954Z 27006KT 10SM FEW015 OVC020 16/11 A3009 RMK AO2 SLP190 T01610106
","Pawtucket, Rhode Island, United States",2021-05-31 20:15:43 UTC
kbos_area_ctaf,http://d.liveatc.net/kbos_area_ctaf,MA/NH/RI/CT Area CTAF,US-Class-D,"KBOS 311954Z 27006KT 10SM FEW015 OVC020 16/11 A3009 RMK AO2 SLP190 T01610106
","Pawtucket, Rhode Island, United States",2021-05-31 20:15:43 UTC
kbos_area_ctaf,http://d.liveatc.net/kbos_area_ctaf,MA/NH/RI/CT Area CTAF,US-Class-D,"KBOS 311954Z 27006KT 10SM FEW015 OVC020 16/11 A3009 RMK AO2 SLP190 T01610106
","Pawtucket, Rhode Island, United States",2021-05-31 20:15:43 UTC
ksgj,http://d.liveatc.net/ksgj,KSGJ Ground/Tower,US-Class-D,"KSGJ 311956Z 04012KT 10SM SCT045 27/18 A3023 RMK AO2 SLP235 T02720183 $
","St Augustine, Florida, United States",2021-05-31 20:15:43 UTC
ksgr2,http://d.liveatc.net/ksgr2,KSGR Ground/Tower,US-Class-D,"KSGR 311953Z 14013G18KT 10SM SCT033 BKN044 BKN060 31/22 A3005 RMK AO2 RAE06 SLP176 P0000 T03060217 $
","Houston, Texas, United States",2021-05-31 20:15:43 UTC
ksjt2,http://d.liveatc.net/ksjt2,KSJT Tower/Approach,US-Class-D,"KSJT 311951Z 03018G34KT 10SM -RA BKN021 OVC030 18/15 A3007 RMK AO2 PK WND 03034/1944 LTG DSNT NW RAB48 SLP168 P0000 T01830150
","San Angelo, Texas, United States",2021-05-31 20:15:43 UTC
ksle,http://d.liveatc.net/ksle,KSLE Gnd/Twr,US-Class-D,"KSLE 311956Z 35007KT 10SM CLR 27/08 A3011 RMK AO2 SLP195 T02720083
","Salem, Oregon, United States",2021-05-31 20:15:43 UTC
ksln_atis,http://d.liveatc.net/ksln_atis,KSLN ATIS,US-Class-D,"KSLN 311953Z 07012KT 10SM OVC008 17/16 A3019 RMK AO2 RAE42 CIG 006V012 SLP219 P0000 T01670156
","Salina, Kansas, United States",2021-05-31 20:15:43 UTC
ksln_gnd,http://d.liveatc.net/ksln_gnd,KSLN Ground,US-Class-D,"KSLN 311953Z 07012KT 10SM OVC008 17/16 A3019 RMK AO2 RAE42 CIG 006V012 SLP219 P0000 T01670156
","Salina, Kansas, United States",2021-05-31 20:15:43 UTC
ksln,http://d.liveatc.net/ksln,KSLN Ground/Tower,US-Class-D,"KSLN 311953Z 07012KT 10SM OVC008 17/16 A3019 RMK AO2 RAE42 CIG 006V012 SLP219 P0000 T01670156
","Salina, Kansas, United States",2021-05-31 20:15:43 UTC
ksln_twr,http://d.liveatc.net/ksln_twr,KSLN Tower,US-Class-D,"KSLN 311953Z 07012KT 10SM OVC008 17/16 A3019 RMK AO2 RAE42 CIG 006V012 SLP219 P0000 T01670156
","Salina, Kansas, United States",2021-05-31 20:15:43 UTC
ksmo2_atis,http://d.liveatc.net/ksmo2_atis,KSMO ATIS,US-Class-D,"KSMO 311951Z 22008KT 10SM FEW014 19/13 A2996 RMK AO2 SLP145 T01890133 $
","Santa Monica, California, United States",2021-05-31 20:15:43 UTC
ksmo2_gnd,http://d.liveatc.net/ksmo2_gnd,KSMO Ground #1,US-Class-D,"KSMO 311951Z 22008KT 10SM FEW014 19/13 A2996 RMK AO2 SLP145 T01890133 $
","Santa Monica, California, United States",2021-05-31 20:15:43 UTC
ksmo3_gnd,http://d.liveatc.net/ksmo3_gnd,KSMO Ground #2,US-Class-D,"KSMO 311951Z 22008KT 10SM FEW014 19/13 A2996 RMK AO2 SLP145 T01890133 $
","Santa Monica, California, United States",2021-05-31 20:15:43 UTC
ksmo2_twr,http://d.liveatc.net/ksmo2_twr,KSMO Tower #1,US-Class-D,"KSMO 311951Z 22008KT 10SM FEW014 19/13 A2996 RMK AO2 SLP145 T01890133 $
","Santa Monica, California, United States",2021-05-31 20:15:43 UTC
ksmo3_twr,http://d.liveatc.net/ksmo3_twr,KSMO Tower #2,US-Class-D,"KSMO 311951Z 22008KT 10SM FEW014 19/13 A2996 RMK AO2 SLP145 T01890133 $
","Santa Monica, California, United States",2021-05-31 20:15:43 UTC
kspg2,http://d.liveatc.net/kspg2,KSPG Tower,US-Class-D,"KSPG 311953Z 07009KT 10SM CLR 31/22 A3009 RMK AO2 SLP189 T03110222 $
","St. Petersburg, Florida, United States",2021-05-31 20:15:43 UTC
ksql_gnd,http://d.liveatc.net/ksql_gnd,KSQL Ground,US-Class-D,"KSQL 311947Z 32007KT 10SM SKC 24/13 A2992
","San Carlos, California, United States",2021-05-31 20:15:43 UTC
ksql2,http://d.liveatc.net/ksql2,KSQL Ground/Tower,US-Class-D,"KSQL 311947Z 32007KT 10SM SKC 24/13 A2992
","San Carlos, California, United States",2021-05-31 20:15:43 UTC
ksql_twr,http://d.liveatc.net/ksql_twr,KSQL Tower,US-Class-D,"KSQL 311947Z 32007KT 10SM SKC 24/13 A2992
","San Carlos, California, United States",2021-05-31 20:15:43 UTC
kmsp3_kstp_twr,http://d.liveatc.net/kmsp3_kstp_twr,KSTP Tower,US-Class-D,"KMSP 311953Z 28011KT 10SM SCT060 SCT070 SCT160 23/09 A3010 RMK AO2 SLP190 TCU DSNT SE / S T02330089
","Saint Paul, Minnesota, United States",2021-05-31 20:15:43 UTC
ksts2,http://d.liveatc.net/ksts2,KSTS Ground/Tower,US-Class-D,"KSTS 311953Z 16009KT 9SM CLR 31/13 A2990 RMK AO2 SLP117 T03060128
","Santa Rosa, California, United States",2021-05-31 20:15:43 UTC
ksts,http://d.liveatc.net/ksts,KSTS Tower,US-Class-D,"KSTS 311953Z 16009KT 9SM CLR 31/13 A2990 RMK AO2 SLP117 T03060128
","Santa Rosa, California, United States",2021-05-31 20:15:43 UTC
ksua1_atis,http://d.liveatc.net/ksua1_atis,KSUA ATIS,US-Class-D,"KSUA 311948Z 10012G15KT 10SM FEW020 29/19 A3015
","Stuart, Florida, United States",2021-05-31 20:15:43 UTC
ksua1,http://d.liveatc.net/ksua1,KSUA Ground/Tower,US-Class-D,"KSUA 311948Z 10012G15KT 10SM FEW020 29/19 A3015
","Stuart, Florida, United States",2021-05-31 20:15:43 UTC
kfpr1_app,http://d.liveatc.net/kfpr1_app,Palm Beach App/Dep,US-Class-D,"KFPR 311953Z 08011KT 10SM CLR 28/19 A3014 RMK AO2 SLP205 T02830189
","Stuart, Florida, United States",2021-05-31 20:15:43 UTC
ksun_atis,http://d.liveatc.net/ksun_atis,KSUN ATIS,US-Class-D,"KSUN 311955Z 13010KT 10SM SKC 23/04 A3022
","Hailey, Idaho, United States",2021-05-31 20:15:43 UTC
ksun,http://d.liveatc.net/ksun,KSUN Ground/Tower,US-Class-D,"KSUN 311955Z 13010KT 10SM SKC 23/04 A3022
","Hailey, Idaho, United States",2021-05-31 20:15:43 UTC
ksus2_app,http://d.liveatc.net/ksus2_app,KSUS App/Dep,US-Class-D,"KSUS 311954Z 36003KT 10SM FEW060 24/09 A3020 RMK AO2 SLP222 T02440089
","St. Louis, Missouri, United States",2021-05-31 20:15:43 UTC
ksus2_gnd,http://d.liveatc.net/ksus2_gnd,KSUS Del/Ground,US-Class-D,"KSUS 311954Z 36003KT 10SM FEW060 24/09 A3020 RMK AO2 SLP222 T02440089
","St. Louis, Missouri, United States",2021-05-31 20:15:43 UTC
ksus2_twr,http://d.liveatc.net/ksus2_twr,KSUS Tower,US-Class-D,"KSUS 311954Z 36003KT 10SM FEW060 24/09 A3020 RMK AO2 SLP222 T02440089
","St. Louis, Missouri, United States",2021-05-31 20:15:43 UTC
ksuu,http://d.liveatc.net/ksuu,KSUU Del/Gnd/Twr/App/Misc,US-Class-D,"KSUU 311958Z AUTO 07005KT 10SM CLR 37/12 A2987 RMK AO2 SLP121 T03650120
","Fairfield, California, United States",2021-05-31 20:15:43 UTC
ksux2,http://d.liveatc.net/ksux2,KSUX Twr/App/ZMP,US-Class-D,"KSUX 311952Z AUTO 17004KT 10SM FEW032 25/09 A3017 RMK AO2 SLP214 T02500089 $
","Sioux City, Iowa, United States",2021-05-31 20:15:43 UTC
kswf2,http://d.liveatc.net/kswf2,KSWF Tower,US-Class-D,"KSWF 311945Z 34010KT 20SM SCT080 18/10 A3018
","Newburgh, New York, United States",2021-05-31 20:15:43 UTC
kswo2,http://d.liveatc.net/kswo2,KSWO Tower,US-Class-D,"KSWO 311953Z 08012KT 4SM -RA BR SCT006 BKN055 OVC070 17/15 A3011 RMK AO2 SLP188 P0007 T01670150
","Stillwater, Oklahoma, United States",2021-05-31 20:15:43 UTC
kteb1,http://d.liveatc.net/kteb1,KTEB Tower,US-Class-D,"KTEB 311951Z 36008G16KT 10SM BKN047 20/09 A3016 RMK AO2 SLP214 T02000094 $
","Teterboro, New Jersey, United States",2021-05-31 20:15:43 UTC
ktix_gnd,http://d.liveatc.net/ktix_gnd,KTIX Ground,US-Class-D,"KTIX 311947Z 08010KT 7SM SCT030 31/20 A3018
","Titusville, Florida, United States",2021-05-31 20:15:43 UTC
ktix,http://d.liveatc.net/ktix,KTIX Tower,US-Class-D,"KTIX 311947Z 08010KT 7SM SCT030 31/20 A3018
","Titusville, Florida, United States",2021-05-31 20:15:43 UTC
ktki1,http://d.liveatc.net/ktki1,KTKI Gnd/Twr,US-Class-D,"KTKI 311953Z 11005KT 10SM FEW010 BKN070 BKN095 22/19 A3008 RMK AO2 SLP185 T02170189
","Dallas, Texas, United States",2021-05-31 20:15:43 UTC
ktmb1_atis,http://d.liveatc.net/ktmb1_atis,KTMB ATIS,US-Class-D,"KTMB 311953Z 08013G22KT 10SM SCT027 29/22 A3009 RMK AO2 SLP187 T02940217
","Miami, Florida, United States",2021-05-31 20:15:43 UTC
ktmb1_del,http://d.liveatc.net/ktmb1_del,KTMB Clearance Delivery,US-Class-D,"KTMB 311953Z 08013G22KT 10SM SCT027 29/22 A3009 RMK AO2 SLP187 T02940217
","Miami, Florida, United States",2021-05-31 20:15:43 UTC
ktmb1_gnd,http://d.liveatc.net/ktmb1_gnd,KTMB Ground,US-Class-D,"KTMB 311953Z 08013G22KT 10SM SCT027 29/22 A3009 RMK AO2 SLP187 T02940217
","Miami, Florida, United States",2021-05-31 20:15:43 UTC
ktmb1_twr1,http://d.liveatc.net/ktmb1_twr1,KTMB Tower (Main),US-Class-D,"KTMB 311953Z 08013G22KT 10SM SCT027 29/22 A3009 RMK AO2 SLP187 T02940217
","Miami, Florida, United States",2021-05-31 20:15:43 UTC
ktmb1_twr2,http://d.liveatc.net/ktmb1_twr2,KTMB Tower (North),US-Class-D,"KTMB 311953Z 08013G22KT 10SM SCT027 29/22 A3009 RMK AO2 SLP187 T02940217
","Miami, Florida, United States",2021-05-31 20:15:43 UTC
ktme,http://d.liveatc.net/ktme,KTME Del/Gnd/Twr/App,US-Class-D,"KTME 311955Z AUTO 14010KT 9SM 29/22 A3006 RMK AO2
","Houston, Texas, United States",2021-05-31 20:15:43 UTC
ktoa,http://d.liveatc.net/ktoa,KTOA Tower,US-Class-D,"KTOA 311947Z VRB05KT 10SM BKN016 22/14 A2997
","Torrance, California, United States",2021-05-31 20:15:43 UTC
ktoc2,http://d.liveatc.net/ktoc2,KTOC CTAF,US-Class-D,"KTOC 311955Z AUTO 00000KT 10SM SCT042 SCT049 24/12 A3030 RMK AO2 T02420122
","Toccoa, Georgia, United States",2021-05-31 20:15:43 UTC
ktri,http://d.liveatc.net/ktri,KTRI Gnd/Twr/App,US-Class-D,"KTRI 311953Z 19007KT 10SM FEW055 FEW250 24/10 A3028 RMK AO2 SLP235 T02390100
","Bristol/Johnson/Kingsport, Tennessee, United States",2021-05-31 20:15:43 UTC
ktrk_atis,http://d.liveatc.net/ktrk_atis,KTRK ATIS/AWOS,US-Class-D,"KTRK 311945Z AUTO 21007KT 160V220 10SM SKC 26/M03 A3026
","Truckee, California, United States",2021-05-31 20:15:43 UTC
ktrk_guard,http://d.liveatc.net/ktrk_guard,KTRK Emergency/Guard,US-Class-D,"KTRK 311945Z AUTO 21007KT 160V220 10SM SKC 26/M03 A3026
","Truckee, California, United States",2021-05-31 20:15:43 UTC
ktrk_gnd_twr,http://d.liveatc.net/ktrk_gnd_twr,KTRK Gnd/Twr/CTAF,US-Class-D,"KTRK 311945Z AUTO 21007KT 160V220 10SM SKC 26/M03 A3026
","Truckee, California, United States",2021-05-31 20:15:43 UTC
ktrk_gnd,http://d.liveatc.net/ktrk_gnd,KTRK Ground,US-Class-D,"KTRK 311945Z AUTO 21007KT 160V220 10SM SKC 26/M03 A3026
","Truckee, California, United States",2021-05-31 20:15:43 UTC
ktrk_twr1,http://d.liveatc.net/ktrk_twr1,KTRK Tower/CTAF #1,US-Class-D,"KTRK 311945Z AUTO 21007KT 160V220 10SM SKC 26/M03 A3026
","Truckee, California, United States",2021-05-31 20:15:43 UTC
ktrk_twr,http://d.liveatc.net/ktrk_twr,KTRK Tower/CTAF #2,US-Class-D,"KTRK 311945Z AUTO 21007KT 160V220 10SM SKC 26/M03 A3026
","Truckee, California, United States",2021-05-31 20:15:43 UTC
ktrk,http://d.liveatc.net/ktrk,KTRK UNICOM,US-Class-D,"KTRK 311945Z AUTO 21007KT 160V220 10SM SKC 26/M03 A3026
","Truckee, California, United States",2021-05-31 20:15:43 UTC
ktta_awos,http://d.liveatc.net/ktta_awos,KTTA AWOS,US-Class-D,"KTTA 311955Z AUTO 13003KT 10SM OVC047 21/10 A3030 RMK AO2 T02100102
","Sanford, North Carolina, United States",2021-05-31 20:15:43 UTC
ktta,http://d.liveatc.net/ktta,KTTA CTAF,US-Class-D,"KTTA 311955Z AUTO 13003KT 10SM OVC047 21/10 A3030 RMK AO2 T02100102
","Sanford, North Carolina, United States",2021-05-31 20:15:43 UTC
kttd1_atis,http://d.liveatc.net/kttd1_atis,KTTD ATIS,US-Class-D,"KTTD 311953Z 32003KT 10SM CLR 26/11 A3011 RMK AO2 SLP195 T02610106
","Portland, Oregon, United States",2021-05-31 20:15:43 UTC
kttd1_gnd,http://d.liveatc.net/kttd1_gnd,KTTD Ground,US-Class-D,"KTTD 311953Z 32003KT 10SM CLR 26/11 A3011 RMK AO2 SLP195 T02610106
","Portland, Oregon, United States",2021-05-31 20:15:43 UTC
kttd1,http://d.liveatc.net/kttd1,KTTD Tower,US-Class-D,"KTTD 311953Z 32003KT 10SM CLR 26/11 A3011 RMK AO2 SLP195 T02610106
","Portland, Oregon, United States",2021-05-31 20:15:43 UTC
kttn,http://d.liveatc.net/kttn,KTTN Ground/Tower,US-Class-D,"KTTN 311953Z 35009KT 10SM SCT055 21/08 A3019 RMK AO2 SLP216 T02060083
","Trenton, New Jersey, United States",2021-05-31 20:15:43 UTC
ktvc,http://d.liveatc.net/ktvc,KTVC Ground/Tower,US-Class-D,"KTVC 311953Z 23011G20KT 10SM FEW055 SCT110 OVC250 23/04 A3016 RMK AO2 SLP214 T02280039
","Traverse City, Michigan, United States",2021-05-31 20:15:43 UTC
ktvl1_ctaf,http://d.liveatc.net/ktvl1_ctaf,KTVL CTAF,US-Class-D,"KTVL 311953Z AUTO 04008KT 10SM CLR 24/M02 A3026 RMK AO2 SLP195 T02441017
","South Lake Tahoe, California, United States",2021-05-31 20:15:43 UTC
ktyr2_app,http://d.liveatc.net/ktyr2_app,KTYR App/Dep,US-Class-D,"KTYR 311953Z 14010G15KT 10SM SCT035 SCT042 SCT049 28/19 A3008 RMK AO2 SLP179 T02780189
","Tyler, Texas, United States",2021-05-31 20:15:43 UTC
ktyr2_atis,http://d.liveatc.net/ktyr2_atis,KTYR ATIS,US-Class-D,"KTYR 311953Z 14010G15KT 10SM SCT035 SCT042 SCT049 28/19 A3008 RMK AO2 SLP179 T02780189
","Tyler, Texas, United States",2021-05-31 20:15:43 UTC
ktyr2_twr,http://d.liveatc.net/ktyr2_twr,KTYR Tower,US-Class-D,"KTYR 311953Z 14010G15KT 10SM SCT035 SCT042 SCT049 28/19 A3008 RMK AO2 SLP179 T02780189
","Tyler, Texas, United States",2021-05-31 20:15:43 UTC
ktyr2_unicom,http://d.liveatc.net/ktyr2_unicom,KTYR UNICOM,US-Class-D,"KTYR 311953Z 14010G15KT 10SM SCT035 SCT042 SCT049 28/19 A3008 RMK AO2 SLP179 T02780189
","Tyler, Texas, United States",2021-05-31 20:15:43 UTC
kuao_app,http://d.liveatc.net/kuao_app,KUAO App/Dep,US-Class-D,"KUAO 311953Z 06006KT 10SM CLR 27/10 A3013 RMK AO2 SLP199 T02720100
","Aurora, Oregon, United States",2021-05-31 20:15:43 UTC
kuao_atis,http://d.liveatc.net/kuao_atis,KUAO ATIS,US-Class-D,"KUAO 311953Z 06006KT 10SM CLR 27/10 A3013 RMK AO2 SLP199 T02720100
","Aurora, Oregon, United States",2021-05-31 20:15:43 UTC
kuao_del_gnd,http://d.liveatc.net/kuao_del_gnd,KUAO Del/Gnd,US-Class-D,"KUAO 311953Z 06006KT 10SM CLR 27/10 A3013 RMK AO2 SLP199 T02720100
","Aurora, Oregon, United States",2021-05-31 20:15:43 UTC
kuao,http://d.liveatc.net/kuao,KUAO Tower,US-Class-D,"KUAO 311953Z 06006KT 10SM CLR 27/10 A3013 RMK AO2 SLP199 T02720100
","Aurora, Oregon, United States",2021-05-31 20:15:43 UTC
kues,http://d.liveatc.net/kues,KUES Del/Gnd/Twr,US-Class-D,"KUES 311945Z 25010KT 10SM SCT075 21/05 A3020
","Waukesha, Wisconsin, United States",2021-05-31 20:15:43 UTC
kugn_app,http://d.liveatc.net/kugn_app,Chicago Approach (North),US-Class-D,"KUGN 311955Z 23008KT 10SM SCT100 22/08 A3021 RMK AO2 SLP227 T02170078
","Chicago/Waukegan, Illinois, United States",2021-05-31 20:15:43 UTC
kugn,http://d.liveatc.net/kugn,KUGN Tower,US-Class-D,"KUGN 311955Z 23008KT 10SM SCT100 22/08 A3021 RMK AO2 SLP227 T02170078
","Chicago/Waukegan, Illinois, United States",2021-05-31 20:15:43 UTC
kukt1_awos,http://d.liveatc.net/kukt1_awos,KUKT AWOS,US-Class-D,"KUKT 311955Z AUTO 32007G14KT 10SM CLR 22/07 A3020 RMK A01
","Quakertown, Pennsylvania, United States",2021-05-31 20:15:43 UTC
kukt1_del,http://d.liveatc.net/kukt1_del,KUKT Clearance Delivery,US-Class-D,"KUKT 311955Z AUTO 32007G14KT 10SM CLR 22/07 A3020 RMK A01
","Quakertown, Pennsylvania, United States",2021-05-31 20:15:43 UTC
kukt1_ctaf,http://d.liveatc.net/kukt1_ctaf,KUKT CTAF,US-Class-D,"KUKT 311955Z AUTO 32007G14KT 10SM CLR 22/07 A3020 RMK A01
","Quakertown, Pennsylvania, United States",2021-05-31 20:15:43 UTC
kump,http://d.liveatc.net/kump,KUMP CTAF/Unicom,US-Class-D,KUMP Airport Info,"Indianapolis, Indiana, United States",2021-05-31 20:15:43 UTC
kunv,http://d.liveatc.net/kunv,KUNV Gnd/Twr,US-Class-D,"KUNV 311953Z VRB05KT 10SM CLR 21/04 A3024
","State College, Pennsylvania, United States",2021-05-31 20:15:43 UTC
kuuu,http://d.liveatc.net/kuuu,KUUU CTAF/Del,US-Class-D,"KUUU 311953Z AUTO 30005KT 10SM OVC024 14/11 A3011 RMK AO2 SLP194 T01390111
","Newport, Rhode Island, United States",2021-05-31 20:15:43 UTC
krog,http://d.liveatc.net/krog,KROG/KXNA/KVBT/Misc,US-Class-D,"KROG 311958Z 00000KT 10SM CLR 19/12 A3023 RMK AO2 SLP229 T01890122
","Bentonville, Arkansas, United States",2021-05-31 20:15:43 UTC
kvcb,http://d.liveatc.net/kvcb,KVCB CTAF/App,US-Class-D,"KVCB 311953Z AUTO VRB05KT 10SM CLR 37/11 A2987 RMK AO2 SLP114 T03670111
","Vacaville, California, United States",2021-05-31 20:15:43 UTC
klas4_kvgt_twr,http://d.liveatc.net/klas4_kvgt_twr,KVGT Tower,US-Class-D,"KLAS 311956Z VRB03KT 10SM FEW110 FEW150 SCT250 34/M10 A2992 RMK AO2 SLP101 T03441100
","Las Vegas, Nevada, United States",2021-05-31 20:15:43 UTC
kvkx,http://d.liveatc.net/kvkx,KVKX CTAF,US-Class-D,KVKX Airport Info,"Friendly, Maryland, United States",2021-05-31 20:15:43 UTC
kvld,http://d.liveatc.net/kvld,KVLD Gnd/Twr/App/Dep,US-Class-D,"KVLD 311953Z 13004KT 10SM CLR 31/14 A3017 RMK AO2 SLP222 T03060144
","Valdosta, Georgia, United States",2021-05-31 20:15:43 UTC
kvld_s,http://d.liveatc.net/kvld_s,KVLD Gnd/Twr/App/Dep/Center,US-Class-D,"KVLD 311953Z 13004KT 10SM CLR 31/14 A3017 RMK AO2 SLP222 T03060144
","Valdosta, Georgia, United States",2021-05-31 20:15:43 UTC
kvny1_atis,http://d.liveatc.net/kvny1_atis,KVNY ATIS,US-Class-D,"KVNY 311951Z 20005KT 10SM CLR 23/13 A2994 RMK AO2 SLP131 T02330128 $
","Van Nuys, California, United States",2021-05-31 20:15:43 UTC
kvny1_del_gnd,http://d.liveatc.net/kvny1_del_gnd,KVNY Del/Gnd,US-Class-D,"KVNY 311951Z 20005KT 10SM CLR 23/13 A2994 RMK AO2 SLP131 T02330128 $
","Van Nuys, California, United States",2021-05-31 20:15:43 UTC
kwhp1_kvny_gnd_twr,http://d.liveatc.net/kwhp1_kvny_gnd_twr,KVNY Gnd/Twr #2,US-Class-D,"KWHP 311950Z 09005KT 10SM SKC 23/13 A2998
","Van Nuys, California, United States",2021-05-31 20:15:43 UTC
kwhp1_kvny_gnd,http://d.liveatc.net/kwhp1_kvny_gnd,KVNY Ground,US-Class-D,"KWHP 311950Z 09005KT 10SM SKC 23/13 A2998
","Van Nuys, California, United States",2021-05-31 20:15:43 UTC
kvny,http://d.liveatc.net/kvny,KVNY Tower #1,US-Class-D,"KVNY 311951Z 20005KT 10SM CLR 23/13 A2994 RMK AO2 SLP131 T02330128 $
","Van Nuys, California, United States",2021-05-31 20:15:43 UTC
kwhp1_kvny_twr,http://d.liveatc.net/kwhp1_kvny_twr,KVNY Tower #2,US-Class-D,"KWHP 311950Z 09005KT 10SM SKC 23/13 A2998
","Van Nuys, California, United States",2021-05-31 20:15:43 UTC
kvny1_twr,http://d.liveatc.net/kvny1_twr,KVNY Tower #3,US-Class-D,"KVNY 311951Z 20005KT 10SM CLR 23/13 A2994 RMK AO2 SLP131 T02330128 $
","Van Nuys, California, United States",2021-05-31 20:15:43 UTC
kvny1_twr2,http://d.liveatc.net/kvny1_twr2,KVNY Tower (East),US-Class-D,"KVNY 311951Z 20005KT 10SM CLR 23/13 A2994 RMK AO2 SLP131 T02330128 $
","Van Nuys, California, United States",2021-05-31 20:15:43 UTC
kvny1_twr1,http://d.liveatc.net/kvny1_twr1,KVNY Tower (West),US-Class-D,"KVNY 311951Z 20005KT 10SM CLR 23/13 A2994 RMK AO2 SLP131 T02330128 $
","Van Nuys, California, United States",2021-05-31 20:15:43 UTC
kwhp1_app,http://d.liveatc.net/kwhp1_app,KWHP/KVNY/KBUR App/Dep,US-Class-D,"KWHP 311950Z 09005KT 10SM SKC 23/13 A2998
","Van Nuys, California, United States",2021-05-31 20:15:43 UTC
kvpz_asos,http://d.liveatc.net/kvpz_asos,KVPZ ASOS,US-Class-D,"KVPZ 311956Z AUTO 23009KT 10SM CLR 20/08 A3026 RMK AO2 SLP245 T02000083
","Valparaiso, Indiana, United States",2021-05-31 20:15:43 UTC
kvpz,http://d.liveatc.net/kvpz,KVPZ CTAF/Clearance/App,US-Class-D,"KVPZ 311956Z AUTO 23009KT 10SM CLR 20/08 A3026 RMK AO2 SLP245 T02000083
","Valparaiso, Indiana, United States",2021-05-31 20:15:43 UTC
kvrb_gnd_twr,http://d.liveatc.net/kvrb_gnd_twr,KVRB Del/Gnd/Twr,US-Class-D,"KVRB 311953Z AUTO 07008KT 10SM CLR 29/19 A3014 RMK AO2 SLP206 T02940194
","Vero Beach, Florida, United States",2021-05-31 20:15:43 UTC
kfpr1_app,http://d.liveatc.net/kfpr1_app,Palm Beach App/Dep,US-Class-D,"KFPR 311953Z 08011KT 10SM CLR 28/19 A3014 RMK AO2 SLP205 T02830189
","Vero Beach, Florida, United States",2021-05-31 20:15:43 UTC
kwdr4_ctaf,http://d.liveatc.net/kwdr4_ctaf,KWDR/KCVC/KCNI CTAF,US-Class-D,"KWDR 311955Z AUTO 11004KT 10SM BKN045 OVC055 23/11 A3030 RMK AO2
","Winder, Georgia, United States",2021-05-31 20:15:43 UTC
kwhp1_gnd,http://d.liveatc.net/kwhp1_gnd,KWHP Ground,US-Class-D,"KWHP 311950Z 09005KT 10SM SKC 23/13 A2998
","Los Angeles, California, United States",2021-05-31 20:15:43 UTC
kwhp1_gnd_twr,http://d.liveatc.net/kwhp1_gnd_twr,KWHP Ground/Tower,US-Class-D,"KWHP 311950Z 09005KT 10SM SKC 23/13 A2998
","Los Angeles, California, United States",2021-05-31 20:15:43 UTC
kwhp1_twr,http://d.liveatc.net/kwhp1_twr,KWHP Tower,US-Class-D,"KWHP 311950Z 09005KT 10SM SKC 23/13 A2998
","Los Angeles, California, United States",2021-05-31 20:15:43 UTC
kwhp1_app,http://d.liveatc.net/kwhp1_app,KWHP/KVNY/KBUR App/Dep,US-Class-D,"KWHP 311950Z 09005KT 10SM SKC 23/13 A2998
","Los Angeles, California, United States",2021-05-31 20:15:43 UTC
kblm1,http://d.liveatc.net/kblm1,KNEL/KWRI/ZNY,US-Class-D,"KBLM 311956Z AUTO 30009KT 10SM BKN045 20/09 A3021 RMK AO2 SLP230 T02000094 PNO $
","Wrightstown, New Jersey, United States",2021-05-31 20:15:43 UTC
kwvi2,http://d.liveatc.net/kwvi2,KWVI CTAF/NORCAL App,US-Class-D,"KWVI 311953Z AUTO 23009KT 10SM CLR 19/11 A2997 RMK AO2 SLP148 T01940111
","Watsonville, California, United States",2021-05-31 20:15:43 UTC
krog,http://d.liveatc.net/krog,KROG/KXNA/KVBT/Misc,US-Class-D,"KROG 311958Z 00000KT 10SM CLR 19/12 A3023 RMK AO2 SLP229 T01890122
","Fayetteville/Springdale/Rogers, Arkansas, United States",2021-05-31 20:15:43 UTC
kzzv1_kcdi,http://d.liveatc.net/kzzv1_kcdi,KCDI CTAF,US-Class-D,"KZZV 311953Z AUTO 00000KT 10SM CLR 21/06 A3027 RMK AO2 SLP250 T02110061
","Cambridge, Ohio, United States",2021-05-31 20:15:43 UTC
kzzv1_awos,http://d.liveatc.net/kzzv1_awos,KZZV AWOS,US-Class-D,"KZZV 311953Z AUTO 00000KT 10SM CLR 21/06 A3027 RMK AO2 SLP250 T02110061
","Zanesville, Ohio, United States",2021-05-31 20:15:43 UTC
kzzv1_ctaf,http://d.liveatc.net/kzzv1_ctaf,KZZV CTAF,US-Class-D,"KZZV 311953Z AUTO 00000KT 10SM CLR 21/06 A3027 RMK AO2 SLP250 T02110061
","Zanesville, Ohio, United States",2021-05-31 20:15:43 UTC
kvny_app,http://d.liveatc.net/kvny_app,L70 CTAF/Misc,US-Class-D,"KVNY 311951Z 20005KT 10SM CLR 23/13 A2994 RMK AO2 SLP131 T02330128 $
","Agua Dulce, California, United States",2021-05-31 20:15:43 UTC
m54,http://d.liveatc.net/m54,M54 CTAF,US-Class-D,,"Lebanon, Tennessee, United States",2021-05-31 20:15:43 UTC
39n_n05_ctaf,http://d.liveatc.net/39n_n05_ctaf,N05 CTAF,US-Class-D,,"Hackettstown, New Jersey, United States",2021-05-31 20:15:43 UTC
kblm2,http://d.liveatc.net/kblm2,KBLM/N12/3N6/KMJX,US-Class-D,"KBLM 311956Z AUTO 30009KT 10SM BKN045 20/09 A3021 RMK AO2 SLP230 T02000094 PNO $
","Lakewood, New Jersey, United States",2021-05-31 20:15:43 UTC
n40,http://d.liveatc.net/n40,N40 CTAF/Unicom,US-Class-D,,"Pittstown, New Jersey, United States",2021-05-31 20:15:43 UTC
39n_n51_ctaf,http://d.liveatc.net/39n_n51_ctaf,N51 CTAF,US-Class-D,,"Readington, New Jersey, United States",2021-05-31 20:15:43 UTC
n57,http://d.liveatc.net/n57,N57 CTAF,US-Class-D,,"Toughkenamon, Pennsylvania, United States",2021-05-31 20:15:43 UTC
knh69,http://d.liveatc.net/knh69,NH69 CTAF,US-Class-D,KNH6 Airport Info,"West Ossipee, New Hampshire, United States",2021-05-31 20:15:43 UTC
o27_122800,http://d.liveatc.net/o27_122800,O27 CTAF,US-Class-D,,"Oakdale, California, United States",2021-05-31 20:15:43 UTC
o85,http://d.liveatc.net/o85,O85 CTAF,US-Class-D,,"Redding, California, United States",2021-05-31 20:15:43 UTC
be1_atis,http://d.liveatc.net/be1_atis,PABE ATIS,US-Class-D,,"Bethel, Alaska, United States",2021-05-31 20:15:43 UTC
be1_gnd_twr,http://d.liveatc.net/be1_gnd_twr,PABE Ground/Tower,US-Class-D,,"Bethel, Alaska, United States",2021-05-31 20:15:43 UTC
dq,http://d.liveatc.net/dq,PADQ Gnd/Twr/ZAN,US-Class-D,,"Kodiak, Alaska, United States",2021-05-31 20:15:43 UTC
fa1_app,http://d.liveatc.net/fa1_app,PAFA App/Dep,US-Class-D,,"Fairbanks, Alaska, United States",2021-05-31 20:15:43 UTC
fa1_del_gnd,http://d.liveatc.net/fa1_del_gnd,PAFA Del/Gnd,US-Class-D,,"Fairbanks, Alaska, United States",2021-05-31 20:15:43 UTC
fa,http://d.liveatc.net/fa,PAFA Gnd/Twr/App,US-Class-D,,"Fairbanks, Alaska, United States",2021-05-31 20:15:43 UTC
fa1_twr,http://d.liveatc.net/fa1_twr,PAFA Tower,US-Class-D,,"Fairbanks, Alaska, United States",2021-05-31 20:15:43 UTC
ho1_awos,http://d.liveatc.net/ho1_awos,PAHO AWOS/AFIS,US-Class-D,,"Homer, Alaska, United States",2021-05-31 20:15:43 UTC
ho1_ctaf,http://d.liveatc.net/ho1_ctaf,PAHO CTAF,US-Class-D,,"Homer, Alaska, United States",2021-05-31 20:15:43 UTC
h,http://d.liveatc.net/h,PALH Tower,US-Class-D,,"Anchorage, Alaska, United States",2021-05-31 20:15:43 UTC
mr,http://d.liveatc.net/mr,PAMR Ground/Tower,US-Class-D,,"Anchorage, Alaska, United States",2021-05-31 20:15:43 UTC
sc,http://d.liveatc.net/sc,PASC CTAF/Unicom/AFIS/App,US-Class-D,,"Deadhorse, Alaska, United States",2021-05-31 20:15:43 UTC
hko,http://d.liveatc.net/hko,Kona Gnd/Twr,US-Class-D,,"Kailua/Kona, Hawaii, United States",2021-05-31 20:15:43 UTC
s43,http://d.liveatc.net/s43,S43 CTAF,US-Class-D,,"Snohomish, Washington, United States",2021-05-31 20:15:43 UTC
s50,http://d.liveatc.net/s50,Auburn CTAF,US-Class-D,,"Auburn, Washington, United States",2021-05-31 20:15:43 UTC
kjwy2,http://d.liveatc.net/kjwy2,KJWY/T56 CTAF/Unicom,US-Class-D,"KJWY 311955Z AUTO 12005KT 10SM BKN026 OVC033 25/21 A3005 RMK AO2 T02510205
","Midlothian, Texas, United States",2021-05-31 20:15:43 UTC
u42_ctaf,http://d.liveatc.net/u42_ctaf,U42 CTAF/App,US-Class-D,,"Salt Lake City, Utah, United States",2021-05-31 20:15:43 UTC
kabq1_1,http://d.liveatc.net/kabq1_1,KABQ Twr/App/ZAB,US-ARTCC,"KABQ 311952Z 13020KT 10SM TS FEW030 SCT050CB BKN140 21/09 A3011 RMK AO2 LTG DSNT SW-N RAB36E50 TSB41 SLP130 OCNL LTGIC SW TS SW MOV NE VIRGA MTN TOPS OBSC NE AND SE P0000 T02110089
","Albuquerque, New Mexico, United States",2021-05-31 20:15:49 UTC
kabq2_zab17,http://d.liveatc.net/kabq2_zab17,ZAB Sector 17 Lava (Low),US-ARTCC,"KABQ 311952Z 13020KT 10SM TS FEW030 SCT050CB BKN140 21/09 A3011 RMK AO2 LTG DSNT SW-N RAB36E50 TSB41 SLP130 OCNL LTGIC SW TS SW MOV NE VIRGA MTN TOPS OBSC NE AND SE P0000 T02110089
","Albuquerque, New Mexico, United States",2021-05-31 20:15:49 UTC
kacy_zdc_sie,http://d.liveatc.net/kacy_zdc_sie,ZDC SIE54/CASINO51,US-ARTCC,"KACY 311954Z AUTO 28008KT 240V330 10SM OVC047 21/09 A3021 RMK AO2 SLP230 T02060094 TSNO
","Atlantic City, New Jersey, United States",2021-05-31 20:15:49 UTC
kalb1_zbw_alb22,http://d.liveatc.net/kalb1_zbw_alb22,ZBW Boston Center (ALB22),US-ARTCC,"KALB 311951Z 30004KT 10SM SCT028 SCT044 BKN080 16/10 A3018 RMK AO2 SLP219 T01610100
","Boston, Massachusetts, United States",2021-05-31 20:15:49 UTC
kalb1_zbw_ath38,http://d.liveatc.net/kalb1_zbw_ath38,ZBW Boston Center (ATH38/NY Site),US-ARTCC,"KALB 311951Z 30004KT 10SM SCT028 SCT044 BKN080 16/10 A3018 RMK AO2 SLP219 T01610100
","Boston, Massachusetts, United States",2021-05-31 20:15:49 UTC
kalb1_zbw_cam39,http://d.liveatc.net/kalb1_zbw_cam39,ZBW Boston Center (CAM39),US-ARTCC,"KALB 311951Z 30004KT 10SM SCT028 SCT044 BKN080 16/10 A3018 RMK AO2 SLP219 T01610100
","Boston, Massachusetts, United States",2021-05-31 20:15:49 UTC
kapn_app,http://d.liveatc.net/kapn_app,KAPN App/Dep/ZMP,US-ARTCC,"KAPN 311954Z AUTO 12009KT 10SM OVC080 20/06 A3018 RMK AO2 SLP223 T02000056 $
","Alpena, Michigan, United States",2021-05-31 20:15:49 UTC
kase2_app_ctr,http://d.liveatc.net/kase2_app_ctr,KASE Approach/Denver Center,US-ARTCC,"KASE 311953Z VRB06G24KT 10SM FEW060 19/M02 A3020 RMK AO2 SLP132 T01891022
","Aspen, Colorado, United States",2021-05-31 20:15:49 UTC
kase2_zdv,http://d.liveatc.net/kase2_zdv,ZDV Sector 26 POWDR Low,US-ARTCC,"KASE 311953Z VRB06G24KT 10SM FEW060 19/M02 A3020 RMK AO2 SLP132 T01891022
","Aspen, Colorado, United States",2021-05-31 20:15:49 UTC
kaug2_asos,http://d.liveatc.net/kaug2_asos,KAUG ASOS,US-ARTCC,"KAUG 311953Z AUTO 35007KT 1 1/2SM -RA BR BKN006 OVC011 12/12 A3006 RMK AO2 RAB29 SLP182 P0001 T01220122
","Augusta, Maine, United States",2021-05-31 20:15:49 UTC
kaug2_del,http://d.liveatc.net/kaug2_del,KAUG Clearance Delivery,US-ARTCC,"KAUG 311953Z AUTO 35007KT 1 1/2SM -RA BR BKN006 OVC011 12/12 A3006 RMK AO2 RAB29 SLP182 P0001 T01220122
","Augusta, Maine, United States",2021-05-31 20:15:49 UTC
kaug_app,http://d.liveatc.net/kaug_app,KAUG App/Center,US-ARTCC,"KAUG 311953Z AUTO 35007KT 1 1/2SM -RA BR BKN006 OVC011 12/12 A3006 RMK AO2 RAB29 SLP182 P0001 T01220122
","Augusta, Maine, United States",2021-05-31 20:15:49 UTC
kbdl2_zbw_ath_hi,http://d.liveatc.net/kbdl2_zbw_ath_hi,ZBW Boston Center (ATH38 High/CT Site),US-ARTCC,"KBDL 311951Z 32014KT 10SM SCT028 OVC034 16/08 A3016 RMK AO2 SLP211 T01560083
","Boston, Massachusetts, United States",2021-05-31 20:15:49 UTC
kbdl2_zbw_bos_hi,http://d.liveatc.net/kbdl2_zbw_bos_hi,ZBW Boston Center (BOS46 High) #2,US-ARTCC,"KBDL 311951Z 32014KT 10SM SCT028 OVC034 16/08 A3016 RMK AO2 SLP211 T01560083
","Boston, Massachusetts, United States",2021-05-31 20:15:49 UTC
kbdl2_zbw_bos_low,http://d.liveatc.net/kbdl2_zbw_bos_low,ZBW Boston Center (BOS47 Low),US-ARTCC,"KBDL 311951Z 32014KT 10SM SCT028 OVC034 16/08 A3016 RMK AO2 SLP211 T01560083
","Boston, Massachusetts, United States",2021-05-31 20:15:49 UTC
kbdl2_zbw_pvd_low,http://d.liveatc.net/kbdl2_zbw_pvd_low,ZBW Boston Center (PVD34 Low),US-ARTCC,"KBDL 311951Z 32014KT 10SM SCT028 OVC034 16/08 A3016 RMK AO2 SLP211 T01560083
","Boston, Massachusetts, United States",2021-05-31 20:15:49 UTC
kbdn2_zse05,http://d.liveatc.net/kbdn2_zse05,ZSE Seattle Center (Sector 05),US-ARTCC,"KBDN 311955Z AUTO 01007KT 10SM CLR 28/M01 A3020 RMK AO2
","Bend, Oregon, United States",2021-05-31 20:15:49 UTC
kbdn2_zse35,http://d.liveatc.net/kbdn2_zse35,ZSE Seattle Center (Sector 35),US-ARTCC,"KBDN 311955Z AUTO 01007KT 10SM CLR 28/M01 A3020 RMK AO2
","Bend, Oregon, United States",2021-05-31 20:15:49 UTC
kbgr_app,http://d.liveatc.net/kbgr_app,KBGR App/Dep,US-ARTCC,"KBGR 311953Z 36007KT 1SM R15/6000VP6000FT -DZ BR OVC004 14/13 A3004 RMK AO2 DZB09 SLP172 P0000 T01390133 $
","Bangor, Maine, United States",2021-05-31 20:15:49 UTC
kbgr_zbw,http://d.liveatc.net/kbgr_zbw,ZBW Sector 15 (BGR Area),US-ARTCC,"KBGR 311953Z 36007KT 1SM R15/6000VP6000FT -DZ BR OVC004 14/13 A3004 RMK AO2 DZB09 SLP172 P0000 T01390133 $
","Bangor, Maine, United States",2021-05-31 20:15:49 UTC
kbji,http://d.liveatc.net/kbji,KBJI CTAF/ZMP,US-ARTCC,"KBJI 311955Z AUTO 05003KT 10SM SCT060 19/04 A3014 RMK AO2 T01930043
","Bemidji, Minnesota, United States",2021-05-31 20:15:49 UTC
kblm1,http://d.liveatc.net/kblm1,KNEL/KWRI/ZNY,US-ARTCC,"KBLM 311956Z AUTO 30009KT 10SM BKN045 20/09 A3021 RMK AO2 SLP230 T02000094 PNO $
","Lakehurst, New Jersey, United States",2021-05-31 20:15:49 UTC
kblm1,http://d.liveatc.net/kblm1,KNEL/KWRI/ZNY,US-ARTCC,"KBLM 311956Z AUTO 30009KT 10SM BKN045 20/09 A3021 RMK AO2 SLP230 T02000094 PNO $
","Wrightstown, New Jersey, United States",2021-05-31 20:15:49 UTC
kcdc1_zla07,http://d.liveatc.net/kcdc1_zla07,ZLA Sector 07,US-ARTCC,"KCDC 311953Z AUTO VRB03G14KT 10SM CLR 26/M11 A3015 RMK AO2 SLP146 T02561106
","Cedar City, Utah, United States",2021-05-31 20:15:49 UTC
kcdc1_zla32,http://d.liveatc.net/kcdc1_zla32,ZLA Sector 32,US-ARTCC,"KCDC 311953Z AUTO VRB03G14KT 10SM CLR 26/M11 A3015 RMK AO2 SLP146 T02561106
","Cedar City, Utah, United States",2021-05-31 20:15:49 UTC
kcdc1_zla32_33,http://d.liveatc.net/kcdc1_zla32_33,ZLA Sector 32/33,US-ARTCC,"KCDC 311953Z AUTO VRB03G14KT 10SM CLR 26/M11 A3015 RMK AO2 SLP146 T02561106
","Cedar City, Utah, United States",2021-05-31 20:15:49 UTC
kcdc1_zla33,http://d.liveatc.net/kcdc1_zla33,ZLA Sector 33,US-ARTCC,"KCDC 311953Z AUTO VRB03G14KT 10SM CLR 26/M11 A3015 RMK AO2 SLP146 T02561106
","Cedar City, Utah, United States",2021-05-31 20:15:49 UTC
kcdc1_zla36,http://d.liveatc.net/kcdc1_zla36,ZLA Sector 36,US-ARTCC,"KCDC 311953Z AUTO VRB03G14KT 10SM CLR 26/M11 A3015 RMK AO2 SLP146 T02561106
","Cedar City, Utah, United States",2021-05-31 20:15:49 UTC
kcdc1_zlc44,http://d.liveatc.net/kcdc1_zlc44,ZLC Sector 44,US-ARTCC,"KCDC 311953Z AUTO VRB03G14KT 10SM CLR 26/M11 A3015 RMK AO2 SLP146 T02561106
","Cedar City, Utah, United States",2021-05-31 20:15:49 UTC
kcez,http://d.liveatc.net/kcez,KCEZ CTAF/ZDV,US-ARTCC,"KCEZ 311953Z AUTO 08018G24KT 10SM SCT110 21/02 A3013 RMK AO2 WSHFT 1913 TSB1859E19 SLP146 T02110022
","Cortez, Colorado, United States",2021-05-31 20:15:49 UTC
kcho3_wc1,http://d.liveatc.net/kcho3_wc1,ZDC Sector 2,US-ARTCC,"KCHO 311953Z VRB04KT 10SM SCT050 24/10 A3027 RMK AO2 SLP245 T02390100 $
","Charlottesville, Virginia, United States",2021-05-31 20:15:49 UTC
kcic1,http://d.liveatc.net/kcic1,KCIC Tower/ZOA42,US-ARTCC,"KCIC 311950Z VRB06KT 40SM SCT250 35/10 A2987
","Chico, California, United States",2021-05-31 20:15:49 UTC
kcoe2_zse8,http://d.liveatc.net/kcoe2_zse8,Seattle Center (Sector 8),US-ARTCC,"KCOE 311956Z AUTO 00000KT 10SM CLR 26/06 A3016 RMK AO2 SLP217 T02560056 PNO $
","Coeur d'Alene, Idaho, United States",2021-05-31 20:15:49 UTC
kcvg2_zid76,http://d.liveatc.net/kcvg2_zid76,ZID Indy Center (Batesville),US-ARTCC,"KCVG 311952Z 16008KT 10SM FEW180 BKN250 22/08 A3026 RMK AO2 SLP241 T02220078 VISNO 36R $
","Covington, Kentucky, United States",2021-05-31 20:15:49 UTC
kcys,http://d.liveatc.net/kcys,KCYS Gnd/Twr/App/Center,US-ARTCC,"KCYS 311953Z VRB04KT 10SM BKN045 14/05 A3030 RMK AO2 SLP214 T01440050 $
","Cheyenne, Wyoming, United States",2021-05-31 20:15:49 UTC
kdbq1_zau_118425_125225,http://d.liveatc.net/kdbq1_zau_118425_125225,ZAU Sector 76 #1,US-ARTCC,"KDBQ 311953Z AUTO 23011KT 10SM SCT050 21/09 A3020 RMK AO2 SLP226 T02110094
","Dubuque, Iowa, United States",2021-05-31 20:15:49 UTC
kdbq1_zau_127775,http://d.liveatc.net/kdbq1_zau_127775,ZAU Sector 75 #1,US-ARTCC,"KDBQ 311953Z AUTO 23011KT 10SM SCT050 21/09 A3020 RMK AO2 SLP226 T02110094
","Dubuque, Iowa, United States",2021-05-31 20:15:49 UTC
kdbq1_zau_133950,http://d.liveatc.net/kdbq1_zau_133950,ZAU Sector 63 #1,US-ARTCC,"KDBQ 311953Z AUTO 23011KT 10SM SCT050 21/09 A3020 RMK AO2 SLP226 T02110094
","Dubuque, Iowa, United States",2021-05-31 20:15:49 UTC
kden1_5,http://d.liveatc.net/kden1_5,ZDV Denver Center (Low),US-ARTCC,"KDEN 311953Z 04004KT 10SM SCT025 SCT033 BKN047 14/09 A3028 RMK AO2 SLP217 T01390089
","Denver, Colorado, United States",2021-05-31 20:15:49 UTC
kden1_6,http://d.liveatc.net/kden1_6,ZDV Denver Center (High North),US-ARTCC,"KDEN 311953Z 04004KT 10SM SCT025 SCT033 BKN047 14/09 A3028 RMK AO2 SLP217 T01390089
","Denver, Colorado, United States",2021-05-31 20:15:49 UTC
kden1_7,http://d.liveatc.net/kden1_7,ZDV Denver Center (High South),US-ARTCC,"KDEN 311953Z 04004KT 10SM SCT025 SCT033 BKN047 14/09 A3028 RMK AO2 SLP217 T01390089
","Denver, Colorado, United States",2021-05-31 20:15:49 UTC
kdlh2,http://d.liveatc.net/kdlh2,ZMP Sector 25/DLH ANG,US-ARTCC,"KDLH 311955Z 07003KT 10SM FEW055 SCT075 19/09 A3011 RMK AO2 SLP202 T01890094
","Duluth, Minnesota, United States",2021-05-31 20:15:49 UTC
kdov_zdc,http://d.liveatc.net/kdov_zdc,ZDC19/53 Kenton/Woodstown,US-ARTCC,"KDOV 311956Z 28013G21KT 10SM SCT049 22/10 A3021 RMK AO2A SLP234 T02150097 $
","Dover, Delaware, United States",2021-05-31 20:15:49 UTC
kear_center,http://d.liveatc.net/kear_center,ZDV/ZMP Kearney NE,US-ARTCC,"KEAR 311956Z AUTO 10007G14KT 10SM FEW031 20/12 A3023 RMK AO2 SLP231 T02000122
","Kearney, Nebraska, United States",2021-05-31 20:15:49 UTC
kear_center,http://d.liveatc.net/kear_center,ZDV/ZMP Kearney NE,US-ARTCC,"KEAR 311956Z AUTO 10007G14KT 10SM FEW031 20/12 A3023 RMK AO2 SLP231 T02000122
","Kearney, Nebraska, United States",2021-05-31 20:15:49 UTC
kewr2_zny67_dixie,http://d.liveatc.net/kewr2_zny67_dixie,ZNY New York Ctr (DIXIE Low),US-ARTCC,"KEWR 311951Z 32010G18KT 10SM FEW040 SCT049 22/08 A3017 RMK AO2 SLP217 T02220078
","Newark, New Jersey, United States",2021-05-31 20:15:49 UTC
kfat3,http://d.liveatc.net/kfat3,ZOA Oakland Center (Fresno),US-ARTCC,"KFAT 311953Z 22005KT 10SM FEW070 SCT250 34/11 A2986 RMK AO2 SLP105 CU OMTNS DSNT N-E-S T03440106
","Fresno, California, United States",2021-05-31 20:15:49 UTC
kflo1_zjx,http://d.liveatc.net/kflo1_zjx,ZJX Sector 71 Florence Low,US-ARTCC,"KFLO 311953Z AUTO 03008KT 10SM FEW055 27/09 A3027 RMK AO2 SLP250 T02670094
","Florence, South Carolina, United States",2021-05-31 20:15:49 UTC
kfmh1_zbw_cape,http://d.liveatc.net/kfmh1_zbw_cape,ZBW Cape Sector,US-ARTCC,"KFMH 311950Z 28006KT 6SM BR OVC006 14/13 A3010
","Falmouth, Massachusetts, United States",2021-05-31 20:15:49 UTC
kfmh1_zny_joboc,http://d.liveatc.net/kfmh1_zny_joboc,ZNY JOBOC Sector,US-ARTCC,"KFMH 311950Z 28006KT 6SM BR OVC006 14/13 A3010
","Falmouth, Massachusetts, United States",2021-05-31 20:15:49 UTC
kfsd1,http://d.liveatc.net/kfsd1,KFSD Twr/App/Dep/ZMP,US-ARTCC,"KFSD 311956Z 31009G17KT 10SM SCT090 26/03 A3015 RMK AO2 SLP205 T02610028
","Sioux Falls, South Dakota, United States",2021-05-31 20:15:49 UTC
kfwa1_zau_119850,http://d.liveatc.net/kfwa1_zau_119850,ZAU Sector 37,US-ARTCC,"KFWA 311954Z 22006KT 10SM FEW050 FEW140 SCT200 BKN250 21/07 A3026 RMK AO2 SLP247 T02110067 $
","Fort Wayne, Indiana, United States",2021-05-31 20:15:49 UTC
kfwa1_zau_124825,http://d.liveatc.net/kfwa1_zau_124825,ZAU Sector 36,US-ARTCC,"KFWA 311954Z 22006KT 10SM FEW050 FEW140 SCT200 BKN250 21/07 A3026 RMK AO2 SLP247 T02110067 $
","Fort Wayne, Indiana, United States",2021-05-31 20:15:49 UTC
kfwa1_zau_126325,http://d.liveatc.net/kfwa1_zau_126325,ZAU Sector 33,US-ARTCC,"KFWA 311954Z 22006KT 10SM FEW050 FEW140 SCT200 BKN250 21/07 A3026 RMK AO2 SLP247 T02110067 $
","Fort Wayne, Indiana, United States",2021-05-31 20:15:49 UTC
kfyv,http://d.liveatc.net/kfyv,KFYV Gnd/Twr/App/ZME,US-ARTCC,"KFYV 311953Z 10005KT 10SM BKN047 BKN055 19/13 A3020 RMK AO2 SLP220 T01890128
","Fayetteville, Arkansas, United States",2021-05-31 20:15:49 UTC
kgjt,http://d.liveatc.net/kgjt,KGJT Gnd/Twr/App/ZDV,US-ARTCC,"KGJT 311953Z 28010G20KT 10SM CLR 26/02 A3007 RMK AO2 SLP119 T02610017
","Grand Junction, Colorado, United States",2021-05-31 20:15:49 UTC
kgmu_ztl31,http://d.liveatc.net/kgmu_ztl31,ZTL Atlanta Center (Sector 31),US-ARTCC,"KGMU 311953Z 20007KT 10SM BKN050 23/12 A3030 RMK AO2 SLP255 T02330117
","Greer, South Carolina, United States",2021-05-31 20:15:49 UTC
kgmu_ztl32,http://d.liveatc.net/kgmu_ztl32,ZTL Atlanta Center (Sector 32),US-ARTCC,"KGMU 311953Z 20007KT 10SM BKN050 23/12 A3030 RMK AO2 SLP255 T02330117
","Greer, South Carolina, United States",2021-05-31 20:15:49 UTC
kgrr2_2_zau22,http://d.liveatc.net/kgrr2_2_zau22,ZAU Sector 22,US-ARTCC,"KGRR 311953Z 22013G17KT 10SM FEW070 SCT160 OVC210 22/07 A3023 RMK AO2 SLP238 T02170072
","Grand Rapids, Michigan, United States",2021-05-31 20:15:49 UTC
kgrr2_2_zau25,http://d.liveatc.net/kgrr2_2_zau25,ZAU Sector 25,US-ARTCC,"KGRR 311953Z 22013G17KT 10SM FEW070 SCT160 OVC210 22/07 A3023 RMK AO2 SLP238 T02170072
","Grand Rapids, Michigan, United States",2021-05-31 20:15:49 UTC
kgso1_ztl29,http://d.liveatc.net/kgso1_ztl29,ZTL Sector 29,US-ARTCC,"KGSO 311954Z VRB04KT 10SM BKN050 BKN250 22/10 A3029 RMK AO2 SLP252 T02170100 $
","Greensboro, North Carolina, United States",2021-05-31 20:15:49 UTC
kgso1_ztl2933,http://d.liveatc.net/kgso1_ztl2933,ZTL Sector 29/33,US-ARTCC,"KGSO 311954Z VRB04KT 10SM BKN050 BKN250 22/10 A3029 RMK AO2 SLP252 T02170100 $
","Greensboro, North Carolina, United States",2021-05-31 20:15:49 UTC
kgso1_ztl33,http://d.liveatc.net/kgso1_ztl33,ZTL Sector 33,US-ARTCC,"KGSO 311954Z VRB04KT 10SM BKN050 BKN250 22/10 A3029 RMK AO2 SLP252 T02170100 $
","Greensboro, North Carolina, United States",2021-05-31 20:15:49 UTC
kgvl1_ztl38,http://d.liveatc.net/kgvl1_ztl38,ZTL Atlanta Ctr (Sector 38 N Dep),US-ARTCC,"KGVL 311953Z AUTO 15005KT 10SM OVC050 22/12 A3031 RMK AO2 SLP253 T02220117
","Atlanta, Georgia, United States",2021-05-31 20:15:49 UTC
kgvl1_ztl49,http://d.liveatc.net/kgvl1_ztl49,ZTL Atlanta Ctr (Sector 49 LOGEN) #1,US-ARTCC,"KGVL 311953Z AUTO 15005KT 10SM OVC050 22/12 A3031 RMK AO2 SLP253 T02220117
","Atlanta, Georgia, United States",2021-05-31 20:15:49 UTC
khdc,http://d.liveatc.net/khdc,KHDC De/Gnd/Twr/App/ZHU,US-ARTCC,"KHDC 311935Z AUTO 12006KT 080V210 10SM SCT045 28/18 A3015 RMK AO2
","Hammond, Louisiana, United States",2021-05-31 20:15:49 UTC
khky2_ztl48,http://d.liveatc.net/khky2_ztl48,ZTL48 Wilkes Sector,US-ARTCC,"KHKY 311953Z 19004KT 10SM BKN043 22/13 A3029 RMK AO2 SLP242 T02170128
","Hickory, North Carolina, United States",2021-05-31 20:15:49 UTC
khro,http://d.liveatc.net/khro,KHRO CTAF/ZME/Misc,US-ARTCC,"KHRO 311953Z AUTO 15004KT 10SM BKN032 19/12 A3022 RMK AO2 SLP228 T01940117
","Harrison, Arkansas, United States",2021-05-31 20:15:49 UTC
khul,http://d.liveatc.net/khul,KHUL/KPQI/ZBW01/15,US-ARTCC,"KHUL 311953Z AUTO 01005KT 10SM -RA OVC007 12/11 A3008 RMK AO2 RAB22 CIG 005V012 SLP189 P0000 T01220106
","Houlton, Maine, United States",2021-05-31 20:15:49 UTC
khul,http://d.liveatc.net/khul,KHUL/KPQI/ZBW01/15,US-ARTCC,"KHUL 311953Z AUTO 01005KT 10SM -RA OVC007 12/11 A3008 RMK AO2 RAB22 CIG 005V012 SLP189 P0000 T01220106
","Presque Isle, Maine, United States",2021-05-31 20:15:49 UTC
khya2_zbw,http://d.liveatc.net/khya2_zbw,ZBW Boston Center (ACK17),US-ARTCC,"KHYA 311956Z 35005KT 5SM BR OVC007 13/11 A3008 RMK AO2 SLP188 T01330111
","Hyannis, Massachusetts, United States",2021-05-31 20:15:49 UTC
ki35,http://d.liveatc.net/ki35,I35 CTAF/ZID,US-ARTCC,"KI35 311955Z AUTO 01003KT 10SM SCT049 24/11 A3027 RMK AO2 T02400113
","Harlan, Kentucky, United States",2021-05-31 20:15:49 UTC
kiad2_5,http://d.liveatc.net/kiad2_5,ZDC Sectors 12/04,US-ARTCC,"KIAD 311952Z 30007KT 10SM FEW050 FEW250 23/08 A3026 RMK AO2 SLP245 T02280083
","Leesburg, Virginia, United States",2021-05-31 20:15:49 UTC
kilm2_s,http://d.liveatc.net/kilm2_s,KILM Gnd/Twr/App/ZDC,US-ARTCC,"KILM 311953Z VRB06KT 10SM CLR 25/13 A3027 RMK AO2 SLP250 T02500128
","Wilmington, North Carolina, United States",2021-05-31 20:15:49 UTC
kind2_zid_119550,http://d.liveatc.net/kind2_zid_119550,ZID Indy Center (Shelbyville),US-ARTCC,"KIND 311954Z 17003KT 10SM SCT130 BKN170 OVC250 20/08 A3026 RMK AO2 SLP244 T02000078
","Indianapolis, Indiana, United States",2021-05-31 20:15:49 UTC
kind2_zid_124525,http://d.liveatc.net/kind2_zid_124525,ZID Indy Center (Muncie),US-ARTCC,"KIND 311954Z 17003KT 10SM SCT130 BKN170 OVC250 20/08 A3026 RMK AO2 SLP244 T02000078
","Indianapolis, Indiana, United States",2021-05-31 20:15:49 UTC
kind2_zid_125125,http://d.liveatc.net/kind2_zid_125125,ZID Indy Center (Rushville),US-ARTCC,"KIND 311954Z 17003KT 10SM SCT130 BKN170 OVC250 20/08 A3026 RMK AO2 SLP244 T02000078
","Indianapolis, Indiana, United States",2021-05-31 20:15:49 UTC
kind2_zid_132775,http://d.liveatc.net/kind2_zid_132775,ZID Indy Center (Wabash),US-ARTCC,"KIND 311954Z 17003KT 10SM SCT130 BKN170 OVC250 20/08 A3026 RMK AO2 SLP244 T02000078
","Indianapolis, Indiana, United States",2021-05-31 20:15:49 UTC
kind2_zid_133425,http://d.liveatc.net/kind2_zid_133425,ZID Indy Center (Indianapolis),US-ARTCC,"KIND 311954Z 17003KT 10SM SCT130 BKN170 OVC250 20/08 A3026 RMK AO2 SLP244 T02000078
","Indianapolis, Indiana, United States",2021-05-31 20:15:49 UTC
kipt,http://d.liveatc.net/kipt,KIPT Gnd/Twr/ZNY,US-ARTCC,"KIPT 311954Z VRB04KT 10SM CLR 24/03 A3018 RMK AO2 SLP220 T02390033
","Williamsport, Pennsylvania, United States",2021-05-31 20:15:49 UTC
klas4_zla16,http://d.liveatc.net/klas4_zla16,ZLA Sector 16 (Low/High),US-ARTCC,"KLAS 311956Z VRB03KT 10SM FEW110 FEW150 SCT250 34/M10 A2992 RMK AO2 SLP101 T03441100
","Las Vegas, Nevada, United States",2021-05-31 20:15:49 UTC
klas5_zla34,http://d.liveatc.net/klas5_zla34,ZLA Sector 34 (High),US-ARTCC,"KLAS 311956Z VRB03KT 10SM FEW110 FEW150 SCT250 34/M10 A2992 RMK AO2 SLP101 T03441100
","Las Vegas, Nevada, United States",2021-05-31 20:15:49 UTC
klax8,http://d.liveatc.net/klax8,ZLA LA Center Sectors 04/13/21,US-ARTCC,"KLAX 311953Z 24010KT 9SM FEW019 SCT024 19/13 A2996 RMK AO2 SLP146 T01890133
","Los Angeles, California, United States",2021-05-31 20:15:49 UTC
kmaf2_zfw_132075,http://d.liveatc.net/kmaf2_zfw_132075,ZFW Ft Worth Center (Sector 82) #1,US-ARTCC,"KMAF 311953Z 08013G21KT 10SM VCTS BKN007 BKN027 OVC065 17/16 A3010 RMK AO2 LTG DSNT NE AND E RAE1854B06E21 CIG 005V009 SLP159 P0000 T01670161
","Midland, Texas, United States",2021-05-31 20:15:49 UTC
kmaf2_zfw_133100,http://d.liveatc.net/kmaf2_zfw_133100,ZFW Ft Worth Center (Sector 40) #1,US-ARTCC,"KMAF 311953Z 08013G21KT 10SM VCTS BKN007 BKN027 OVC065 17/16 A3010 RMK AO2 LTG DSNT NE AND E RAE1854B06E21 CIG 005V009 SLP159 P0000 T01670161
","Midland, Texas, United States",2021-05-31 20:15:49 UTC
kmfd1_zob04,http://d.liveatc.net/kmfd1_zob04,ZOB Sector 04 Mansfield Low,US-ARTCC,"KMFD 311952Z 30003KT 10SM CLR 23/06 A3028 RMK AO2 SLP251 T02280056
","Mansfield, Ohio, United States",2021-05-31 20:15:49 UTC
kmfd1_zob06,http://d.liveatc.net/kmfd1_zob06,ZOB Sector 06 Briggs Low,US-ARTCC,"KMFD 311952Z 30003KT 10SM CLR 23/06 A3028 RMK AO2 SLP251 T02280056
","Mansfield, Ohio, United States",2021-05-31 20:15:49 UTC
kmfd1_zob45,http://d.liveatc.net/kmfd1_zob45,ZOB Sector 45 Geauga Ultra Hi,US-ARTCC,"KMFD 311952Z 30003KT 10SM CLR 23/06 A3028 RMK AO2 SLP251 T02280056
","Mansfield, Ohio, United States",2021-05-31 20:15:49 UTC
kmfd1_zob49,http://d.liveatc.net/kmfd1_zob49,ZOB Sector 49 Lorain Hi,US-ARTCC,"KMFD 311952Z 30003KT 10SM CLR 23/06 A3028 RMK AO2 SLP251 T02280056
","Mansfield, Ohio, United States",2021-05-31 20:15:49 UTC
kmjx1_zdc58_cyn,http://d.liveatc.net/kmjx1_zdc58_cyn,ZDC Sector 58 Coyle,US-ARTCC,,"Toms River, New Jersey, United States",2021-05-31 20:15:49 UTC
kmjx1_zny86_oceanic,http://d.liveatc.net/kmjx1_zny86_oceanic,ZNY ATL86 Sector,US-ARTCC,,"Toms River, New Jersey, United States",2021-05-31 20:15:49 UTC
kmjx1_zny_manta,http://d.liveatc.net/kmjx1_zny_manta,ZNY Sector 66 MANTA,US-ARTCC,,"Toms River, New Jersey, United States",2021-05-31 20:15:49 UTC
kmkg3_zau,http://d.liveatc.net/kmkg3_zau,ZAU Sectors 24/25,US-ARTCC,"KMKG 311955Z 22008KT 10SM FEW160 BKN210 19/07 A3024 RMK AO2 SLP242 T01890067
","Muskegon, Michigan, United States",2021-05-31 20:15:49 UTC
kmrb1_zdc_bay,http://d.liveatc.net/kmrb1_zdc_bay,ZDC Washington Ctr (Bay Sector),US-ARTCC,"KMRB 311953Z VRB03KT 10SM CLR 23/05 A3024 RMK AO2 SLP239 T02280050
","Martinsburg, West Virginia, United States",2021-05-31 20:15:49 UTC
kmrb1_zdc_brooke,http://d.liveatc.net/kmrb1_zdc_brooke,ZDC Washington Ctr (Brooke Sector),US-ARTCC,"KMRB 311953Z VRB03KT 10SM CLR 23/05 A3024 RMK AO2 SLP239 T02280050
","Martinsburg, West Virginia, United States",2021-05-31 20:15:49 UTC
kmrb1_zdc_linden,http://d.liveatc.net/kmrb1_zdc_linden,ZDC Washington Ctr (Linden Sector),US-ARTCC,"KMRB 311953Z VRB03KT 10SM CLR 23/05 A3024 RMK AO2 SLP239 T02280050
","Martinsburg, West Virginia, United States",2021-05-31 20:15:49 UTC
kmrb1_zdc_pin,http://d.liveatc.net/kmrb1_zdc_pin,ZDC Washington Ctr (Pinion Sector),US-ARTCC,"KMRB 311953Z VRB03KT 10SM CLR 23/05 A3024 RMK AO2 SLP239 T02280050
","Martinsburg, West Virginia, United States",2021-05-31 20:15:49 UTC
kmrb1_zdc_pin_bay,http://d.liveatc.net/kmrb1_zdc_pin_bay,ZDC Washington Ctr (Bay/Pinion Sectors),US-ARTCC,"KMRB 311953Z VRB03KT 10SM CLR 23/05 A3024 RMK AO2 SLP239 T02280050
","Martinsburg, West Virginia, United States",2021-05-31 20:15:49 UTC
kmso,http://d.liveatc.net/kmso,KMSO Gnd/Twr/App/ZLC/ZSE,US-ARTCC,"KMSO 311953Z 31007KT 10SM CLR 24/04 A3015 RMK AO2 SLP200 T02440044
","Missoula, Montana, United States",2021-05-31 20:15:49 UTC
kmso,http://d.liveatc.net/kmso,KMSO Gnd/Twr/App/ZLC/ZSE,US-ARTCC,"KMSO 311953Z 31007KT 10SM CLR 24/04 A3015 RMK AO2 SLP200 T02440044
","Missoula, Montana, United States",2021-05-31 20:15:49 UTC
kmtj2,http://d.liveatc.net/kmtj2,KMTJ CTAF/ZDV/Guard,US-ARTCC,"KMTJ 311953Z AUTO 10SM CLR 23/01 A3014 RMK AO2 LTG DSNT SW SLP142 T02330006
","Montrose, Colorado, United States",2021-05-31 20:15:49 UTC
knyl1_zla31,http://d.liveatc.net/knyl1_zla31,ZLA Sector 31,US-ARTCC,"KNYL 311957Z AUTO 10SM CLR 35/04 A2987 RMK AO2 SLP110 T03500039 $
","Yuma, Arizona, United States",2021-05-31 20:15:49 UTC
koff3_app,http://d.liveatc.net/koff3_app,KOFF Gnd/Twr/App/ZMP,US-ARTCC,"KOFF 311956Z AUTO 14005KT 10SM CLR 22/11 A3021 RMK AO2 SLP233 T02240108 RVRNO PWINO PNO FZRANO TSNO VISNO RWY12 CHINO RWY12 $
","Omaha, Nebraska, United States",2021-05-31 20:15:49 UTC
kord1n1_zau_cribb,http://d.liveatc.net/kord1n1_zau_cribb,ZAU Chicago Center (Sector 81 CRIBB Low),US-ARTCC,"KORD 311951Z 21011KT 10SM FEW060 SCT170 OVC250 21/07 A3022 RMK AO2 SLP233 VIRGA S T02110067
","Chicago, Illinois, United States",2021-05-31 20:15:49 UTC
kork,http://d.liveatc.net/kork,KORK CTAF/ZME,US-ARTCC,KORK Airport Info,"North Little Rock, Arkansas, United States",2021-05-31 20:15:49 UTC
kotm,http://d.liveatc.net/kotm,KOTM Del/Twr/App/Center,US-ARTCC,"KOTM 311953Z AUTO 18009KT 10SM FEW018 FEW110 18/13 A3022 RMK AO2 SLP234 P0001 T01780128
","Ottumwa, Iowa, United States",2021-05-31 20:15:49 UTC
kotm,http://d.liveatc.net/kotm,KOTM Del/Twr/App/Center,US-ARTCC,"KOTM 311953Z AUTO 18009KT 10SM FEW018 FEW110 18/13 A3022 RMK AO2 SLP234 P0001 T01780128
","Ottumwa, Iowa, United States",2021-05-31 20:15:49 UTC
kotm,http://d.liveatc.net/kotm,KOTM Del/Twr/App/Center,US-ARTCC,"KOTM 311953Z AUTO 18009KT 10SM FEW018 FEW110 18/13 A3022 RMK AO2 SLP234 P0001 T01780128
","Ottumwa, Iowa, United States",2021-05-31 20:15:49 UTC
kpcw1_zob_21,http://d.liveatc.net/kpcw1_zob_21,ZOB Sector 21 Windsor Low,US-ARTCC,"KPCW 311955Z AUTO 7SM CLR 22/07 A3025 RMK AO2
","Cleveland, Ohio, United States",2021-05-31 20:15:49 UTC
kpcw1_zob_40,http://d.liveatc.net/kpcw1_zob_40,ZOB Sector 40 Carlton Low,US-ARTCC,"KPCW 311955Z AUTO 7SM CLR 22/07 A3025 RMK AO2
","Cleveland, Ohio, United States",2021-05-31 20:15:49 UTC
kpcw1_zob_47,http://d.liveatc.net/kpcw1_zob_47,ZOB Sector 47 Bluffton Hi,US-ARTCC,"KPCW 311955Z AUTO 7SM CLR 22/07 A3025 RMK AO2
","Cleveland, Ohio, United States",2021-05-31 20:15:49 UTC
kpcw1_zob_48,http://d.liveatc.net/kpcw1_zob_48,ZOB Sector 48 Ravenna Hi,US-ARTCC,"KPCW 311955Z AUTO 7SM CLR 22/07 A3025 RMK AO2
","Cleveland, Ohio, United States",2021-05-31 20:15:49 UTC
kphx4_zab38,http://d.liveatc.net/kphx4_zab38,ZAB Sector 38 (Miami Low),US-ARTCC,"KPHX 311951Z 28006KT 10SM FEW120 FEW250 36/03 A2986 RMK AO2 SLP090 CB DSNT NE T03560028 $
","Phoenix, Arizona, United States",2021-05-31 20:15:49 UTC
kphx4_zab91,http://d.liveatc.net/kphx4_zab91,ZAB Sector 91 (Gila Bend High),US-ARTCC,"KPHX 311951Z 28006KT 10SM FEW120 FEW250 36/03 A2986 RMK AO2 SLP090 CB DSNT NE T03560028 $
","Tucson, Arizona, United States",2021-05-31 20:15:49 UTC
kpit2_zob,http://d.liveatc.net/kpit2_zob,ZOB (Moon Twp RCAG),US-ARTCC,"KPIT 311951Z 20005KT 10SM FEW050 BKN200 20/06 A3027 RMK AO2 SLP259 T02000056
","Pittsburgh, Pennsylvania, United States",2021-05-31 20:15:49 UTC
kprc8,http://d.liveatc.net/kprc8,ZAB Albuquerque Center (Prescott),US-ARTCC,"KPRC 311953Z 24009G16KT 200V290 10SM SCT120 28/M04 A3009 RMK AO2 SLP105 T02781039
","Prescott, Arizona, United States",2021-05-31 20:15:49 UTC
kpsp2_zla,http://d.liveatc.net/kpsp2_zla,ZLA Sector 19/20,US-ARTCC,"KPSP 311953Z 10006KT 10SM CLR 34/13 A2987 RMK AO2 SLP112 T03440128 $
","Palm Springs, California, United States",2021-05-31 20:15:49 UTC
krfd2_zau,http://d.liveatc.net/krfd2_zau,ZAU Sector 92 (HAWKS),US-ARTCC,"KRFD 311954Z 22009KT 10SM FEW055 BKN140 OVC250 20/07 A3024 RMK AO2 SLP239 T02000067 $
","Rockford, Illinois, United States",2021-05-31 20:15:49 UTC
kril2,http://d.liveatc.net/kril2,KRIL CTAF/ZDV,US-ARTCC,"KRIL 311953Z AUTO 10SM CLR 23/02 A3011 RMK AO2 LTG DSNT NE SLP141 T02330022
","Rifle, Colorado, United States",2021-05-31 20:15:49 UTC
krno,http://d.liveatc.net/krno,KRNO Del/Gnd/Twr/App/ZOA,US-ARTCC,"KRNO 311955Z 24007KT 210V270 10SM FEW250 29/M04 A3015 RMK AO2 SLP155 T02941044
","Reno, Nevada, United States",2021-05-31 20:15:49 UTC
krow1_zab,http://d.liveatc.net/krow1_zab,ZAB Sector 23,US-ARTCC,"KROW 311951Z 07012G19KT 10SM SCT023 22/15 A3014 RMK AO2 SLP154 T02170150
","Roswell, New Mexico, United States",2021-05-31 20:15:49 UTC
kryy1_ztl49,http://d.liveatc.net/kryy1_ztl49,ZTL Atlanta Ctr (Sector 49 LOGEN) #2,US-ARTCC,"KRYY 311950Z 16004KT 10SM BKN049 24/13 A3028 RMK AO2 SLP971 T02440128 $
","Atlanta, Georgia, United States",2021-05-31 20:15:49 UTC
ksan_zla09,http://d.liveatc.net/ksan_zla09,ZLA LA Center Sector 09,US-ARTCC,"KSAN 311951Z 27006KT 10SM SCT021 20/12 A2997 RMK AO2 SLP148 T02000122
","Los Angeles, California, United States",2021-05-31 20:15:49 UTC
ksan_zla10,http://d.liveatc.net/ksan_zla10,ZLA LA Center Sector 10,US-ARTCC,"KSAN 311951Z 27006KT 10SM SCT021 20/12 A2997 RMK AO2 SLP148 T02000122
","Los Angeles, California, United States",2021-05-31 20:15:49 UTC
ksan_zla12,http://d.liveatc.net/ksan_zla12,ZLA LA Center Sector 12,US-ARTCC,"KSAN 311951Z 27006KT 10SM SCT021 20/12 A2997 RMK AO2 SLP148 T02000122
","Los Angeles, California, United States",2021-05-31 20:15:49 UTC
ksan_zla30,http://d.liveatc.net/ksan_zla30,ZLA LA Center Sector 30,US-ARTCC,"KSAN 311951Z 27006KT 10SM SCT021 20/12 A2997 RMK AO2 SLP148 T02000122
","Los Angeles, California, United States",2021-05-31 20:15:49 UTC
ksan_zla31,http://d.liveatc.net/ksan_zla31,ZLA LA Center Sector 31,US-ARTCC,"KSAN 311951Z 27006KT 10SM SCT021 20/12 A2997 RMK AO2 SLP148 T02000122
","Los Angeles, California, United States",2021-05-31 20:15:49 UTC
ksan_zla40,http://d.liveatc.net/ksan_zla40,ZLA LA Center Sector 40,US-ARTCC,"KSAN 311951Z 27006KT 10SM SCT021 20/12 A2997 RMK AO2 SLP148 T02000122
","Los Angeles, California, United States",2021-05-31 20:15:49 UTC
ksav1_zjx,http://d.liveatc.net/ksav1_zjx,ZJX Sectors 67/68/73,US-ARTCC,"KSAV 311953Z 11012KT 10SM SCT060 BKN250 26/13 A3024 RMK AO2 SLP239 T02610133
","Savannah, Georgia, United States",2021-05-31 20:15:49 UTC
ksbp1_zla15,http://d.liveatc.net/ksbp1_zla15,ZLA Sector 15 (SBP),US-ARTCC,"KSBP 311956Z 21004KT 10SM CLR 20/12 A2996 RMK AO2 SLP145 T02000117
","San Luis Obispo, California, United States",2021-05-31 20:15:49 UTC
ksgf5_zkc_133475,http://d.liveatc.net/ksgf5_zkc_133475,ZKC Sector 28,US-ARTCC,"KSGF 311952Z 00000KT 10SM FEW035 20/12 A3021 RMK AO2 SLP224 T02000117
","Springfield, Missouri, United States",2021-05-31 20:15:49 UTC
ksrq1_zma,http://d.liveatc.net/ksrq1_zma,ZMA Miami Center (07/08/25),US-ARTCC,"KSRQ 311953Z 27008KT 10SM SCT055 31/23 A3008 RMK AO2 SLP184 T03110233
","Sarasota/Bradenton, Florida, United States",2021-05-31 20:15:49 UTC
ksux2,http://d.liveatc.net/ksux2,KSUX Twr/App/ZMP,US-ARTCC,"KSUX 311952Z AUTO 17004KT 10SM FEW032 25/09 A3017 RMK AO2 SLP214 T02500089 $
","Sioux City, Iowa, United States",2021-05-31 20:15:49 UTC
ktrk_zoa44,http://d.liveatc.net/ktrk_zoa44,ZOA Oakland Center (44),US-ARTCC,"KTRK 311945Z AUTO 21007KT 160V220 10SM SKC 26/M03 A3026
","Truckee, California, United States",2021-05-31 20:15:49 UTC
ktul2,http://d.liveatc.net/ktul2,ZKC (Tulsa RCAG),US-ARTCC,"KTUL 311953Z 05005KT 3SM -RA BR OVC035 17/15 A3015 RMK AO2 SFC VIS 4 SLP207 P0013 T01670150
","Tulsa, Oklahoma, United States",2021-05-31 20:15:49 UTC
ktus,http://d.liveatc.net/ktus,KDMA/KTUS Twr/Ops/ZAB,US-ARTCC,"KTUS 311953Z AUTO 00000KT 10SM FEW110 34/02 A2997 RMK AO2 SLP095 T03440017
","Tucson, Arizona, United States",2021-05-31 20:15:49 UTC
ktus,http://d.liveatc.net/ktus,KDMA/KTUS Twr/Ops/ZAB,US-ARTCC,"KTUS 311953Z AUTO 00000KT 10SM FEW110 34/02 A2997 RMK AO2 SLP095 T03440017
","Tucson, Arizona, United States",2021-05-31 20:15:49 UTC
ktvc,http://d.liveatc.net/ktvc,KTVC Ground/Tower,US-ARTCC,"KTVC 311953Z 23011G20KT 10SM FEW055 SCT110 OVC250 23/04 A3016 RMK AO2 SLP214 T02280039
","Traverse City, Michigan, United States",2021-05-31 20:15:49 UTC
ktyr2_ctr,http://d.liveatc.net/ktyr2_ctr,ZFW Sector 25,US-ARTCC,"KTYR 311953Z 14010G15KT 10SM SCT035 SCT042 SCT049 28/19 A3008 RMK AO2 SLP179 T02780189
","Tyler, Texas, United States",2021-05-31 20:15:49 UTC
kunv,http://d.liveatc.net/kunv,KUNV Gnd/Twr,US-ARTCC,"KUNV 311953Z VRB05KT 10SM CLR 21/04 A3024
","State College, Pennsylvania, United States",2021-05-31 20:15:49 UTC
kunv_ctr_1,http://d.liveatc.net/kunv_ctr_1,ZNY Sector 73,US-ARTCC,"KUNV 311953Z VRB05KT 10SM CLR 21/04 A3024
","State College, Pennsylvania, United States",2021-05-31 20:15:49 UTC
kvld_s,http://d.liveatc.net/kvld_s,KVLD Gnd/Twr/App/Dep/Center,US-ARTCC,"KVLD 311953Z 13004KT 10SM CLR 31/14 A3017 RMK AO2 SLP222 T03060144
","Valdosta, Georgia, United States",2021-05-31 20:15:49 UTC
kvrb_app_zma,http://d.liveatc.net/kvrb_app_zma,KVRB App/ZMA,US-ARTCC,"KVRB 311953Z AUTO 07008KT 10SM CLR 29/19 A3014 RMK AO2 SLP206 T02940194
","Vero Beach, Florida, United States",2021-05-31 20:15:49 UTC
kzzv1_zid30,http://d.liveatc.net/kzzv1_zid30,ZID Sector 30 Columbus Low,US-ARTCC,"KZZV 311953Z AUTO 00000KT 10SM CLR 21/06 A3027 RMK AO2 SLP250 T02110061
","Zanesville, Ohio, United States",2021-05-31 20:15:49 UTC
kzzv1_zid77,http://d.liveatc.net/kzzv1_zid77,ZID Sector 77 University High,US-ARTCC,"KZZV 311953Z AUTO 00000KT 10SM CLR 21/06 A3027 RMK AO2 SLP250 T02110061
","Zanesville, Ohio, United States",2021-05-31 20:15:49 UTC
kzzv1_zid87,http://d.liveatc.net/kzzv1_zid87,ZID Sector 87 Appleton High,US-ARTCC,"KZZV 311953Z AUTO 00000KT 10SM CLR 21/06 A3027 RMK AO2 SLP250 T02110061
","Zanesville, Ohio, United States",2021-05-31 20:15:49 UTC
kzzv1_zid97,http://d.liveatc.net/kzzv1_zid97,ZID Sector 97 Lockbourne UH,US-ARTCC,"KZZV 311953Z AUTO 00000KT 10SM CLR 21/06 A3027 RMK AO2 SLP250 T02110061
","Zanesville, Ohio, United States",2021-05-31 20:15:49 UTC
kzzv1_zid_87_97,http://d.liveatc.net/kzzv1_zid_87_97,ZID Sectors 87/87,US-ARTCC,"KZZV 311953Z AUTO 00000KT 10SM CLR 21/06 A3027 RMK AO2 SLP250 T02110061
","Zanesville, Ohio, United States",2021-05-31 20:15:49 UTC
kzzv1_zid_uhf,http://d.liveatc.net/kzzv1_zid_uhf,ZID Sector 30/77/87/97 (UHF),US-ARTCC,"KZZV 311953Z AUTO 00000KT 10SM CLR 21/06 A3027 RMK AO2 SLP250 T02110061
","Zanesville, Ohio, United States",2021-05-31 20:15:49 UTC
myld1_zma,http://d.liveatc.net/myld1_zma,Miami Center (Bahamas Area),US-ARTCC,,"Deadman's Cay, Bahamas",2021-05-31 20:15:49 UTC
o27_119750,http://d.liveatc.net/o27_119750,ZOA Sector 29 High,US-ARTCC,,"Oakdale, California, United States",2021-05-31 20:15:49 UTC
o27_121250,http://d.liveatc.net/o27_121250,ZOA Sector 22 Low,US-ARTCC,,"Oakdale, California, United States",2021-05-31 20:15:49 UTC
o27_132950,http://d.liveatc.net/o27_132950,ZOA Sector 32 High,US-ARTCC,,"Oakdale, California, United States",2021-05-31 20:15:49 UTC
o27_134375,http://d.liveatc.net/o27_134375,ZOA Sector 34 High,US-ARTCC,,"Oakdale, California, United States",2021-05-31 20:15:49 UTC
be1_zan,http://d.liveatc.net/be1_zan,ZAN Anchorage Center (Bethel),US-ARTCC,,"Bethel, Alaska, United States",2021-05-31 20:15:49 UTC
dq,http://d.liveatc.net/dq,PADQ Gnd/Twr/ZAN,US-ARTCC,,"Kodiak, Alaska, United States",2021-05-31 20:15:49 UTC
fa1_ctr,http://d.liveatc.net/fa1_ctr,Anchorage Center (PAFA Area),US-ARTCC,,"Fairbanks, Alaska, United States",2021-05-31 20:15:49 UTC
ho1_zan,http://d.liveatc.net/ho1_zan,ZAN Anchorage Ctr (Homer/Low),US-ARTCC,,"Homer, Alaska, United States",2021-05-31 20:15:49 UTC
ho1_zan_high,http://d.liveatc.net/ho1_zan_high,ZAN Anchorage Ctr (Homer/High),US-ARTCC,,"Homer, Alaska, United States",2021-05-31 20:15:49 UTC
sc,http://d.liveatc.net/sc,PASC CTAF/Unicom/AFIS/App,US-ARTCC,,"Deadhorse, Alaska, United States",2021-05-31 20:15:49 UTC
hko2_hcf,http://d.liveatc.net/hko2_hcf,HCF Center (Northeast/Hamakua),US-ARTCC,,"Kailua/Kona, Hawaii, United States",2021-05-31 20:15:49 UTC
hnl1_ctr,http://d.liveatc.net/hnl1_ctr,HCF Center (W/NW/Oceanic),US-ARTCC,,"Honolulu, Hawaii, United States",2021-05-31 20:15:49 UTC
hnl1_hcf_119900,http://d.liveatc.net/hnl1_hcf_119900,HCF Center (Mt. Kaala/119.9),US-ARTCC,,"Honolulu, Hawaii, United States",2021-05-31 20:15:49 UTC
hnl1_hcf_126500,http://d.liveatc.net/hnl1_hcf_126500,HCF Center (Mt. Kaala/126.5),US-ARTCC,,"Honolulu, Hawaii, United States",2021-05-31 20:15:49 UTC
hog2_hcf,http://d.liveatc.net/hog2_hcf,HCF Center (PHOG/All),US-ARTCC,,"Kahului, Hawaii, United States",2021-05-31 20:15:49 UTC
hog2_hcf_11931241,http://d.liveatc.net/hog2_hcf_11931241,HCF Center (Lanai/Molokai/PHKO),US-ARTCC,,"Kahului, Hawaii, United States",2021-05-31 20:15:49 UTC
hog2_hcf_126000,http://d.liveatc.net/hog2_hcf_126000,HCF Center (Big Island/Maui),US-ARTCC,,"Kahului, Hawaii, United States",2021-05-31 20:15:49 UTC
hog2_hcf_127600,http://d.liveatc.net/hog2_hcf_127600,HCF Center (127.6),US-ARTCC,,"Kahului, Hawaii, United States",2021-05-31 20:15:49 UTC
tjsj2_ctr_s,http://d.liveatc.net/tjsj2_ctr_s,TJSJ San Juan Center,US-ARTCC,"TJSJ 311956Z 06018G24KT 10SM FEW036 SCT065 SCT095 30/23 A3001 RMK AO2 SLP160 T03000228 $
","San Juan, Puerto Rico, United States",2021-05-31 20:15:49 UTC
zab46,http://d.liveatc.net/zab46,ZAB Sector 46 (Tucson Low),US-ARTCC,,"Casa Grande, Arizona, United States",2021-05-31 20:15:49 UTC
zab46,http://d.liveatc.net/zab46,ZAB Sector 46 (Tucson Low),US-ARTCC,,"Tucson, Arizona, United States",2021-05-31 20:15:49 UTC
zan_anc,http://d.liveatc.net/zan_anc,ZAN Anchorage Center (Misc),US-ARTCC,,"Anchorage, Alaska, United States",2021-05-31 20:15:49 UTC
zau_dbq_63,http://d.liveatc.net/zau_dbq_63,ZAU Sector 63 #2,US-ARTCC,,"Dubuque, Iowa, United States",2021-05-31 20:15:49 UTC
zau_dbq_75,http://d.liveatc.net/zau_dbq_75,ZAU Sector 75 #2,US-ARTCC,,"Dubuque, Iowa, United States",2021-05-31 20:15:49 UTC
zau_dbq_75_76,http://d.liveatc.net/zau_dbq_75_76,ZAU Sector 75/76,US-ARTCC,,"Dubuque, Iowa, United States",2021-05-31 20:15:49 UTC
zau_dbq_76,http://d.liveatc.net/zau_dbq_76,ZAU Sector 76 #2,US-ARTCC,,"Dubuque, Iowa, United States",2021-05-31 20:15:49 UTC
zau_farmm,http://d.liveatc.net/zau_farmm,ZAU Chicago Center (Sector 74 FARMM Low),US-ARTCC,,"Chicago, Illinois, United States",2021-05-31 20:15:49 UTC
zau_osh,http://d.liveatc.net/zau_osh,"ZAU Chicago Center (Lone Rock, Low)",US-ARTCC,,"Oshkosh, Wisconsin, United States",2021-05-31 20:15:49 UTC
zbw06_hvn,http://d.liveatc.net/zbw06_hvn,ZBW Boston Center (PWL06),US-ARTCC,,"Boston, Massachusetts, United States",2021-05-31 20:15:49 UTC
zbw19_hvn,http://d.liveatc.net/zbw19_hvn,ZBW Boston Center (DXR19),US-ARTCC,,"Boston, Massachusetts, United States",2021-05-31 20:15:49 UTC
zbw20_hvn,http://d.liveatc.net/zbw20_hvn,ZBW Boston Center (IGN20),US-ARTCC,,"Boston, Massachusetts, United States",2021-05-31 20:15:49 UTC
zbw_bos46_nh,http://d.liveatc.net/zbw_bos46_nh,ZBW Boston Center (BOS46 High) #1,US-ARTCC,,"Boston, Massachusetts, United States",2021-05-31 20:15:49 UTC
zbw_cam,http://d.liveatc.net/zbw_cam,ZBW Boston Center (ALB22/ATH38/CAM39),US-ARTCC,,"Boston, Massachusetts, United States",2021-05-31 20:15:49 UTC
zbw_can21_bos46,http://d.liveatc.net/zbw_can21_bos46,ZBW Boston Center (CANAN21/BOS46),US-ARTCC,,"Boston, Massachusetts, United States",2021-05-31 20:15:49 UTC
zbw_ccc1,http://d.liveatc.net/zbw_ccc1,ZBW Boston Center (CLIPR32),US-ARTCC,,"New York, New York, United States",2021-05-31 20:15:49 UTC
zbw_ccc2,http://d.liveatc.net/zbw_ccc2,ZBW Boston Center (HTO31),US-ARTCC,,"New York, New York, United States",2021-05-31 20:15:49 UTC
zbw_con,http://d.liveatc.net/zbw_con,ZBW Boston Center (CON37),US-ARTCC,,"Boston, Massachusetts, United States",2021-05-31 20:15:49 UTC
zbw_gdm,http://d.liveatc.net/zbw_gdm,ZBW Boston Center (GDM36),US-ARTCC,,"Boston, Massachusetts, United States",2021-05-31 20:15:49 UTC
zbw_gdm_con,http://d.liveatc.net/zbw_gdm_con,ZBW Boston Center (GDM36/CON37) #1,US-ARTCC,,"Boston, Massachusetts, United States",2021-05-31 20:15:49 UTC
zbw_mpv,http://d.liveatc.net/zbw_mpv,ZBW Boston Center (MPV52/PLB53),US-ARTCC,,"Boston, Massachusetts, United States",2021-05-31 20:15:49 UTC
zbw_murp_gdm,http://d.liveatc.net/zbw_murp_gdm,ZBW Boston Center (GDM36/CON37) #2,US-ARTCC,,"Boston, Massachusetts, United States",2021-05-31 20:15:49 UTC
zbw_parso,http://d.liveatc.net/zbw_parso,ZBW Boston Center (PARSO16),US-ARTCC,,"Boston, Massachusetts, United States",2021-05-31 20:15:49 UTC
zbw_remsen,http://d.liveatc.net/zbw_remsen,ZBW Boston Center (RKA10),US-ARTCC,,"Boston, Massachusetts, United States",2021-05-31 20:15:49 UTC
zbw_ron1,http://d.liveatc.net/zbw_ron1,ZBW/ZNY/ZDC (JFK Area) #1,US-ARTCC,,"New York, New York, United States",2021-05-31 20:15:49 UTC
zbw_ron1,http://d.liveatc.net/zbw_ron1,ZBW/ZNY/ZDC (JFK Area) #1,US-ARTCC,,"New York, New York, United States",2021-05-31 20:15:49 UTC
zbw_ron1,http://d.liveatc.net/zbw_ron1,ZBW/ZNY/ZDC (JFK Area) #1,US-ARTCC,,"New York, New York, United States",2021-05-31 20:15:49 UTC
zbw_ron2,http://d.liveatc.net/zbw_ron2,ZBW/ZNY/ZDC (JFK Area) #2,US-ARTCC,,"New York, New York, United States",2021-05-31 20:15:49 UTC
zbw_ron2,http://d.liveatc.net/zbw_ron2,ZBW/ZNY/ZDC (JFK Area) #2,US-ARTCC,,"New York, New York, United States",2021-05-31 20:15:49 UTC
zbw_ron3,http://d.liveatc.net/zbw_ron3,ZBW/ZNY/ZDC (JFK Area) #3,US-ARTCC,,"New York, New York, United States",2021-05-31 20:15:49 UTC
zbw_ron3,http://d.liveatc.net/zbw_ron3,ZBW/ZNY/ZDC (JFK Area) #3,US-ARTCC,,"New York, New York, United States",2021-05-31 20:15:49 UTC
zbw_ron4,http://d.liveatc.net/zbw_ron4,ZBW/ZNY/ZDC (JFK Area) #4,US-ARTCC,,"New York, New York, United States",2021-05-31 20:15:49 UTC
zbw_ron4,http://d.liveatc.net/zbw_ron4,ZBW/ZNY/ZDC (JFK Area) #4,US-ARTCC,,"New York, New York, United States",2021-05-31 20:15:49 UTC
zbw_swf,http://d.liveatc.net/zbw_swf,ZBW Boston Center (SWF05),US-ARTCC,,"Newburgh, New York, United States",2021-05-31 20:15:49 UTC
zbw_turin,http://d.liveatc.net/zbw_turin,ZBW Boston Center (UCA09/ART08),US-ARTCC,,"Boston, Massachusetts, United States",2021-05-31 20:15:49 UTC
zdc59_zny86_acy,http://d.liveatc.net/zdc59_zny86_acy,ZNY ATL86/ZDC SIE54,US-ARTCC,,"Atlantic City, New Jersey, United States",2021-05-31 20:15:49 UTC
zdc59_zny86_acy,http://d.liveatc.net/zdc59_zny86_acy,ZNY ATL86/ZDC SIE54,US-ARTCC,,"Atlantic City, New Jersey, United States",2021-05-31 20:15:49 UTC
zdc_kilm2,http://d.liveatc.net/zdc_kilm2,ZDC Sector 35 Wilmington,US-ARTCC,,"Wilmington, North Carolina, United States",2021-05-31 20:15:49 UTC
zdc_kilm2,http://d.liveatc.net/zdc_kilm2,ZDC Sector 35 Wilmington,US-ARTCC,,"Wilmington, North Carolina, United States",2021-05-31 20:15:49 UTC
zdc_swann,http://d.liveatc.net/zdc_swann,ZDC Washington Center (SWANN),US-ARTCC,,"Baltimore, Maryland, United States",2021-05-31 20:15:49 UTC
zhu_aus1,http://d.liveatc.net/zhu_aus1,ZHU Houston Center (Sector 96),US-ARTCC,,"Austin, Texas, United States",2021-05-31 20:15:49 UTC
zhu_aus2,http://d.liveatc.net/zhu_aus2,ZHU Houston Center (Sector 78),US-ARTCC,,"Austin, Texas, United States",2021-05-31 20:15:49 UTC
zhu_aus3,http://d.liveatc.net/zhu_aus3,ZHU Houston Center (Sector 80),US-ARTCC,,"Austin, Texas, United States",2021-05-31 20:15:49 UTC
zhu_sat,http://d.liveatc.net/zhu_sat,ZHU San Antonio,US-ARTCC,,"San Antonio, Texas, United States",2021-05-31 20:15:49 UTC
zid_int,http://d.liveatc.net/zid_int,ZID Indy Center (Indy sectors),US-ARTCC,,"Indianapolis, Indiana, United States",2021-05-31 20:15:49 UTC
zjx_dab,http://d.liveatc.net/zjx_dab,ZJX Daytona Beach,US-ARTCC,,"Daytona Beach, Florida, United States",2021-05-31 20:15:49 UTC
zjx_vld,http://d.liveatc.net/zjx_vld,ZJX Jax Center (Valdosta GA),US-ARTCC,,"Valdosta, Georgia, United States",2021-05-31 20:15:49 UTC
zkc_kjln2,http://d.liveatc.net/zkc_kjln2,ZKC72 VINTA Low,US-ARTCC,,"Joplin, Missouri, United States",2021-05-31 20:15:49 UTC
zkc_mci,http://d.liveatc.net/zkc_mci,ZKC Kansas City Center (26),US-ARTCC,,"Kansas City, Missouri, United States",2021-05-31 20:15:49 UTC
zkc_sgf,http://d.liveatc.net/zkc_sgf,ZKC Springfield,US-ARTCC,,"Springfield, Missouri, United States",2021-05-31 20:15:49 UTC
zkc_sln,http://d.liveatc.net/zkc_sln,ZKC KC Center (Salina Low/High),US-ARTCC,,"Salina, Kansas, United States",2021-05-31 20:15:49 UTC
zla_sba_25_28,http://d.liveatc.net/zla_sba_25_28,ZLA Los Angeles Center (25/28),US-ARTCC,,"Santa Barbara, California, United States",2021-05-31 20:15:49 UTC
zlc_bil,http://d.liveatc.net/zlc_bil,ZLC Salt Lake Center (Sector 15),US-ARTCC,,"Billings, Montana, United States",2021-05-31 20:15:49 UTC
zlc_slc,http://d.liveatc.net/zlc_slc,ZLC Salt Lake Center (SLC) #1,US-ARTCC,,"Salt Lake City, Utah, United States",2021-05-31 20:15:49 UTC
zlc_slc5,http://d.liveatc.net/zlc_slc5,ZLC Salt Lake Center (SLC) #2,US-ARTCC,,"Salt Lake City, Utah, United States",2021-05-31 20:15:49 UTC
zma08_fmy,http://d.liveatc.net/zma08_fmy,ZMA Miami Center (Sector 7/8 Both),US-ARTCC,,"Fort Myers, Florida, United States",2021-05-31 20:15:49 UTC
zma24_fmy,http://d.liveatc.net/zma24_fmy,ZMA Miami Center (Sector 24 Both),US-ARTCC,,"Fort Myers, Florida, United States",2021-05-31 20:15:49 UTC
zma25_fmy,http://d.liveatc.net/zma25_fmy,ZMA Miami Center (Sector 25 Both),US-ARTCC,,"Fort Myers, Florida, United States",2021-05-31 20:15:49 UTC
zma26_kmia3,http://d.liveatc.net/zma26_kmia3,ZMA26 Miami Center (Homestead),US-ARTCC,,"Miami, Florida, United States",2021-05-31 20:15:49 UTC
zma40_kmia3,http://d.liveatc.net/zma40_kmia3,ZMA40 Miami Center (Bimini),US-ARTCC,,"Miami, Florida, United States",2021-05-31 20:15:49 UTC
zma41_kmia3,http://d.liveatc.net/zma41_kmia3,ZMA41 Miami Center (Junar),US-ARTCC,,"Miami, Florida, United States",2021-05-31 20:15:49 UTC
zma60_kmia3,http://d.liveatc.net/zma60_kmia3,ZMA60 Miami Center (Georgetown),US-ARTCC,,"Miami, Florida, United States",2021-05-31 20:15:49 UTC
zma64_sef,http://d.liveatc.net/zma64_sef,ZMA64 Avon High,US-ARTCC,,"Sebring, Florida, United States",2021-05-31 20:15:49 UTC
zma66_sef,http://d.liveatc.net/zma66_sef,ZMA66 Lakeland Low,US-ARTCC,,"Sebring, Florida, United States",2021-05-31 20:15:49 UTC
zma67_sef,http://d.liveatc.net/zma67_sef,ZMA67 Lakeland High,US-ARTCC,,"Sebring, Florida, United States",2021-05-31 20:15:49 UTC
zma_fmy_128225,http://d.liveatc.net/zma_fmy_128225,ZMA Miami Center (Sector 25/128.225),US-ARTCC,,"Fort Myers, Florida, United States",2021-05-31 20:15:49 UTC
zma_fmy_132400,http://d.liveatc.net/zma_fmy_132400,ZMA Miami Center (Sector 24/132.4),US-ARTCC,,"Fort Myers, Florida, United States",2021-05-31 20:15:49 UTC
zma_fmy_133275,http://d.liveatc.net/zma_fmy_133275,ZMA Miami Center (Sector 25/133.275),US-ARTCC,,"Fort Myers, Florida, United States",2021-05-31 20:15:49 UTC
zma_fmy_133900,http://d.liveatc.net/zma_fmy_133900,ZMA Miami Center (Sector 08),US-ARTCC,,"Fort Myers, Florida, United States",2021-05-31 20:15:49 UTC
zma_fmy_134750,http://d.liveatc.net/zma_fmy_134750,ZMA Miami Center (Sector 24/134.75),US-ARTCC,,"Fort Myers, Florida, United States",2021-05-31 20:15:49 UTC
zma_sef_lakeland,http://d.liveatc.net/zma_sef_lakeland,ZMA66/67 Lakeland,US-ARTCC,,"Sebring, Florida, United States",2021-05-31 20:15:49 UTC
zme_hsv2,http://d.liveatc.net/zme_hsv2,ZME Memphis Center (HSV/Hamilton),US-ARTCC,,"Huntsville, Alabama, United States",2021-05-31 20:15:49 UTC
zme_hsv_120800,http://d.liveatc.net/zme_hsv_120800,ZME Memphis Center (Hamilton),US-ARTCC,,"Huntsville, Alabama, United States",2021-05-31 20:15:49 UTC
zme_ork,http://d.liveatc.net/zme_ork,ZME Sectors 20/21 (ORK),US-ARTCC,,"North Little Rock, Arkansas, United States",2021-05-31 20:15:49 UTC
zmp_tvc1,http://d.liveatc.net/zmp_tvc1,ZMP Sector 02 (TVC),US-ARTCC,,"Traverse City, Michigan, United States",2021-05-31 20:15:49 UTC
zny_avp_elmhi,http://d.liveatc.net/zny_avp_elmhi,ZNY34 NY Ctr Elmira Hi,US-ARTCC,,"Wilkes-Barre/Scranton, Pennsylvania, United States",2021-05-31 20:15:49 UTC
zny_col_dix,http://d.liveatc.net/zny_col_dix,ZNY Sector 67 (Dixie),US-ARTCC,,"New York, New York, United States",2021-05-31 20:15:49 UTC
zny_col_ken,http://d.liveatc.net/zny_col_ken,ZNY Sector 56 (Kennedy),US-ARTCC,,"New York, New York, United States",2021-05-31 20:15:49 UTC
zny_huo,http://d.liveatc.net/zny_huo,ZNY NY Center (HUO),US-ARTCC,,"Newburgh, New York, United States",2021-05-31 20:15:49 UTC
zny_ipt_72,http://d.liveatc.net/zny_ipt_72,ZNY Sector 72,US-ARTCC,,"Williamsport, Pennsylvania, United States",2021-05-31 20:15:49 UTC
zny_ipt_74,http://d.liveatc.net/zny_ipt_74,ZNY Sector 74,US-ARTCC,,"Williamsport, Pennsylvania, United States",2021-05-31 20:15:49 UTC
zny_ipt_75,http://d.liveatc.net/zny_ipt_75,ZNY Sector 75,US-ARTCC,,"Williamsport, Pennsylvania, United States",2021-05-31 20:15:49 UTC
zoa_35,http://d.liveatc.net/zoa_35,ZOA Oakland Center (35),US-ARTCC,,"San Francisco, California, United States",2021-05-31 20:15:49 UTC
zoa_sfo,http://d.liveatc.net/zoa_sfo,ZOA Oakland Center (35/40/41),US-ARTCC,,"San Francisco, California, United States",2021-05-31 20:15:49 UTC
zob_ckb,http://d.liveatc.net/zob_ckb,ZOB Sector 61 Morgantown Low,US-ARTCC,,"Clarksburg, West Virginia, United States",2021-05-31 20:15:49 UTC
zse_kmfr,http://d.liveatc.net/zse_kmfr,Seattle Center (Sector 30/36),US-ARTCC,,"Medford, Oregon, United States",2021-05-31 20:15:49 UTC
zse_kmfr_124850,http://d.liveatc.net/zse_kmfr_124850,Seattle Center (Sector 30),US-ARTCC,,"Medford, Oregon, United States",2021-05-31 20:15:49 UTC
zse_kmfr_127550,http://d.liveatc.net/zse_kmfr_127550,Seattle Center (Sector 36),US-ARTCC,,"Medford, Oregon, United States",2021-05-31 20:15:49 UTC
zse_kmfr_134900,http://d.liveatc.net/zse_kmfr_134900,Seattle Center (Sector 14),US-ARTCC,,"Medford, Oregon, United States",2021-05-31 20:15:49 UTC
zse_kmfr_135150,http://d.liveatc.net/zse_kmfr_135150,Seattle Center (Sector 15),US-ARTCC,,"Medford, Oregon, United States",2021-05-31 20:15:49 UTC
zse_kmfr_14_15,http://d.liveatc.net/zse_kmfr_14_15,Seattle Center (Sector 14/15),US-ARTCC,,"Medford, Oregon, United States",2021-05-31 20:15:49 UTC
ztl_cha1,http://d.liveatc.net/ztl_cha1,ZTL Atlanta Center 05/36,US-ARTCC,,"Chattanooga, Tennessee, United States",2021-05-31 20:15:49 UTC
ztl_hsv2,http://d.liveatc.net/ztl_hsv2,ZTL Atlanta Center (HSV/Sector 02),US-ARTCC,,"Huntsville, Alabama, United States",2021-05-31 20:15:49 UTC
efku,http://d.liveatc.net/efku,EFKU Tower/Approach,International-EU,"EFKU 311950Z AUTO 33004KT CAVOK 09/06 Q1019
","Siilinjarvi, Finland",2021-05-31 20:15:54 UTC
eham01_rdr_artip,http://d.liveatc.net/eham01_rdr_artip,EHAA Radar ARTIP,International-EU,"EHAM 311955Z 03007KT CAVOK 17/11 Q1020 NOSIG
","Amsterdam, Netherlands",2021-05-31 20:15:54 UTC
eham03_rdr_e_inb,http://d.liveatc.net/eham03_rdr_e_inb,EHAA Radar East Inbound,International-EU,"EHAM 311955Z 03007KT CAVOK 17/11 Q1020 NOSIG
","Amsterdam, Netherlands",2021-05-31 20:15:54 UTC
eham02_rdr_e_out,http://d.liveatc.net/eham02_rdr_e_out,EHAA Radar East Outbound,International-EU,"EHAM 311955Z 03007KT CAVOK 17/11 Q1020 NOSIG
","Amsterdam, Netherlands",2021-05-31 20:15:54 UTC
eham04_rdr_n,http://d.liveatc.net/eham04_rdr_n,EHAA Radar North,International-EU,"EHAM 311955Z 03007KT CAVOK 17/11 Q1020 NOSIG
","Amsterdam, Netherlands",2021-05-31 20:15:54 UTC
eham02_rdr_nw,http://d.liveatc.net/eham02_rdr_nw,EHAA Radar Northwest,International-EU,"EHAM 311955Z 03007KT CAVOK 17/11 Q1020 NOSIG
","Amsterdam, Netherlands",2021-05-31 20:15:54 UTC
eham03_rdr_river,http://d.liveatc.net/eham03_rdr_river,EHAA Radar RIVER,International-EU,"EHAM 311955Z 03007KT CAVOK 17/11 Q1020 NOSIG
","Amsterdam, Netherlands",2021-05-31 20:15:54 UTC
eham02_rdr_s,http://d.liveatc.net/eham02_rdr_s,EHAA Radar South,International-EU,"EHAM 311955Z 03007KT CAVOK 17/11 Q1020 NOSIG
","Amsterdam, Netherlands",2021-05-31 20:15:54 UTC
eham03_rdr_s_bu,http://d.liveatc.net/eham03_rdr_s_bu,EHAA Radar South (Backup),International-EU,"EHAM 311955Z 03007KT CAVOK 17/11 Q1020 NOSIG
","Amsterdam, Netherlands",2021-05-31 20:15:54 UTC
eham02_rdr_sw,http://d.liveatc.net/eham02_rdr_sw,EHAA Radar Southwest,International-EU,"EHAM 311955Z 03007KT CAVOK 17/11 Q1020 NOSIG
","Amsterdam, Netherlands",2021-05-31 20:15:54 UTC
eham01_rdr_sugol,http://d.liveatc.net/eham01_rdr_sugol,EHAA Radar SUGOL,International-EU,"EHAM 311955Z 03007KT CAVOK 17/11 Q1020 NOSIG
","Amsterdam, Netherlands",2021-05-31 20:15:54 UTC
eham03_aom,http://d.liveatc.net/eham03_aom,EHAM Airside Ops Mgr (AOM),International-EU,"EHAM 311955Z 03007KT CAVOK 17/11 Q1020 NOSIG
","Amsterdam, Netherlands",2021-05-31 20:15:54 UTC
eham04_app_bu,http://d.liveatc.net/eham04_app_bu,EHAM App/Dep Backup,International-EU,"EHAM 311955Z 03007KT CAVOK 17/11 Q1020 NOSIG
","Amsterdam, Netherlands",2021-05-31 20:15:54 UTC
eham01_app_tma_e,http://d.liveatc.net/eham01_app_tma_e,EHAM App/Dep TMA East,International-EU,"EHAM 311955Z 03007KT CAVOK 17/11 Q1020 NOSIG
","Amsterdam, Netherlands",2021-05-31 20:15:54 UTC
eham01_app_tma_w,http://d.liveatc.net/eham01_app_tma_w,EHAM App/Dep TMA West,International-EU,"EHAM 311955Z 03007KT CAVOK 17/11 Q1020 NOSIG
","Amsterdam, Netherlands",2021-05-31 20:15:54 UTC
eham05_apr_n,http://d.liveatc.net/eham05_apr_n,EHAM Apron (North),International-EU,"EHAM 311955Z 03007KT CAVOK 17/11 Q1020 NOSIG
","Amsterdam, Netherlands",2021-05-31 20:15:54 UTC
eham05_apr_s,http://d.liveatc.net/eham05_apr_s,EHAM Apron (South),International-EU,"EHAM 311955Z 03007KT CAVOK 17/11 Q1020 NOSIG
","Amsterdam, Netherlands",2021-05-31 20:15:54 UTC
eham01_arr_p,http://d.liveatc.net/eham01_arr_p,EHAM Arrival (Primary),International-EU,"EHAM 311955Z 03007KT CAVOK 17/11 Q1020 NOSIG
","Amsterdam, Netherlands",2021-05-31 20:15:54 UTC
eham03_arr_bu,http://d.liveatc.net/eham03_arr_bu,EHAM Arrival (Secondary),International-EU,"EHAM 311955Z 03007KT CAVOK 17/11 Q1020 NOSIG
","Amsterdam, Netherlands",2021-05-31 20:15:54 UTC
eham03_arr_bu2,http://d.liveatc.net/eham03_arr_bu2,EHAM Arrival (Secondary/Backup),International-EU,"EHAM 311955Z 03007KT CAVOK 17/11 Q1020 NOSIG
","Amsterdam, Netherlands",2021-05-31 20:15:54 UTC
eham02_arr_bu_def,http://d.liveatc.net/eham02_arr_bu_def,EHAM Arrival Backup/Discrete,International-EU,"EHAM 311955Z 03007KT CAVOK 17/11 Q1020 NOSIG
","Amsterdam, Netherlands",2021-05-31 20:15:54 UTC
eham01_del,http://d.liveatc.net/eham01_del,EHAM Clearance Delivery,International-EU,"EHAM 311955Z 03007KT CAVOK 17/11 Q1020 NOSIG
","Amsterdam, Netherlands",2021-05-31 20:15:54 UTC
eham01_gnd_bu,http://d.liveatc.net/eham01_gnd_bu,EHAM Ground (Backup),International-EU,"EHAM 311955Z 03007KT CAVOK 17/11 Q1020 NOSIG
","Amsterdam, Netherlands",2021-05-31 20:15:54 UTC
eham01_gnd_n,http://d.liveatc.net/eham01_gnd_n,EHAM Ground (North),International-EU,"EHAM 311955Z 03007KT CAVOK 17/11 Q1020 NOSIG
","Amsterdam, Netherlands",2021-05-31 20:15:54 UTC
eham01_gnd_s,http://d.liveatc.net/eham01_gnd_s,EHAM Ground (South),International-EU,"EHAM 311955Z 03007KT CAVOK 17/11 Q1020 NOSIG
","Amsterdam, Netherlands",2021-05-31 20:15:54 UTC
eham01_gnd_w,http://d.liveatc.net/eham01_gnd_w,EHAM Ground (West),International-EU,"EHAM 311955Z 03007KT CAVOK 17/11 Q1020 NOSIG
","Amsterdam, Netherlands",2021-05-31 20:15:54 UTC
eham04_info_n,http://d.liveatc.net/eham04_info_n,EHAM Info North Sea (North),International-EU,"EHAM 311955Z 03007KT CAVOK 17/11 Q1020 NOSIG
","Amsterdam, Netherlands",2021-05-31 20:15:54 UTC
eham02_info_l,http://d.liveatc.net/eham02_info_l,EHAM Info North Sea (Over Land),International-EU,"EHAM 311955Z 03007KT CAVOK 17/11 Q1020 NOSIG
","Amsterdam, Netherlands",2021-05-31 20:15:54 UTC
eham04_info_s,http://d.liveatc.net/eham04_info_s,EHAM Info North Sea (South),International-EU,"EHAM 311955Z 03007KT CAVOK 17/11 Q1020 NOSIG
","Amsterdam, Netherlands",2021-05-31 20:15:54 UTC
eham01_startup,http://d.liveatc.net/eham01_startup,EHAM Schiphol Outbound Planner,International-EU,"EHAM 311955Z 03007KT CAVOK 17/11 Q1020 NOSIG
","Amsterdam, Netherlands",2021-05-31 20:15:54 UTC
eham04_tow,http://d.liveatc.net/eham04_tow,EHAM Tow Traffic,International-EU,"EHAM 311955Z 03007KT CAVOK 17/11 Q1020 NOSIG
","Amsterdam, Netherlands",2021-05-31 20:15:54 UTC
eham01_twr_main3,http://d.liveatc.net/eham01_twr_main3,EHAM Tower (06/24),International-EU,"EHAM 311955Z 03007KT CAVOK 17/11 Q1020 NOSIG
","Amsterdam, Netherlands",2021-05-31 20:15:54 UTC
eham01_twr_main1,http://d.liveatc.net/eham01_twr_main1,EHAM Tower (18C/36C-27/09),International-EU,"EHAM 311955Z 03007KT CAVOK 17/11 Q1020 NOSIG
","Amsterdam, Netherlands",2021-05-31 20:15:54 UTC
eham01_twr_main2,http://d.liveatc.net/eham01_twr_main2,EHAM Tower (18L/36R-22/04),International-EU,"EHAM 311955Z 03007KT CAVOK 17/11 Q1020 NOSIG
","Amsterdam, Netherlands",2021-05-31 20:15:54 UTC
eham01_twr_main_bu,http://d.liveatc.net/eham01_twr_main_bu,EHAM Tower Backup,International-EU,"EHAM 311955Z 03007KT CAVOK 17/11 Q1020 NOSIG
","Amsterdam, Netherlands",2021-05-31 20:15:54 UTC
eham01_twr_w,http://d.liveatc.net/eham01_twr_w,EHAM Tower West (18R/36L),International-EU,"EHAM 311955Z 03007KT CAVOK 17/11 Q1020 NOSIG
","Amsterdam, Netherlands",2021-05-31 20:15:54 UTC
ehbk1_atis,http://d.liveatc.net/ehbk1_atis,EHBK ATIS,International-EU,"EHBK 311955Z AUTO 05005KT 9999 NCD 17/09 Q1018 NOSIG
","Beek, Netherlands",2021-05-31 20:15:54 UTC
ehbk1_twr,http://d.liveatc.net/ehbk1_twr,EHBK Gnd/Twr/App,International-EU,"EHBK 311955Z AUTO 05005KT 9999 NCD 17/09 Q1018 NOSIG
","Beek, Netherlands",2021-05-31 20:15:54 UTC
ehbk1_muac_delta_hi,http://d.liveatc.net/ehbk1_muac_delta_hi,MUAC/Eurocontrol Delta High,International-EU,"EHBK 311955Z AUTO 05005KT 9999 NCD 17/09 Q1018 NOSIG
","Beek, Netherlands",2021-05-31 20:15:54 UTC
ehbk1_muac_koksy,http://d.liveatc.net/ehbk1_muac_koksy,MUAC/Eurocontrol Koksy,International-EU,"EHBK 311955Z AUTO 05005KT 9999 NCD 17/09 Q1018 NOSIG
","Beek, Netherlands",2021-05-31 20:15:54 UTC
ehbk1_muac_koksy_hi,http://d.liveatc.net/ehbk1_muac_koksy_hi,MUAC/Eurocontrol Koksy High,International-EU,"EHBK 311955Z AUTO 05005KT 9999 NCD 17/09 Q1018 NOSIG
","Beek, Netherlands",2021-05-31 20:15:54 UTC
ehbk1_muac_lux_hi,http://d.liveatc.net/ehbk1_muac_lux_hi,MUAC/Eurocontrol Lux High,International-EU,"EHBK 311955Z AUTO 05005KT 9999 NCD 17/09 Q1018 NOSIG
","Beek, Netherlands",2021-05-31 20:15:54 UTC
ehbk1_muac_lux_low,http://d.liveatc.net/ehbk1_muac_lux_low,MUAC/Eurocontrol Lux Low,International-EU,"EHBK 311955Z AUTO 05005KT 9999 NCD 17/09 Q1018 NOSIG
","Beek, Netherlands",2021-05-31 20:15:54 UTC
ehbk1_muac_olno_low,http://d.liveatc.net/ehbk1_muac_olno_low,MUAC/Eurocontrol Olno Low,International-EU,"EHBK 311955Z AUTO 05005KT 9999 NCD 17/09 Q1018 NOSIG
","Beek, Netherlands",2021-05-31 20:15:54 UTC
ehbk1_muac_ruhr,http://d.liveatc.net/ehbk1_muac_ruhr,MUAC/Eurocontrol Ruhr,International-EU,"EHBK 311955Z AUTO 05005KT 9999 NCD 17/09 Q1018 NOSIG
","Beek, Netherlands",2021-05-31 20:15:54 UTC
eheh3_app,http://d.liveatc.net/eheh3_app,EHEH Approach #1,International-EU,"EHEH 311955Z AUTO 03006KT 9999 NCD 17/09 Q1019 BLU NOSIG
","Eindhoven, Netherlands",2021-05-31 20:15:54 UTC
eheh3_twr,http://d.liveatc.net/eheh3_twr,EHEH Tower #1,International-EU,"EHEH 311955Z AUTO 03006KT 9999 NCD 17/09 Q1019 BLU NOSIG
","Eindhoven, Netherlands",2021-05-31 20:15:54 UTC
ehgg1_app,http://d.liveatc.net/ehgg1_app,EHGG Approach,International-EU,"EHGG 311955Z AUTO 06006KT 9999 NCD 17/11 Q1021 NOSIG
","Groningen, Netherlands",2021-05-31 20:15:54 UTC
ehgg1_atis,http://d.liveatc.net/ehgg1_atis,EHGG ATIS,International-EU,"EHGG 311955Z AUTO 06006KT 9999 NCD 17/11 Q1021 NOSIG
","Groningen, Netherlands",2021-05-31 20:15:54 UTC
ehgg1_gnd,http://d.liveatc.net/ehgg1_gnd,EHGG Ground,International-EU,"EHGG 311955Z AUTO 06006KT 9999 NCD 17/11 Q1021 NOSIG
","Groningen, Netherlands",2021-05-31 20:15:54 UTC
ehgg1_guard,http://d.liveatc.net/ehgg1_guard,EHGG Guard/Emergency,International-EU,"EHGG 311955Z AUTO 06006KT 9999 NCD 17/11 Q1021 NOSIG
","Groningen, Netherlands",2021-05-31 20:15:54 UTC
ehgg1_twr,http://d.liveatc.net/ehgg1_twr,EHGG Tower,International-EU,"EHGG 311955Z AUTO 06006KT 9999 NCD 17/11 Q1021 NOSIG
","Groningen, Netherlands",2021-05-31 20:15:54 UTC
ehgg1_bu,http://d.liveatc.net/ehgg1_bu,EHGG Twr/App (Secondary),International-EU,"EHGG 311955Z AUTO 06006KT 9999 NCD 17/11 Q1021 NOSIG
","Groningen, Netherlands",2021-05-31 20:15:54 UTC
ehgg1_muac,http://d.liveatc.net/ehgg1_muac,MUAC/Eurocontrol (EHGG Area),International-EU,"EHGG 311955Z AUTO 06006KT 9999 NCD 17/11 Q1021 NOSIG
","Groningen, Netherlands",2021-05-31 20:15:54 UTC
ehgr2_gnd,http://d.liveatc.net/ehgr2_gnd,EHGR Ground,International-EU,"EHGR 311955Z AUTO 05005KT 010V090 9999 NCD 18/09 Q1019 BLU
","Breda, Netherlands",2021-05-31 20:15:54 UTC
ehgr2_gnd_twr,http://d.liveatc.net/ehgr2_gnd_twr,EHGR Ground/Tower,International-EU,"EHGR 311955Z AUTO 05005KT 010V090 9999 NCD 18/09 Q1019 BLU
","Breda, Netherlands",2021-05-31 20:15:54 UTC
ehgr2_twr,http://d.liveatc.net/ehgr2_twr,EHGR Tower,International-EU,"EHGR 311955Z AUTO 05005KT 010V090 9999 NCD 18/09 Q1019 BLU
","Breda, Netherlands",2021-05-31 20:15:54 UTC
ehhv1,http://d.liveatc.net/ehhv1,EHHV CTAF,International-EU,EHHV Flight Activity,"Hilversum, Netherlands",2021-05-31 20:15:54 UTC
ehkd2_atis,http://d.liveatc.net/ehkd2_atis,EHKD ATIS,International-EU,"EHKD 311955Z AUTO 03009KT 9999 NCD 15/12 Q1020 BLU NOSIG
","Den Helder, Netherlands",2021-05-31 20:15:54 UTC
ehkd2_gnd_twr,http://d.liveatc.net/ehkd2_gnd_twr,EHKD Ground/Tower,International-EU,"EHKD 311955Z AUTO 03009KT 9999 NCD 15/12 Q1020 BLU NOSIG
","Den Helder, Netherlands",2021-05-31 20:15:54 UTC
ehmm,http://d.liveatc.net/ehmm,EHMM CTAF,International-EU,EHMM Flight Activity,"Middenmeer, Netherlands",2021-05-31 20:15:54 UTC
ehmz2,http://d.liveatc.net/ehmz2,EHMZ,International-EU,EHMZ Flight Activity,"Middelburg, Netherlands",2021-05-31 20:15:54 UTC
ehrd2_app,http://d.liveatc.net/ehrd2_app,EHRD Approach,International-EU,"EHRD 311955Z AUTO 04005KT 9999 NCD 17/11 Q1019 NOSIG
","Rotterdam, Netherlands",2021-05-31 20:15:54 UTC
ehrd2_del,http://d.liveatc.net/ehrd2_del,EHRD Clearance Delivery,International-EU,"EHRD 311955Z AUTO 04005KT 9999 NCD 17/11 Q1019 NOSIG
","Rotterdam, Netherlands",2021-05-31 20:15:54 UTC
ehrd1,http://d.liveatc.net/ehrd1,EHRD Del/Twr,International-EU,"EHRD 311955Z AUTO 04005KT 9999 NCD 17/11 Q1019 NOSIG
","Rotterdam, Netherlands",2021-05-31 20:15:54 UTC
ehrd2_alt,http://d.liveatc.net/ehrd2_alt,EHRD Gnd/Twr/App,International-EU,"EHRD 311955Z AUTO 04005KT 9999 NCD 17/11 Q1019 NOSIG
","Rotterdam, Netherlands",2021-05-31 20:15:54 UTC
ehrd2_twr,http://d.liveatc.net/ehrd2_twr,EHRD Tower,International-EU,"EHRD 311955Z AUTO 04005KT 9999 NCD 17/11 Q1019 NOSIG
","Rotterdam, Netherlands",2021-05-31 20:15:54 UTC
ehtx1,http://d.liveatc.net/ehtx1,EHTX Gnd/Twr,International-EU,EHTX Flight Activity,"Texel, Netherlands",2021-05-31 20:15:54 UTC
ehvl1,http://d.liveatc.net/ehvl1,EHVL CTAF/Range Control,International-EU,"EHVL 311955Z AUTO 06012KT 9999 NCD 14/09 Q1021 BLU
","Vlieland, Netherlands",2021-05-31 20:15:54 UTC
eidw_app_121100,http://d.liveatc.net/eidw_app_121100,EIDW Approach,International-EU,"EIDW 311930Z 14007KT 100V160 9999 FEW035 BKN250 14/10 Q1015 NOSIG
","Dublin, Ireland",2021-05-31 20:15:54 UTC
eidw_app_final,http://d.liveatc.net/eidw_app_final,EIDW Approach (Final),International-EU,"EIDW 311930Z 14007KT 100V160 9999 FEW035 BKN250 14/10 Q1015 NOSIG
","Dublin, Ireland",2021-05-31 20:15:54 UTC
eidw_del,http://d.liveatc.net/eidw_del,EIDW Clearance Delivery,International-EU,"EIDW 311930Z 14007KT 100V160 9999 FEW035 BKN250 14/10 Q1015 NOSIG
","Dublin, Ireland",2021-05-31 20:15:54 UTC
eidw3,http://d.liveatc.net/eidw3,EIDW Del/Gnd/Twr/App/Center,International-EU,"EIDW 311930Z 14007KT 100V160 9999 FEW035 BKN250 14/10 Q1015 NOSIG
","Dublin, Ireland",2021-05-31 20:15:54 UTC
eidw_gnd_121800,http://d.liveatc.net/eidw_gnd_121800,EIDW Ground,International-EU,"EIDW 311930Z 14007KT 100V160 9999 FEW035 BKN250 14/10 Q1015 NOSIG
","Dublin, Ireland",2021-05-31 20:15:54 UTC
eidw_gnd_north,http://d.liveatc.net/eidw_gnd_north,EIDW Ground (North),International-EU,"EIDW 311930Z 14007KT 100V160 9999 FEW035 BKN250 14/10 Q1015 NOSIG
","Dublin, Ireland",2021-05-31 20:15:54 UTC
eidw_twr_118600,http://d.liveatc.net/eidw_twr_118600,EIDW Tower,International-EU,"EIDW 311930Z 14007KT 100V160 9999 FEW035 BKN250 14/10 Q1015 NOSIG
","Dublin, Ireland",2021-05-31 20:15:54 UTC
eikn2,http://d.liveatc.net/eikn2,EIKN Gnd/Twr/App,International-EU,,"Charlestown, Ireland",2021-05-31 20:15:54 UTC
einn2_high1,http://d.liveatc.net/einn2_high1,EINN Shannon Control High (East),International-EU,"EINN 311930Z 15011KT CAVOK 15/11 Q1013 NOSIG
","Shannon, Ireland",2021-05-31 20:15:54 UTC
einn2_high2,http://d.liveatc.net/einn2_high2,EINN Shannon Control High (West/Coastal),International-EU,"EINN 311930Z 15011KT CAVOK 15/11 Q1013 NOSIG
","Shannon, Ireland",2021-05-31 20:15:54 UTC
einn2_low1,http://d.liveatc.net/einn2_low1,EINN Shannon Control Low,International-EU,"EINN 311930Z 15011KT CAVOK 15/11 Q1013 NOSIG
","Shannon, Ireland",2021-05-31 20:15:54 UTC
einn2,http://d.liveatc.net/einn2,EINN Twr/App #1,International-EU,"EINN 311930Z 15011KT CAVOK 15/11 Q1013 NOSIG
","Shannon, Ireland",2021-05-31 20:15:54 UTC
encn,http://d.liveatc.net/encn,ENCN Tower/Approach,International-EU,"ENCN 311950Z AUTO 26003KT 9999 NCD 16/11 Q1018
","Kristiansand, Norway",2021-05-31 20:15:54 UTC
eneg2,http://d.liveatc.net/eneg2,ENGM App/Polaris ACC,International-EU,ENEG Flight Activity,"Honefoss, Norway",2021-05-31 20:15:54 UTC
enev,http://d.liveatc.net/enev,ENEV Twr/App/ACC,International-EU,"ENEV 311950Z AUTO 22009KT 180V250 9999 FEW025/// BKN034/// OVC061/// 08/06 Q1026 RMK WIND 1400FT 23014KT
","Evenes, Norway",2021-05-31 20:15:54 UTC
engk3,http://d.liveatc.net/engk3,ENGK Info,International-EU,,"Arendal, Norway",2021-05-31 20:15:54 UTC
eneg2,http://d.liveatc.net/eneg2,ENGM App/Polaris ACC,International-EU,ENEG Flight Activity,"Oslo, Norway",2021-05-31 20:15:54 UTC
engm4,http://d.liveatc.net/engm4,ENGM Tower,International-EU,"ENGM 311950Z 05004KT CAVOK 22/07 Q1020 NOSIG
","Oslo, Norway",2021-05-31 20:15:54 UTC
enhd1,http://d.liveatc.net/enhd1,ENHD Tower,International-EU,"ENHD 311950Z AUTO 34011KT 9999 FEW007/// 11/09 Q1022
","Haugesund, Norway",2021-05-31 20:15:54 UTC
ento_enjb,http://d.liveatc.net/ento_enjb,ENJB CTAF,International-EU,"ENTO 311950Z 15006KT 3500 BR VV004 12/12 Q1020 BECMG 0800 FG VV002
","Tonsberg, Norway",2021-05-31 20:15:54 UTC
enkj2,http://d.liveatc.net/enkj2,ENKJ RDO #2,International-EU,ENKJ Flight Activity,"Kjeller, Norway",2021-05-31 20:15:54 UTC
enli,http://d.liveatc.net/enli,ENLI CTAF,International-EU,ENLI Flight Activity,"Farsund, Norway",2021-05-31 20:15:54 UTC
enrk,http://d.liveatc.net/enrk,ENRK CTAF,International-EU,ENRK Flight Activity,"Astorp, Norway",2021-05-31 20:15:54 UTC
enor_sector8,http://d.liveatc.net/enor_sector8,ENOR Sector 8,International-EU,ENOR Flight Activity,"Moss, Norway",2021-05-31 20:15:54 UTC
enry_twr,http://d.liveatc.net/enry_twr,ENRY Tower,International-EU,"ENRY 311950Z AUTO 15004KT 120V200 9999NDV OVC005/// 12/10 Q1020
","Moss, Norway",2021-05-31 20:15:54 UTC
entc,http://d.liveatc.net/entc,ENTC Tower/App,International-EU,"ENTC 311950Z 29003KT 9999 DZ SCT006 BKN017 07/06 Q1025 NOSIG RMK WIND 2600FT 24005KT
","Langnes, Norway",2021-05-31 20:15:54 UTC
ento_tma,http://d.liveatc.net/ento_tma,ENTO App/Dep,International-EU,"ENTO 311950Z 15006KT 3500 BR VV004 12/12 Q1020 BECMG 0800 FG VV002
","Sandefjord, Norway",2021-05-31 20:15:54 UTC
ento_ctl_4,http://d.liveatc.net/ento_ctl_4,ENTO Control Sector 4,International-EU,"ENTO 311950Z 15006KT 3500 BR VV004 12/12 Q1020 BECMG 0800 FG VV002
","Sandefjord, Norway",2021-05-31 20:15:54 UTC
ento_twr,http://d.liveatc.net/ento_twr,ENTO Tower,International-EU,"ENTO 311950Z 15006KT 3500 BR VV004 12/12 Q1020 BECMG 0800 FG VV002
","Sandefjord, Norway",2021-05-31 20:15:54 UTC
ento,http://d.liveatc.net/ento,ENTO Tower/App,International-EU,"ENTO 311950Z 15006KT 3500 BR VV004 12/12 Q1020 BECMG 0800 FG VV002
","Sandefjord, Norway",2021-05-31 20:15:54 UTC
ento_twr_tma,http://d.liveatc.net/ento_twr_tma,ENTO Twr/App,International-EU,"ENTO 311950Z 15006KT 3500 BR VV004 12/12 Q1020 BECMG 0800 FG VV002
","Sandefjord, Norway",2021-05-31 20:15:54 UTC
enva,http://d.liveatc.net/enva,ENVA Gnd/Twr/App,International-EU,"ENVA 311950Z 28006KT CAVOK 15/09 Q1023 RMK WIND 670FT 30005KT
","Trondheim, Norway",2021-05-31 20:15:54 UTC
enzv2,http://d.liveatc.net/enzv2,ENZV Gnd/Twr/App,International-EU,"ENZV 311950Z 31008KT CAVOK 11/09 Q1022
","Stavanger, Norway",2021-05-31 20:15:54 UTC
epgd,http://d.liveatc.net/epgd,EPGD Tower/Approach,International-EU,"EPGD 311930Z 15004KT CAVOK 10/02 Q1020
","Gdansk, Poland",2021-05-31 20:15:54 UTC
epkk_app,http://d.liveatc.net/epkk_app,EPKK Tower/App,International-EU,"EPKK 311930Z 36004KT 310V010 CAVOK 12/03 Q1019
","Krakow, Poland",2021-05-31 20:15:54 UTC
epkr,http://d.liveatc.net/epkr,EPKR CTAF,International-EU,EPKR Flight Activity,"Krosno, Poland",2021-05-31 20:15:54 UTC
epkt,http://d.liveatc.net/epkt,EPKT Del/Twr/App,International-EU,"EPKT 311930Z 01003KT CAVOK 08/04 Q1020
","Katowice, Poland",2021-05-31 20:15:54 UTC
epkt_gnd,http://d.liveatc.net/epkt_gnd,EPKT Delivery/Approach,International-EU,"EPKT 311930Z 01003KT CAVOK 08/04 Q1020
","Katowice, Poland",2021-05-31 20:15:54 UTC
epkt_twr_app,http://d.liveatc.net/epkt_twr_app,EPKT Tower/Approach,International-EU,"EPKT 311930Z 01003KT CAVOK 08/04 Q1020
","Katowice, Poland",2021-05-31 20:15:54 UTC
epll,http://d.liveatc.net/epll,EPLL Tower,International-EU,"EPLL 311930Z 13001KT CAVOK 12/05 Q1020
","Lodz, Poland",2021-05-31 20:15:54 UTC
epls2,http://d.liveatc.net/epls2,EPLS CTAF/Radio,International-EU,EPLS Flight Activity,"Leszno, Poland",2021-05-31 20:15:54 UTC
epml2,http://d.liveatc.net/epml2,EPML Info,International-EU,EPML Flight Activity,"Mielec, Poland",2021-05-31 20:15:54 UTC
eppo2,http://d.liveatc.net/eppo2,EPPO Twr/App/FIS,International-EU,"EPPO 311930Z 21003KT CAVOK 13/06 Q1020
","Poznan, Poland",2021-05-31 20:15:54 UTC
eprz,http://d.liveatc.net/eprz,EPRZ Del/Twr/EPWW Radar,International-EU,"EPRZ 311930Z 33003KT CAVOK 09/08 Q1019
","Jasionka, Poland",2021-05-31 20:15:54 UTC
epwa_app,http://d.liveatc.net/epwa_app,EPWA Approach #1,International-EU,"EPWA 311930Z 22003KT CAVOK 14/04 Q1020 NOSIG
","Warsaw, Poland",2021-05-31 20:15:54 UTC
epwa_dir,http://d.liveatc.net/epwa_dir,EPWA Director,International-EU,"EPWA 311930Z 22003KT CAVOK 14/04 Q1020 NOSIG
","Warsaw, Poland",2021-05-31 20:15:54 UTC
epwa2,http://d.liveatc.net/epwa2,EPWA Tower #2,International-EU,"EPWA 311930Z 22003KT CAVOK 14/04 Q1020 NOSIG
","Warsaw, Poland",2021-05-31 20:15:54 UTC
eprz,http://d.liveatc.net/eprz,EPRZ Del/Twr/EPWW Radar,International-EU,"EPRZ 311930Z 33003KT CAVOK 09/08 Q1019
","Jasionka, Poland",2021-05-31 20:15:54 UTC
esdf2_twr,http://d.liveatc.net/esdf2_twr,ESDF Gnd/Twr,International-EU,"ESDF 311950Z AUTO 30006KT 280V340 9999 FEW170/// 20/09 Q1018
","Ronneby, Sweden",2021-05-31 20:15:54 UTC
esdf2_ctr,http://d.liveatc.net/esdf2_ctr,ESDF Ronneby Control,International-EU,"ESDF 311950Z AUTO 30006KT 280V340 9999 FEW170/// 20/09 Q1018
","Ronneby, Sweden",2021-05-31 20:15:54 UTC
esmq2,http://d.liveatc.net/esmq2,ESMQ Tower,International-EU,"ESMQ 311950Z AUTO 01005KT 9999 FEW100/// 16/11 Q1018
","Kalmar, Sweden",2021-05-31 20:15:54 UTC
esms3_app,http://d.liveatc.net/esms3_app,ESMS Radar,International-EU,"ESMS 311950Z 33005KT CAVOK 15/11 Q1020
","Svedala, Sweden",2021-05-31 20:15:54 UTC
esms2,http://d.liveatc.net/esms2,ESMS Tower,International-EU,"ESMS 311950Z 33005KT CAVOK 15/11 Q1020
","Svedala, Sweden",2021-05-31 20:15:54 UTC
esoe2,http://d.liveatc.net/esoe2,ESOE Tower/Control,International-EU,"ESOE 311950Z 06004KT CAVOK 17/06 Q1021
","Orebro, Sweden",2021-05-31 20:15:54 UTC
esow,http://d.liveatc.net/esow,ESOW Twr/CTAF/Control,International-EU,"ESOW 311950Z AUTO 01004KT 9999 SCT100/// 11/06 Q1021
","Stockholm, Sweden",2021-05-31 20:15:54 UTC
espa,http://d.liveatc.net/espa,ESPA Twr/Control,International-EU,"ESPA 311950Z AUTO 26003KT 9999 BKN170/// 14/06 Q1022
","Lulea, Sweden",2021-05-31 20:15:54 UTC
essg,http://d.liveatc.net/essg,ESSG Misc,International-EU,ESSG Flight Activity,"Ludvika, Sweden",2021-05-31 20:15:54 UTC
essl,http://d.liveatc.net/essl,ESSL Twr/App/Control,International-EU,"ESSL 311950Z AUTO 10001KT 9999 BKN130/// OVC170/// 16/05 Q1020
","Linkoping, Sweden",2021-05-31 20:15:54 UTC
esvq,http://d.liveatc.net/esvq,ESVQ CTAF,International-EU,ESVQ Flight Activity,"Koping, Sweden",2021-05-31 20:15:54 UTC
evra2,http://d.liveatc.net/evra2,EVRA Approach,International-EU,"EVRA 311950Z 00000KT CAVOK 10/07 Q1018 NOSIG
","Riga, Latvia",2021-05-31 20:15:54 UTC
evra3,http://d.liveatc.net/evra3,EVRA CTAF,International-EU,"EVRA 311950Z 00000KT CAVOK 10/07 Q1018 NOSIG
","Riga, Latvia",2021-05-31 20:15:54 UTC
evra4,http://d.liveatc.net/evra4,EVRA FIC,International-EU,"EVRA 311950Z 00000KT CAVOK 10/07 Q1018 NOSIG
","Riga, Latvia",2021-05-31 20:15:54 UTC
evra1,http://d.liveatc.net/evra1,EVRA Tower/Guard,International-EU,"EVRA 311950Z 00000KT CAVOK 10/07 Q1018 NOSIG
","Riga, Latvia",2021-05-31 20:15:54 UTC
eyvi,http://d.liveatc.net/eyvi,EYVI Twr/App/Misc,International-EU,"EYVI 311950Z VRB01KT CAVOK 10/03 Q1018 NOSIG
","Vilnius, Lithuania",2021-05-31 20:15:54 UTC
eyvp2,http://d.liveatc.net/eyvp2,EYVP CTAF,International-EU,EYVP Flight Activity,"Paluknys, Lithuania",2021-05-31 20:15:54 UTC
bbg2,http://d.liveatc.net/bbg2,LBBG Twr/App,International-EU,,"Burgas, Bulgaria",2021-05-31 20:15:54 UTC
bsf2_lbpd_twr,http://d.liveatc.net/bsf2_lbpd_twr,LBPD Tower,International-EU,,"Plovdiv, Bulgaria",2021-05-31 20:15:54 UTC
bsf2_atis,http://d.liveatc.net/bsf2_atis,LBSF ATIS,International-EU,,"Sofia, Bulgaria",2021-05-31 20:15:54 UTC
bsf,http://d.liveatc.net/bsf,LBSF Twr/App #1,International-EU,,"Sofia, Bulgaria",2021-05-31 20:15:54 UTC
bsf1,http://d.liveatc.net/bsf1,LBSF Twr/App #2,International-EU,,"Sofia, Bulgaria",2021-05-31 20:15:54 UTC
bwn,http://d.liveatc.net/bwn,LBWN Tower/Approach,International-EU,,"Varna, Bulgaria",2021-05-31 20:15:54 UTC
fbd_bordeaux,http://d.liveatc.net/fbd_bordeaux,Bordeaux Control,International-EU,,"Bordeaux, France",2021-05-31 20:15:54 UTC
fbd2_app,http://d.liveatc.net/fbd2_app,LFBD Aquitane Approach,International-EU,,"Bordeaux, France",2021-05-31 20:15:54 UTC
fbd2_app2,http://d.liveatc.net/fbd2_app2,LFBD Bordeaux Control Sector X1,International-EU,,"Bordeaux, France",2021-05-31 20:15:54 UTC
fbd2_gnd,http://d.liveatc.net/fbd2_gnd,LFBD Ground,International-EU,,"Bordeaux, France",2021-05-31 20:15:54 UTC
fbd2_twr,http://d.liveatc.net/fbd2_twr,LFBD Tower,International-EU,,"Bordeaux, France",2021-05-31 20:15:54 UTC
fbd_bordeaux,http://d.liveatc.net/fbd_bordeaux,Bordeaux Control,International-EU,,"Angouleme, France",2021-05-31 20:15:54 UTC
fll,http://d.liveatc.net/fll,LFLL Tower,International-EU,,"Lyon, France",2021-05-31 20:15:54 UTC
fll2,http://d.liveatc.net/fll2,Lyon FIS,International-EU,,"Lyon, France",2021-05-31 20:15:54 UTC
fly_twr,http://d.liveatc.net/fly_twr,LFLY Tower,International-EU,,"Bron, France",2021-05-31 20:15:54 UTC
fll2,http://d.liveatc.net/fll2,Lyon FIS,International-EU,,"Bron, France",2021-05-31 20:15:54 UTC
fmd_twr2,http://d.liveatc.net/fmd_twr2,LFMD Ground/Tower,International-EU,,"Cannes, France",2021-05-31 20:15:54 UTC
fmn2,http://d.liveatc.net/fmn2,LFMN Approach,International-EU,,"Nice, France",2021-05-31 20:15:54 UTC
fmn2_m_high1,http://d.liveatc.net/fmn2_m_high1,LFMN Control (High),International-EU,,"Nice, France",2021-05-31 20:15:54 UTC
fmn_app2,http://d.liveatc.net/fmn_app2,LFMN FIS/Approach,International-EU,,"Nice, France",2021-05-31 20:15:54 UTC
fmn_twr,http://d.liveatc.net/fmn_twr,LFMN Ground/Tower,International-EU,,"Nice, France",2021-05-31 20:15:54 UTC
fpg3_dep,http://d.liveatc.net/fpg3_dep,LFPG Tower,International-EU,,"Paris, France",2021-05-31 20:15:54 UTC
fpo3_app,http://d.liveatc.net/fpo3_app,LFPO Approach,International-EU,,"Paris, France",2021-05-31 20:15:54 UTC
fpo_dep,http://d.liveatc.net/fpo_dep,LFPO Departure,International-EU,,"Paris, France",2021-05-31 20:15:54 UTC
fpo3_twr,http://d.liveatc.net/fpo3_twr,LFPO Tower,International-EU,,"Paris, France",2021-05-31 20:15:54 UTC
fpz2_atis,http://d.liveatc.net/fpz2_atis,LFPZ ATIS,International-EU,,"Villacoublay, France",2021-05-31 20:15:54 UTC
fpz2_twr,http://d.liveatc.net/fpz2_twr,LFPZ Tower,International-EU,,"Villacoublay, France",2021-05-31 20:15:54 UTC
fsb2,http://d.liveatc.net/fsb2,LFSB Tower,International-EU,,"Basel, Switzerland",2021-05-31 20:15:54 UTC
hbp_app2,http://d.liveatc.net/hbp_app2,LHBP Approach,International-EU,,"Budapest, Hungary",2021-05-31 20:15:54 UTC
hbp_dir,http://d.liveatc.net/hbp_dir,LHBP Approach (Director),International-EU,,"Budapest, Hungary",2021-05-31 20:15:54 UTC
hbp_atis,http://d.liveatc.net/hbp_atis,LHBP ATIS,International-EU,,"Budapest, Hungary",2021-05-31 20:15:54 UTC
hbp_del,http://d.liveatc.net/hbp_del,LHBP Clearance Delivery,International-EU,,"Budapest, Hungary",2021-05-31 20:15:54 UTC
hbp_gnd,http://d.liveatc.net/hbp_gnd,LHBP Ground,International-EU,,"Budapest, Hungary",2021-05-31 20:15:54 UTC
hbp1_2,http://d.liveatc.net/hbp1_2,LHBP Info,International-EU,,"Budapest, Hungary",2021-05-31 20:15:54 UTC
hbp_twr,http://d.liveatc.net/hbp_twr,LHBP Tower,International-EU,,"Budapest, Hungary",2021-05-31 20:15:54 UTC
hbp1,http://d.liveatc.net/hbp1,LHBP Twr/Info,International-EU,,"Budapest, Hungary",2021-05-31 20:15:54 UTC
hbp_app_e,http://d.liveatc.net/hbp_app_e,LHCC Control (East/West),International-EU,,"Budapest, Hungary",2021-05-31 20:15:54 UTC
hdc,http://d.liveatc.net/hdc,LHDC Info/Tower,International-EU,,"Debrecen, Hungary",2021-05-31 20:15:54 UTC
hem,http://d.liveatc.net/hem,LHEM CTAF,International-EU,,"Esztergom, Hungary",2021-05-31 20:15:54 UTC
hoy2,http://d.liveatc.net/hoy2,LHOY CTAF,International-EU,,"Ocseny, Hungary",2021-05-31 20:15:54 UTC
hpr,http://d.liveatc.net/hpr,LHPR Info/AFIS,International-EU,,"Gyor, Hungary",2021-05-31 20:15:54 UTC
jlj_info,http://d.liveatc.net/jlj_info,LJLJ Info,International-EU,,"Ljubljana, Slovenia",2021-05-31 20:15:54 UTC
jlj_app,http://d.liveatc.net/jlj_app,LJLJ Radar,International-EU,,"Ljubljana, Slovenia",2021-05-31 20:15:54 UTC
jlj_twr,http://d.liveatc.net/jlj_twr,LJLJ Tower,International-EU,,"Ljubljana, Slovenia",2021-05-31 20:15:54 UTC
jmb3,http://d.liveatc.net/jmb3,LJMB Tower,International-EU,,"Maribor, Slovenia",2021-05-31 20:15:54 UTC
jms2,http://d.liveatc.net/jms2,LJMS CTAF,International-EU,,"Murska Sobota, Slovenia",2021-05-31 20:15:54 UTC
jpz,http://d.liveatc.net/jpz,LJPZ Tower,International-EU,,"Secovlje, Slovenia",2021-05-31 20:15:54 UTC
kkv2,http://d.liveatc.net/kkv2,LKKV Tower,International-EU,,"Karlovy Vary, Czech Republic",2021-05-31 20:15:54 UTC
kpm,http://d.liveatc.net/kpm,LKPM Tower,International-EU,,"Pribram, Czech Republic",2021-05-31 20:15:54 UTC
kaa_wh,http://d.liveatc.net/kaa_wh,LKAA FIR (High),International-EU,,"Prague, Czech Republic",2021-05-31 20:15:54 UTC
kaa_wl,http://d.liveatc.net/kaa_wl,LKAA FIR (Low),International-EU,,"Prague, Czech Republic",2021-05-31 20:15:54 UTC
kpr_app,http://d.liveatc.net/kpr_app,LKPR Approach,International-EU,,"Prague, Czech Republic",2021-05-31 20:15:54 UTC
kpr_del,http://d.liveatc.net/kpr_del,LKPR Clearance Del,International-EU,,"Prague, Czech Republic",2021-05-31 20:15:54 UTC
kpr_dir,http://d.liveatc.net/kpr_dir,LKPR Director/Ruzyne Radar,International-EU,,"Prague, Czech Republic",2021-05-31 20:15:54 UTC
kpr_gnd,http://d.liveatc.net/kpr_gnd,LKPR Ground,International-EU,,"Prague, Czech Republic",2021-05-31 20:15:54 UTC
kpr_twr,http://d.liveatc.net/kpr_twr,LKPR Tower,International-EU,,"Prague, Czech Republic",2021-05-31 20:15:54 UTC
ktb,http://d.liveatc.net/ktb,LKTB Gnd/Twr/Radar,International-EU,,"Brno, Czech Republic",2021-05-31 20:15:54 UTC
mml6,http://d.liveatc.net/mml6,LMML GndTwr/App/Control,International-EU,,"Luqa, Malta",2021-05-31 20:15:54 UTC
c2,http://d.liveatc.net/c2,LPMA App/LPPC Center,International-EU,,"Madeira, Portugal",2021-05-31 20:15:54 UTC
ma2,http://d.liveatc.net/ma2,LPMA Approach,International-EU,,"Madeira, Portugal",2021-05-31 20:15:54 UTC
r2,http://d.liveatc.net/r2,LPPR Approach #1,International-EU,,"Porto, Portugal",2021-05-31 20:15:54 UTC
t_app_1191_2,http://d.liveatc.net/t_app_1191_2,LPPT Approach,International-EU,,"Lisbon, Portugal",2021-05-31 20:15:54 UTC
rcl,http://d.liveatc.net/rcl,LRCL Twr/App #1,International-EU,,"Cluj-Napoca, Romania",2021-05-31 20:15:54 UTC
rcl3,http://d.liveatc.net/rcl3,LRCL Twr/App/ACC,International-EU,,"Cluj-Napoca, Romania",2021-05-31 20:15:54 UTC
rop2,http://d.liveatc.net/rop2,LROP Ground,International-EU,,"Bucharest, Romania",2021-05-31 20:15:54 UTC
rop_rdr,http://d.liveatc.net/rop_rdr,LROP Radar,International-EU,,"Bucharest, Romania",2021-05-31 20:15:54 UTC
rop_twr,http://d.liveatc.net/rop_twr,LROP Tower/Approach,International-EU,,"Bucharest, Romania",2021-05-31 20:15:54 UTC
rop,http://d.liveatc.net/rop,LROP Twr/App/Radar,International-EU,,"Bucharest, Romania",2021-05-31 20:15:54 UTC
rsb2,http://d.liveatc.net/rsb2,LRSB Tower/CTAF,International-EU,,"Sibiu, Romania",2021-05-31 20:15:54 UTC
rtr,http://d.liveatc.net/rtr,LRTR Tower,International-EU,,"Timisoara, Romania",2021-05-31 20:15:54 UTC
sgs,http://d.liveatc.net/sgs,LSGS Gnd/Twr/App,International-EU,,"Sion, Switzerland",2021-05-31 20:15:54 UTC
szh1_lsmd_twr,http://d.liveatc.net/szh1_lsmd_twr,LSMD Tower,International-EU,,"Dubendorf, Switzerland",2021-05-31 20:15:54 UTC
sza,http://d.liveatc.net/sza,LSZA Tower,International-EU,,"Agno, Switzerland",2021-05-31 20:15:54 UTC
szb2,http://d.liveatc.net/szb2,LSZB Twr/App/Dep,International-EU,,"Bern, Switzerland",2021-05-31 20:15:54 UTC
szg,http://d.liveatc.net/szg,LSZG Tower,International-EU,,"Grenchen, Switzerland",2021-05-31 20:15:54 UTC
szh1_app_east,http://d.liveatc.net/szh1_app_east,LSZH Approach (East),International-EU,,"Zurich, Switzerland",2021-05-31 20:15:54 UTC
szh1_app_w,http://d.liveatc.net/szh1_app_w,LSZH Approach (West),International-EU,,"Zurich, Switzerland",2021-05-31 20:15:54 UTC
szh1_apr_s,http://d.liveatc.net/szh1_apr_s,LSZH Apron (South),International-EU,,"Zurich, Switzerland",2021-05-31 20:15:54 UTC
szh1_apr_w,http://d.liveatc.net/szh1_apr_w,LSZH Apron (West),International-EU,,"Zurich, Switzerland",2021-05-31 20:15:54 UTC
szh1_del,http://d.liveatc.net/szh1_del,LSZH Clearance Delivery,International-EU,,"Zurich, Switzerland",2021-05-31 20:15:54 UTC
szh1_gnd,http://d.liveatc.net/szh1_gnd,LSZH Ground,International-EU,,"Zurich, Switzerland",2021-05-31 20:15:54 UTC
szh1_rdr_132815,http://d.liveatc.net/szh1_rdr_132815,LSZH Radar 132.815,International-EU,,"Zurich, Switzerland",2021-05-31 20:15:54 UTC
szh1_rdr_133050,http://d.liveatc.net/szh1_rdr_133050,LSZH Radar 133.050,International-EU,,"Zurich, Switzerland",2021-05-31 20:15:54 UTC
szh1_rdr_133400,http://d.liveatc.net/szh1_rdr_133400,LSZH Radar 133.405,International-EU,,"Zurich, Switzerland",2021-05-31 20:15:54 UTC
szh1_rdr_133690,http://d.liveatc.net/szh1_rdr_133690,LSZH Radar 133.690,International-EU,,"Zurich, Switzerland",2021-05-31 20:15:54 UTC
szh1_rdr_133900,http://d.liveatc.net/szh1_rdr_133900,LSZH Radar 133.905,International-EU,,"Zurich, Switzerland",2021-05-31 20:15:54 UTC
szh1_rdr_134600,http://d.liveatc.net/szh1_rdr_134600,LSZH Radar 134.605,International-EU,,"Zurich, Switzerland",2021-05-31 20:15:54 UTC
szh1_rdr_135675,http://d.liveatc.net/szh1_rdr_135675,LSZH Radar 135.680,International-EU,,"Zurich, Switzerland",2021-05-31 20:15:54 UTC
szh1_rdr_136150,http://d.liveatc.net/szh1_rdr_136150,LSZH Radar 136.155,International-EU,,"Zurich, Switzerland",2021-05-31 20:15:54 UTC
szh1_twr,http://d.liveatc.net/szh1_twr,LSZH Tower,International-EU,,"Zurich, Switzerland",2021-05-31 20:15:54 UTC
szh1_twr_1432,http://d.liveatc.net/szh1_twr_1432,LSZH Tower (14/32),International-EU,,"Zurich, Switzerland",2021-05-31 20:15:54 UTC
szh1_gndtwr_sec,http://d.liveatc.net/szh1_gndtwr_sec,LSZH Twr/Gnd (backup),International-EU,,"Zurich, Switzerland",2021-05-31 20:15:54 UTC
szl2,http://d.liveatc.net/szl2,LSZL Tower,International-EU,,"Locarno, Switzerland",2021-05-31 20:15:54 UTC
szn2,http://d.liveatc.net/szn2,LSZN CTAF,International-EU,,"Zurich, Switzerland",2021-05-31 20:15:54 UTC
szr,http://d.liveatc.net/szr,LSZR Tower,International-EU,,"Altenrhein, Switzerland",2021-05-31 20:15:54 UTC
szw,http://d.liveatc.net/szw,LSZW CTAF,International-EU,,"Thun, Switzerland",2021-05-31 20:15:54 UTC
tba_s,http://d.liveatc.net/tba_s,LTBA Gnd/Twr/App,International-EU,,"Istanbul, Turkey",2021-05-31 20:15:54 UTC
tfj2,http://d.liveatc.net/tfj2,LTFJ Del/Gnd/Twr,International-EU,,"Istanbul, Turkey",2021-05-31 20:15:54 UTC
ukk2_acc1,http://d.liveatc.net/ukk2_acc1,LUKK ACC #1,International-EU,,"Chisinau, Moldova",2021-05-31 20:15:54 UTC
ukk2_acc2,http://d.liveatc.net/ukk2_acc2,LUKK ACC #2,International-EU,,"Chisinau, Moldova",2021-05-31 20:15:54 UTC
ukk2_a2a,http://d.liveatc.net/ukk2_a2a,LUKK Air to Air,International-EU,,"Chisinau, Moldova",2021-05-31 20:15:54 UTC
ukk2_alt,http://d.liveatc.net/ukk2_alt,LUKK Alternate,International-EU,,"Chisinau, Moldova",2021-05-31 20:15:54 UTC
ukk_app,http://d.liveatc.net/ukk_app,LUKK Approach #1,International-EU,,"Chisinau, Moldova",2021-05-31 20:15:54 UTC
ukk2_app,http://d.liveatc.net/ukk2_app,LUKK Approach #2,International-EU,,"Chisinau, Moldova",2021-05-31 20:15:54 UTC
ukk2_guard,http://d.liveatc.net/ukk2_guard,LUKK Emergency/Guard,International-EU,,"Chisinau, Moldova",2021-05-31 20:15:54 UTC
ukk2_gnd,http://d.liveatc.net/ukk2_gnd,LUKK Ground #2,International-EU,,"Chisinau, Moldova",2021-05-31 20:15:54 UTC
ukk2_handling,http://d.liveatc.net/ukk2_handling,LUKK Handling,International-EU,,"Chisinau, Moldova",2021-05-31 20:15:54 UTC
ukk2_twr,http://d.liveatc.net/ukk2_twr,LUKK Tower #2,International-EU,,"Chisinau, Moldova",2021-05-31 20:15:54 UTC
wsk2_4,http://d.liveatc.net/wsk2_4,LWSK ACC (Lower),International-EU,,"Petrovec, North Macedonia, Republic of",2021-05-31 20:15:54 UTC
wsk2_1,http://d.liveatc.net/wsk2_1,LWSK ACC (Upper),International-EU,,"Petrovec, North Macedonia, Republic of",2021-05-31 20:15:54 UTC
wsk2_3,http://d.liveatc.net/wsk2_3,LWSK Approach,International-EU,,"Petrovec, North Macedonia, Republic of",2021-05-31 20:15:54 UTC
wsk2_atis,http://d.liveatc.net/wsk2_atis,LWSK ATIS,International-EU,,"Petrovec, North Macedonia, Republic of",2021-05-31 20:15:54 UTC
wsk2_2,http://d.liveatc.net/wsk2_2,LWSK Tower,International-EU,,"Petrovec, North Macedonia, Republic of",2021-05-31 20:15:54 UTC
ni2,http://d.liveatc.net/ni2,LYNI Twr/App,International-EU,,"Nis, Serbia",2021-05-31 20:15:54 UTC
zkz,http://d.liveatc.net/zkz,LZKZ Gnd/Twr/App,International-EU,,"Kosice, Slovakia",2021-05-31 20:15:54 UTC
zni2,http://d.liveatc.net/zni2,LZNI CTAF,International-EU,,"Nitra, Slovakia",2021-05-31 20:15:54 UTC
zpe,http://d.liveatc.net/zpe,LZPE CTAF/UNICOM,International-EU,,"Prievidza, Slovakia",2021-05-31 20:15:54 UTC
zpp2,http://d.liveatc.net/zpp2,LZPP Ground/Tower,International-EU,,"Piestany, Slovakia",2021-05-31 20:15:54 UTC
zpt,http://d.liveatc.net/zpt,LZPT CTAF,International-EU,,"Partizanske, Slovakia",2021-05-31 20:15:54 UTC
urkk,http://d.liveatc.net/urkk,URKK Gnd/Twr/App,International-EU,"URKK 311930Z 07005MPS CAVOK 22/15 Q1007 R05R/CLRD70 TEMPO 2000 TSRA SCT007 BKN016CB RMK QFE752
","Krasnodar, Russia",2021-05-31 20:15:54 UTC
urmt,http://d.liveatc.net/urmt,URMT Twr/App/Control,International-EU,"URMT 311930Z 09004MPS CAVOK 16/14 Q1010 R07/010070 NOSIG RMK QFE718
","Stavropol, Russia",2021-05-31 20:15:54 UTC
urss,http://d.liveatc.net/urss,URSS Gnd/Twr/App,International-EU,"URSS 311930Z 06002MPS 9999 FEW008 BKN050CB OVC110 18/17 Q1009 R02/010070 R06/010070 NOSIG RMK R06/06001G04MPS MT OBSC QFE755
","Sochi, Russia",2021-05-31 20:15:54 UTC
usdd1,http://d.liveatc.net/usdd1,USDD Gnd/Twr/App/Control,International-EU,,"Salekhard, Russia",2021-05-31 20:15:54 UTC
uuee3,http://d.liveatc.net/uuee3,UUEE Twr/App/Radar,International-EU,"UUEE 311930Z 07003MPS CAVOK 09/04 Q1019 R06C/CLRD62 R06L/CLRD62 NOSIG
","Moscow, Russia",2021-05-31 20:15:54 UTC
cen4,http://d.liveatc.net/cen4,CEN4 CTAF,CA,CEN4 Flight Activity,"High River, Alberta, Canada",2021-05-31 20:15:59 UTC
ckk7,http://d.liveatc.net/ckk7,CKK7 CTAF,CA,CKK7 Flight Activity,"Steinbach, Manitoba, Canada",2021-05-31 20:15:59 UTC
cykz_cnc3,http://d.liveatc.net/cykz_cnc3,CNC3 CTAF #2,CA,,"Brampton, Ontario, Canada",2021-05-31 20:15:59 UTC
cytz_app_west,http://d.liveatc.net/cytz_app_west,Toronto Terminal (West Satellite) #1,CA,"CYTZ 311900Z AUTO 13008KT 9SM CLR 20/05 A3021 RMK SLP232 DENSITY ALT 600FT
","Brampton, Ontario, Canada",2021-05-31 20:15:59 UTC
cykz_cnu8,http://d.liveatc.net/cykz_cnu8,CNU8 CTAF,CA,,"Markham, Ontario, Canada",2021-05-31 20:15:59 UTC
cnu8,http://d.liveatc.net/cnu8,CNU8 Unicom/Airwork Area,CA,CNU8 Flight Activity,"Markham, Ontario, Canada",2021-05-31 20:15:59 UTC
csb3_1,http://d.liveatc.net/csb3_1,CSB3 CTAF,CA,CSB3 Flight Activity,"St-Mathieu-De-Beloeil, Quebec, Canada",2021-05-31 20:15:59 UTC
csg3,http://d.liveatc.net/csg3,CSG3 CTAF,CA,CSG3 Flight Activity,"Joliette, Quebec, Canada",2021-05-31 20:15:59 UTC
csr3,http://d.liveatc.net/csr3,CSR3 CTAF,CA,CSR3 Flight Activity,"Victoriaville, Quebec, Canada",2021-05-31 20:15:59 UTC
cyrq_s,http://d.liveatc.net/cyrq_s,CYRQ/CSR3 CTAF,CA,"CYRQ 311900Z AUTO 06005KT 340V110 9SM FEW030 SCT071 BKN190 17/09 A3013 RMK SLP206 DENSITY ALT 200FT
","Victoriaville, Quebec, Canada",2021-05-31 20:15:59 UTC
cyam_atis,http://d.liveatc.net/cyam_atis,CYAM ATIS,CA,"CYAM 311952Z 27014KT 8SM SHRA FEW019 SCT035 BKN057TCU BKN100 BKN250 14/10 A3016 RMK CF2CU1TCU3ACC1CI1 CI TR TCU AND ACC OVRHD MOVG E SLP217
","Sault Ste. Marie, Ontario, Canada",2021-05-31 20:15:59 UTC
cyam_gnd_misc,http://d.liveatc.net/cyam_gnd_misc,CYAM Ground/Misc,CA,"CYAM 311952Z 27014KT 8SM SHRA FEW019 SCT035 BKN057TCU BKN100 BKN250 14/10 A3016 RMK CF2CU1TCU3ACC1CI1 CI TR TCU AND ACC OVRHD MOVG E SLP217
","Sault Ste. Marie, Ontario, Canada",2021-05-31 20:15:59 UTC
cyam_twr,http://d.liveatc.net/cyam_twr,CYAM Tower,CA,"CYAM 311952Z 27014KT 8SM SHRA FEW019 SCT035 BKN057TCU BKN100 BKN250 14/10 A3016 RMK CF2CU1TCU3ACC1CI1 CI TR TCU AND ACC OVRHD MOVG E SLP217
","Sault Ste. Marie, Ontario, Canada",2021-05-31 20:15:59 UTC
czyz_yam_high,http://d.liveatc.net/czyz_yam_high,Toronto Center (Sault High),CA,CZYZ Flight Activity,"Sault Ste. Marie, Ontario, Canada",2021-05-31 20:15:59 UTC
czyz_yam_low,http://d.liveatc.net/czyz_yam_low,Toronto Center (Sault Low),CA,CZYZ Flight Activity,"Sault Ste. Marie, Ontario, Canada",2021-05-31 20:15:59 UTC
cyaw_atis,http://d.liveatc.net/cyaw_atis,CYAW ATIS,CA,CYAW Flight Activity,"Halifax, Nova Scotia, Canada",2021-05-31 20:15:59 UTC
cyaw1_gnd_twr,http://d.liveatc.net/cyaw1_gnd_twr,CYAW Gnd/Twr,CA,CYAW Flight Activity,"Halifax, Nova Scotia, Canada",2021-05-31 20:15:59 UTC
cyaw,http://d.liveatc.net/cyaw,CYAW Gnd/Twr/Ops,CA,CYAW Flight Activity,"Halifax, Nova Scotia, Canada",2021-05-31 20:15:59 UTC
cybp,http://d.liveatc.net/cybp,CYBP - Brooks,CA,CYBP Flight Activity,"Brooks, Alberta, Canada",2021-05-31 20:15:59 UTC
cyeg_app,http://d.liveatc.net/cyeg_app,CYEG Approach,CA,"CYEG 311900Z 31013G24KT 20SM BKN060 BKN250 22/07 A3004 RMK CU5CI1 CI TR SLP175 DENSITY ALT 3600FT
","Edmonton, Alberta, Canada",2021-05-31 20:15:59 UTC
cyeg_gnd_misc,http://d.liveatc.net/cyeg_gnd_misc,CYEG Del/Ground/Misc,CA,"CYEG 311900Z 31013G24KT 20SM BKN060 BKN250 22/07 A3004 RMK CU5CI1 CI TR SLP175 DENSITY ALT 3600FT
","Edmonton, Alberta, Canada",2021-05-31 20:15:59 UTC
cyeg_dep,http://d.liveatc.net/cyeg_dep,CYEG Departure,CA,"CYEG 311900Z 31013G24KT 20SM BKN060 BKN250 22/07 A3004 RMK CU5CI1 CI TR SLP175 DENSITY ALT 3600FT
","Edmonton, Alberta, Canada",2021-05-31 20:15:59 UTC
cyeg_twr,http://d.liveatc.net/cyeg_twr,CYEG Tower,CA,"CYEG 311900Z 31013G24KT 20SM BKN060 BKN250 22/07 A3004 RMK CU5CI1 CI TR SLP175 DENSITY ALT 3600FT
","Edmonton, Alberta, Canada",2021-05-31 20:15:59 UTC
cyeg_vfr,http://d.liveatc.net/cyeg_vfr,CYEG VFR Advisory,CA,"CYEG 311900Z 31013G24KT 20SM BKN060 BKN250 22/07 A3004 RMK CU5CI1 CI TR SLP175 DENSITY ALT 3600FT
","Edmonton, Alberta, Canada",2021-05-31 20:15:59 UTC
czeg_yeg_1,http://d.liveatc.net/czeg_yeg_1,CZEG Edmonton Center (FL280/below),CA,CZEG Flight Activity,"Edmonton, Alberta, Canada",2021-05-31 20:15:59 UTC
czeg_yeg_2,http://d.liveatc.net/czeg_yeg_2,CZEG Edmonton Center (Lloydminster Sector),CA,CZEG Flight Activity,"Edmonton, Alberta, Canada",2021-05-31 20:15:59 UTC
cyey,http://d.liveatc.net/cyey,CYEY CTAF,CA,CYEY Flight Activity,"Amos, Quebec, Canada",2021-05-31 20:15:59 UTC
cyfb_ctaf,http://d.liveatc.net/cyfb_ctaf,CYFB CTAF/RDO,CA,"CYFB 311900Z 16005KT 30SM FEW018 OVC024 01/M02 A2977 RMK SC1SC7 SLP086
","Iqaluit, Nunavut, Canada",2021-05-31 20:15:59 UTC
cyfb_zul,http://d.liveatc.net/cyfb_zul,CYFB Montreal Center,CA,"CYFB 311900Z 16005KT 30SM FEW018 OVC024 01/M02 A2977 RMK SC1SC7 SLP086
","Iqaluit, Nunavut, Canada",2021-05-31 20:15:59 UTC
cyfb_rdo,http://d.liveatc.net/cyfb_rdo,CYFB RDO/FIC/Edmonton Ctr,CA,"CYFB 311900Z 16005KT 30SM FEW018 OVC024 01/M02 A2977 RMK SC1SC7 SLP086
","Iqaluit, Nunavut, Canada",2021-05-31 20:15:59 UTC
cyfd,http://d.liveatc.net/cyfd,CYFD ATF (CTAF),CA,CYFD Flight Activity,"Brantford, Ontario, Canada",2021-05-31 20:15:59 UTC
cyfd2,http://d.liveatc.net/cyfd2,CYFD ATF (CTAF)/App,CA,CYFD Flight Activity,"Brantford, Ontario, Canada",2021-05-31 20:15:59 UTC
cyhu,http://d.liveatc.net/cyhu,CYHU Tower,CA,"CYHU 311900Z AUTO VRB02KT 9SM SCT043 18/09 A3014 RMK SLP208 DENSITY ALT 300FT
","Montreal, Quebec, Canada",2021-05-31 20:15:59 UTC
cyhz_atis,http://d.liveatc.net/cyhz_atis,CYHZ ATIS,CA,"CYHZ 311952Z 16009KT 5/8SM R23/5000VP6000FT/U R14/P6000FT/N BR VV001 16/16 A3019 RMK FG8 SLP227 DENSITY ALT 500FT
","Halifax, Nova Scotia, Canada",2021-05-31 20:15:59 UTC
cyhz_del,http://d.liveatc.net/cyhz_del,CYHZ Clearance Delivery,CA,"CYHZ 311952Z 16009KT 5/8SM R23/5000VP6000FT/U R14/P6000FT/N BR VV001 16/16 A3019 RMK FG8 SLP227 DENSITY ALT 500FT
","Halifax, Nova Scotia, Canada",2021-05-31 20:15:59 UTC
cyhz,http://d.liveatc.net/cyhz,CYHZ Del/Gnd/Twr/App #1,CA,"CYHZ 311952Z 16009KT 5/8SM R23/5000VP6000FT/U R14/P6000FT/N BR VV001 16/16 A3019 RMK FG8 SLP227 DENSITY ALT 500FT
","Halifax, Nova Scotia, Canada",2021-05-31 20:15:59 UTC
cyhz3,http://d.liveatc.net/cyhz3,CYHZ Del/Gnd/Twr/App #2,CA,"CYHZ 311952Z 16009KT 5/8SM R23/5000VP6000FT/U R14/P6000FT/N BR VV001 16/16 A3019 RMK FG8 SLP227 DENSITY ALT 500FT
","Halifax, Nova Scotia, Canada",2021-05-31 20:15:59 UTC
cyhz_dep,http://d.liveatc.net/cyhz_dep,CYHZ Departure/Arrival,CA,"CYHZ 311952Z 16009KT 5/8SM R23/5000VP6000FT/U R14/P6000FT/N BR VV001 16/16 A3019 RMK FG8 SLP227 DENSITY ALT 500FT
","Halifax, Nova Scotia, Canada",2021-05-31 20:15:59 UTC
cyhz_gnd,http://d.liveatc.net/cyhz_gnd,CYHZ Ground,CA,"CYHZ 311952Z 16009KT 5/8SM R23/5000VP6000FT/U R14/P6000FT/N BR VV001 16/16 A3019 RMK FG8 SLP227 DENSITY ALT 500FT
","Halifax, Nova Scotia, Canada",2021-05-31 20:15:59 UTC
cyhz_fic,http://d.liveatc.net/cyhz_fic,CYHZ Halifax Radio FIC,CA,"CYHZ 311952Z 16009KT 5/8SM R23/5000VP6000FT/U R14/P6000FT/N BR VV001 16/16 A3019 RMK FG8 SLP227 DENSITY ALT 500FT
","Halifax, Nova Scotia, Canada",2021-05-31 20:15:59 UTC
cyhz_zqm_a2a,http://d.liveatc.net/cyhz_zqm_a2a,CYHZ Moncton Centre/A2A,CA,"CYHZ 311952Z 16009KT 5/8SM R23/5000VP6000FT/U R14/P6000FT/N BR VV001 16/16 A3019 RMK FG8 SLP227 DENSITY ALT 500FT
","Halifax, Nova Scotia, Canada",2021-05-31 20:15:59 UTC
cyhz_133950,http://d.liveatc.net/cyhz_133950,CYHZ Moncton PAL High,CA,"CYHZ 311952Z 16009KT 5/8SM R23/5000VP6000FT/U R14/P6000FT/N BR VV001 16/16 A3019 RMK FG8 SLP227 DENSITY ALT 500FT
","Halifax, Nova Scotia, Canada",2021-05-31 20:15:59 UTC
cyhz_135300,http://d.liveatc.net/cyhz_135300,CYHZ Moncton PAL Low,CA,"CYHZ 311952Z 16009KT 5/8SM R23/5000VP6000FT/U R14/P6000FT/N BR VV001 16/16 A3019 RMK FG8 SLP227 DENSITY ALT 500FT
","Halifax, Nova Scotia, Canada",2021-05-31 20:15:59 UTC
cyhz_twr,http://d.liveatc.net/cyhz_twr,CYHZ Tower,CA,"CYHZ 311952Z 16009KT 5/8SM R23/5000VP6000FT/U R14/P6000FT/N BR VV001 16/16 A3019 RMK FG8 SLP227 DENSITY ALT 500FT
","Halifax, Nova Scotia, Canada",2021-05-31 20:15:59 UTC
cyjn,http://d.liveatc.net/cyjn,CYJN Ground/Tower,CA,CYJN Flight Activity,"St. Jean, Quebec, Canada",2021-05-31 20:15:59 UTC
cykf1,http://d.liveatc.net/cykf1,CYKF Gnd/Twr,CA,"CYKF 311900Z AUTO 24010G15KT 200V270 9SM CLR 21/04 A3023 RMK SLP240 DENSITY ALT 1700FT
","Waterloo, Ontario, Canada",2021-05-31 20:15:59 UTC
cykz_aa_tor_east,http://d.liveatc.net/cykz_aa_tor_east,CYKZ Air Amb/Toronto East,CA,,"Buttonville, Ontario, Canada",2021-05-31 20:15:59 UTC
cykz_4_2,http://d.liveatc.net/cykz_4_2,CYKZ Air Ambulance #2,CA,,"Buttonville, Ontario, Canada",2021-05-31 20:15:59 UTC
cykz_atis,http://d.liveatc.net/cykz_atis,CYKZ ATIS,CA,,"Buttonville, Ontario, Canada",2021-05-31 20:15:59 UTC
cykz_cfa1_ne,http://d.liveatc.net/cykz_cfa1_ne,CYKZ CFA1 NE,CA,,"Buttonville, Ontario, Canada",2021-05-31 20:15:59 UTC
cykz_cfa2_nw,http://d.liveatc.net/cykz_cfa2_nw,CYKZ CFA2 NW,CA,,"Buttonville, Ontario, Canada",2021-05-31 20:15:59 UTC
cykz,http://d.liveatc.net/cykz,CYKZ CTAF,CA,,"Buttonville, Ontario, Canada",2021-05-31 20:15:59 UTC
cykz_fltplan,http://d.liveatc.net/cykz_fltplan,CYKZ Flight Plan,CA,,"Buttonville, Ontario, Canada",2021-05-31 20:15:59 UTC
cykz_fltline,http://d.liveatc.net/cykz_fltline,CYKZ Flightline,CA,,"Buttonville, Ontario, Canada",2021-05-31 20:15:59 UTC
cykz_3,http://d.liveatc.net/cykz_3,CYKZ FlightPlan/CZYZ East,CA,,"Buttonville, Ontario, Canada",2021-05-31 20:15:59 UTC
cykz_guard,http://d.liveatc.net/cykz_guard,CYKZ Guard 121.5,CA,,"Buttonville, Ontario, Canada",2021-05-31 20:15:59 UTC
cykz_london,http://d.liveatc.net/cykz_london,CYKZ London,CA,,"Buttonville, Ontario, Canada",2021-05-31 20:15:59 UTC
cykz_1,http://d.liveatc.net/cykz_1,CYKZ London Radio/Flightline,CA,,"Buttonville, Ontario, Canada",2021-05-31 20:15:59 UTC
cykz_seneca,http://d.liveatc.net/cykz_seneca,CYKZ Seneca Dispatch,CA,,"Buttonville, Ontario, Canada",2021-05-31 20:15:59 UTC
cykz_2,http://d.liveatc.net/cykz_2,CYKZ Seneca Dispatch/Backup,CA,,"Buttonville, Ontario, Canada",2021-05-31 20:15:59 UTC
cykz_twr,http://d.liveatc.net/cykz_twr,CYKZ Tower,CA,,"Buttonville, Ontario, Canada",2021-05-31 20:15:59 UTC
cykz_backup,http://d.liveatc.net/cykz_backup,CYKZ Tower (Backup),CA,,"Buttonville, Ontario, Canada",2021-05-31 20:15:59 UTC
cykz_tor_west,http://d.liveatc.net/cykz_tor_west,Toronto Terminal (West Satellite) #2,CA,,"Buttonville, Ontario, Canada",2021-05-31 20:15:59 UTC
cynj2_gnd,http://d.liveatc.net/cynj2_gnd,CYNJ Ground,CA,,"Langley, British Columbia, Canada",2021-05-31 20:15:59 UTC
cynj2,http://d.liveatc.net/cynj2,CYNJ Tower,CA,,"Langley, British Columbia, Canada",2021-05-31 20:15:59 UTC
cyoo5_gnd,http://d.liveatc.net/cyoo5_gnd,CYOO Ground,CA,"CYOO 311900Z AUTO 20011G18KT 9SM CLR 20/01 A3020 RMK SLP232 DENSITY ALT 800FT
","Oshawa, Ontario, Canada",2021-05-31 20:15:59 UTC
cyoo5_twr,http://d.liveatc.net/cyoo5_twr,CYOO Tower,CA,"CYOO 311900Z AUTO 20011G18KT 9SM CLR 20/01 A3020 RMK SLP232 DENSITY ALT 800FT
","Oshawa, Ontario, Canada",2021-05-31 20:15:59 UTC
cyow3,http://d.liveatc.net/cyow3,CYOW Gnd/Twr/App,CA,"CYOW 311900Z 31011G18KT 15SM FEW050 FEW150 FEW250 23/M00 A3014 RMK CU1AC1CI1 AC TR SLP210 DENSITY ALT 1100FT
","Ottawa, Ontario, Canada",2021-05-31 20:15:59 UTC
cypk2,http://d.liveatc.net/cypk2,CYPK Tower,CA,CYPK Flight Activity,"Pitt Meadows, British Columbia, Canada",2021-05-31 20:15:59 UTC
cypq3,http://d.liveatc.net/cypq3,CYPQ AWOS,CA,"CYPQ 311900Z AUTO 31010G20KT 250V320 9SM CLR 22/04 A3019 RMK SLP228 DENSITY ALT 1300FT
","Peterborough, Ontario, Canada",2021-05-31 20:15:59 UTC
cypq2,http://d.liveatc.net/cypq2,CYPQ Dispatch/UNICOM,CA,"CYPQ 311900Z AUTO 31010G20KT 250V320 9SM CLR 22/04 A3019 RMK SLP228 DENSITY ALT 1300FT
","Peterborough, Ontario, Canada",2021-05-31 20:15:59 UTC
cypq1,http://d.liveatc.net/cypq1,CYPQ Regional/Radar,CA,"CYPQ 311900Z AUTO 31010G20KT 250V320 9SM CLR 22/04 A3019 RMK SLP228 DENSITY ALT 1300FT
","Peterborough, Ontario, Canada",2021-05-31 20:15:59 UTC
cypq,http://d.liveatc.net/cypq,CYPQ UNICOM/Guard,CA,"CYPQ 311900Z AUTO 31010G20KT 250V320 9SM CLR 22/04 A3019 RMK SLP228 DENSITY ALT 1300FT
","Peterborough, Ontario, Canada",2021-05-31 20:15:59 UTC
cyqb1_app_124000,http://d.liveatc.net/cyqb1_app_124000,CYQB App/Dep (Terminal/124.0),CA,"CYQB 311900Z 08009KT 15SM -DZ FEW008 OVC012 11/10 A3017 RMK SF1SC7 SLP219
","Quebec, Quebec, Canada",2021-05-31 20:15:59 UTC
cyqb1_app_127850,http://d.liveatc.net/cyqb1_app_127850,CYQB App/Dep (Terminal/127.85),CA,"CYQB 311900Z 08009KT 15SM -DZ FEW008 OVC012 11/10 A3017 RMK SF1SC7 SLP219
","Quebec, Quebec, Canada",2021-05-31 20:15:59 UTC
cyqb1_atis_en,http://d.liveatc.net/cyqb1_atis_en,CYQB ATIS (English),CA,"CYQB 311900Z 08009KT 15SM -DZ FEW008 OVC012 11/10 A3017 RMK SF1SC7 SLP219
","Quebec, Quebec, Canada",2021-05-31 20:15:59 UTC
cyqb1_atis_fr,http://d.liveatc.net/cyqb1_atis_fr,CYQB ATIS (French),CA,"CYQB 311900Z 08009KT 15SM -DZ FEW008 OVC012 11/10 A3017 RMK SF1SC7 SLP219
","Quebec, Quebec, Canada",2021-05-31 20:15:59 UTC
cyqb1_fs,http://d.liveatc.net/cyqb1_fs,CYQB Flight Service,CA,"CYQB 311900Z 08009KT 15SM -DZ FEW008 OVC012 11/10 A3017 RMK SF1SC7 SLP219
","Quebec, Quebec, Canada",2021-05-31 20:15:59 UTC
cyqb1_fis,http://d.liveatc.net/cyqb1_fis,CYQB Flight Service (FIS),CA,"CYQB 311900Z 08009KT 15SM -DZ FEW008 OVC012 11/10 A3017 RMK SF1SC7 SLP219
","Quebec, Quebec, Canada",2021-05-31 20:15:59 UTC
cyqb1_gnd_twr,http://d.liveatc.net/cyqb1_gnd_twr,CYQB Ground/Tower,CA,"CYQB 311900Z 08009KT 15SM -DZ FEW008 OVC012 11/10 A3017 RMK SF1SC7 SLP219
","Quebec, Quebec, Canada",2021-05-31 20:15:59 UTC
cyqb1_ctr_133225,http://d.liveatc.net/cyqb1_ctr_133225,Montreal Center (Drummond/133.225),CA,"CYQB 311900Z 08009KT 15SM -DZ FEW008 OVC012 11/10 A3017 RMK SF1SC7 SLP219
","Quebec, Quebec, Canada",2021-05-31 20:15:59 UTC
cyqb1_ctr_135025,http://d.liveatc.net/cyqb1_ctr_135025,Montreal Center (Drummond/135.025),CA,"CYQB 311900Z 08009KT 15SM -DZ FEW008 OVC012 11/10 A3017 RMK SF1SC7 SLP219
","Quebec, Quebec, Canada",2021-05-31 20:15:59 UTC
cyqb1_ctr_123925,http://d.liveatc.net/cyqb1_ctr_123925,Montreal Center (Levis/123.925),CA,"CYQB 311900Z 08009KT 15SM -DZ FEW008 OVC012 11/10 A3017 RMK SF1SC7 SLP219
","Quebec, Quebec, Canada",2021-05-31 20:15:59 UTC
cyqg2,http://d.liveatc.net/cyqg2,CYQG Gnd/Twr/App/Misc,CA,"CYQG 311900Z AUTO 21014G19KT 180V240 9SM SCT200 22/07 A3024 RMK SLP244 DENSITY ALT 1300FT
","Windsor, Ontario, Canada",2021-05-31 20:15:59 UTC
cyqi3,http://d.liveatc.net/cyqi3,CYQI CTAF/UNICOM,CA,"CYQI 311936Z 19014KT 12SM BKN004 OVC025 20/20 A3010 RMK ST6SC2 SLP195 DENSITY ALT 500FT
","Yarmouth, Nova Scotia, Canada",2021-05-31 20:15:59 UTC
cyqi5,http://d.liveatc.net/cyqi5,CYQI Halifax FIC,CA,"CYQI 311936Z 19014KT 12SM BKN004 OVC025 20/20 A3010 RMK ST6SC2 SLP195 DENSITY ALT 500FT
","Yarmouth, Nova Scotia, Canada",2021-05-31 20:15:59 UTC
cyqi6,http://d.liveatc.net/cyqi6,CYQI Moncton Center (Vitol Sector/High),CA,"CYQI 311936Z 19014KT 12SM BKN004 OVC025 20/20 A3010 RMK ST6SC2 SLP195 DENSITY ALT 500FT
","Yarmouth, Nova Scotia, Canada",2021-05-31 20:15:59 UTC
cyqi1,http://d.liveatc.net/cyqi1,CYQI Moncton Center High,CA,"CYQI 311936Z 19014KT 12SM BKN004 OVC025 20/20 A3010 RMK ST6SC2 SLP195 DENSITY ALT 500FT
","Yarmouth, Nova Scotia, Canada",2021-05-31 20:15:59 UTC
cyqi2,http://d.liveatc.net/cyqi2,CYQI Moncton Center Low,CA,"CYQI 311936Z 19014KT 12SM BKN004 OVC025 20/20 A3010 RMK ST6SC2 SLP195 DENSITY ALT 500FT
","Yarmouth, Nova Scotia, Canada",2021-05-31 20:15:59 UTC
cyqi,http://d.liveatc.net/cyqi,CYQI Moncton Center Low/High,CA,"CYQI 311936Z 19014KT 12SM BKN004 OVC025 20/20 A3010 RMK ST6SC2 SLP195 DENSITY ALT 500FT
","Yarmouth, Nova Scotia, Canada",2021-05-31 20:15:59 UTC
cyqi4,http://d.liveatc.net/cyqi4,CYQI Wildfire/SAR Aircraft,CA,"CYQI 311936Z 19014KT 12SM BKN004 OVC025 20/20 A3010 RMK ST6SC2 SLP195 DENSITY ALT 500FT
","Yarmouth, Nova Scotia, Canada",2021-05-31 20:15:59 UTC
cyqm_app_ctr,http://d.liveatc.net/cyqm_app_ctr,CYQM App/Dep,CA,"CYQM 311900Z 18012G19KT 15SM BKN027 23/18 A3010 RMK CU7 SLP196 DENSITY ALT 1100FT
","Moncton, New Brunswick, Canada",2021-05-31 20:15:59 UTC
cyqm_gnd_twr,http://d.liveatc.net/cyqm_gnd_twr,CYQM Gnd/Twr/Misc,CA,"CYQM 311900Z 18012G19KT 15SM BKN027 23/18 A3010 RMK CU7 SLP196 DENSITY ALT 1100FT
","Moncton, New Brunswick, Canada",2021-05-31 20:15:59 UTC
czqm_yqm_high,http://d.liveatc.net/czqm_yqm_high,CYQM Moncton Center High,CA,CZQM Flight Activity,"Moncton, New Brunswick, Canada",2021-05-31 20:15:59 UTC
czqm_yqm_low,http://d.liveatc.net/czqm_yqm_low,CYQM Moncton Center Low,CA,CZQM Flight Activity,"Moncton, New Brunswick, Canada",2021-05-31 20:15:59 UTC
cyqt,http://d.liveatc.net/cyqt,CYQT Ground/Tower,CA,"CYQT 311950Z 17007KT 150V250 20SM -SHRA SCT035 BKN073 15/11 A3008 RMK CU3AC3 CB ASOCTD SLP193 DENSITY ALT 700FT
","Thunder Bay, Ontario, Canada",2021-05-31 20:15:59 UTC
cyrq,http://d.liveatc.net/cyrq,CYRQ CTAF,CA,"CYRQ 311900Z AUTO 06005KT 340V110 9SM FEW030 SCT071 BKN190 17/09 A3013 RMK SLP206 DENSITY ALT 200FT
","Trois-Rivieres, Quebec, Canada",2021-05-31 20:15:59 UTC
cyrq_s,http://d.liveatc.net/cyrq_s,CYRQ/CSR3 CTAF,CA,"CYRQ 311900Z AUTO 06005KT 340V110 9SM FEW030 SCT071 BKN190 17/09 A3013 RMK SLP206 DENSITY ALT 200FT
","Trois-Rivieres, Quebec, Canada",2021-05-31 20:15:59 UTC
cysb,http://d.liveatc.net/cysb,CYSB Gnd/Twr/Center,CA,"CYSB 311900Z 25007G20KT 200V300 20SM SCT076 BKN250 21/02 A3014 RMK AC3CI3 SLP213 DENSITY ALT 1900FT
","Sudbury, Ontario, Canada",2021-05-31 20:15:59 UTC
cysc1_awos,http://d.liveatc.net/cysc1_awos,CYSC AWOS,CA,"CYSC 311934Z AUTO 30004KT 6SM RA BR SCT006 BKN012 OVC021 11/10 A3012 RMK SLP206
","Sherbrooke, Quebec, Canada",2021-05-31 20:15:59 UTC
cysc1_ctaf,http://d.liveatc.net/cysc1_ctaf,CYSC CTAF,CA,"CYSC 311934Z AUTO 30004KT 6SM RA BR SCT006 BKN012 OVC021 11/10 A3012 RMK SLP206
","Sherbrooke, Quebec, Canada",2021-05-31 20:15:59 UTC
cysc1_guard,http://d.liveatc.net/cysc1_guard,CYSC Emergency/Guard,CA,"CYSC 311934Z AUTO 30004KT 6SM RA BR SCT006 BKN012 OVC021 11/10 A3012 RMK SLP206
","Sherbrooke, Quebec, Canada",2021-05-31 20:15:59 UTC
cysc1_rco,http://d.liveatc.net/cysc1_rco,CYSC RCO/GCO,CA,"CYSC 311934Z AUTO 30004KT 6SM RA BR SCT006 BKN012 OVC021 11/10 A3012 RMK SLP206
","Sherbrooke, Quebec, Canada",2021-05-31 20:15:59 UTC
cysc1_zul_132550,http://d.liveatc.net/cysc1_zul_132550,CYSC ZUL 132.55,CA,"CYSC 311934Z AUTO 30004KT 6SM RA BR SCT006 BKN012 OVC021 11/10 A3012 RMK SLP206
","Sherbrooke, Quebec, Canada",2021-05-31 20:15:59 UTC
cysc1_zul_133225,http://d.liveatc.net/cysc1_zul_133225,CYSC ZUL 133.225,CA,"CYSC 311934Z AUTO 30004KT 6SM RA BR SCT006 BKN012 OVC021 11/10 A3012 RMK SLP206
","Sherbrooke, Quebec, Canada",2021-05-31 20:15:59 UTC
cyts_atis,http://d.liveatc.net/cyts_atis,CYTS ATIS,CA,"CYTS 311900Z 25008G17KT 230V320 15SM BKN062 BKN140 BKN220 21/05 A3006 RMK CU5AC1CI1 SLP187 DENSITY ALT 1700FT
","Timmins, Ontario, Canada",2021-05-31 20:15:59 UTC
cyul_timmins,http://d.liveatc.net/cyul_timmins,CZUL ACC (Noranda Sector) ,CA,"CYUL 311900Z VRB04KT 30SM FEW040 FEW180 FEW250 19/10 A3014 RMK CU1AC1CI1 AC TR CI TR SLP208 DENSITY ALT 400FT
","Timmins, Ontario, Canada",2021-05-31 20:15:59 UTC
czyz_timmins,http://d.liveatc.net/czyz_timmins,Toronto Center (Timmins) ,CA,CZYZ Flight Activity,"Timmins, Ontario, Canada",2021-05-31 20:15:59 UTC
cytz_app,http://d.liveatc.net/cytz_app,CYTZ Approach,CA,"CYTZ 311900Z AUTO 13008KT 9SM CLR 20/05 A3021 RMK SLP232 DENSITY ALT 600FT
","Toronto, Ontario, Canada",2021-05-31 20:15:59 UTC
cytz,http://d.liveatc.net/cytz,CYTZ Tower,CA,"CYTZ 311900Z AUTO 13008KT 9SM CLR 20/05 A3021 RMK SLP232 DENSITY ALT 600FT
","Toronto, Ontario, Canada",2021-05-31 20:15:59 UTC
cytz_app_west,http://d.liveatc.net/cytz_app_west,Toronto Terminal (West Satellite) #1,CA,"CYTZ 311900Z AUTO 13008KT 9SM CLR 20/05 A3021 RMK SLP232 DENSITY ALT 600FT
","Toronto, Ontario, Canada",2021-05-31 20:15:59 UTC
cyul_app,http://d.liveatc.net/cyul_app,CYUL Approach/Departure,CA,"CYUL 311900Z VRB04KT 30SM FEW040 FEW180 FEW250 19/10 A3014 RMK CU1AC1CI1 AC TR CI TR SLP208 DENSITY ALT 400FT
","Montreal, Quebec, Canada",2021-05-31 20:15:59 UTC
cyul_ice,http://d.liveatc.net/cyul_ice,CYUL De-icing Ops,CA,"CYUL 311900Z VRB04KT 30SM FEW040 FEW180 FEW250 19/10 A3014 RMK CU1AC1CI1 AC TR CI TR SLP208 DENSITY ALT 400FT
","Montreal, Quebec, Canada",2021-05-31 20:15:59 UTC
cyul_gnd,http://d.liveatc.net/cyul_gnd,CYUL Del/Ground/Apron,CA,"CYUL 311900Z VRB04KT 30SM FEW040 FEW180 FEW250 19/10 A3014 RMK CU1AC1CI1 AC TR CI TR SLP208 DENSITY ALT 400FT
","Montreal, Quebec, Canada",2021-05-31 20:15:59 UTC
cyul_twr2,http://d.liveatc.net/cyul_twr2,CYUL Tower,CA,"CYUL 311900Z VRB04KT 30SM FEW040 FEW180 FEW250 19/10 A3014 RMK CU1AC1CI1 AC TR CI TR SLP208 DENSITY ALT 400FT
","Montreal, Quebec, Canada",2021-05-31 20:15:59 UTC
cyul_ctr_mtl,http://d.liveatc.net/cyul_ctr_mtl,CZUL Center (Montreal),CA,"CYUL 311900Z VRB04KT 30SM FEW040 FEW180 FEW250 19/10 A3014 RMK CU1AC1CI1 AC TR CI TR SLP208 DENSITY ALT 400FT
","Montreal, Quebec, Canada",2021-05-31 20:15:59 UTC
czul_yow,http://d.liveatc.net/czul_yow,CZUL Center (Vallie Sector),CA,CZUL Flight Activity,"Montreal, Quebec, Canada",2021-05-31 20:15:59 UTC
cyvk2,http://d.liveatc.net/cyvk2,CYVK CTAF/UNICOM,CA,CYVK Flight Activity,"Vernon, British Columbia, Canada",2021-05-31 20:15:59 UTC
cyvo,http://d.liveatc.net/cyvo,CYVO Gnd/RDO/Center,CA,"CYVO 311900Z 24010G20KT 200V310 15SM FEW069 SCT110 SCT230 22/M01 A3009 RMK CU1AC2CI1 CI TR SLP197 DENSITY ALT 2000FT
","Val-D'Or, Quebec, Canada",2021-05-31 20:15:59 UTC
cyvr1_app,http://d.liveatc.net/cyvr1_app,CYVR App/Dep #1,CA,"CYVR 311900Z 29005KT 25SM BKN090 BKN120 BKN210 18/13 A3021 RMK AC5AC1CS1 SLP231 DENSITY ALT 100FT
","Vancouver, British Columbia, Canada",2021-05-31 20:15:59 UTC
cyvr2,http://d.liveatc.net/cyvr2,CYVR App/Dep #2,CA,"CYVR 311900Z 29005KT 25SM BKN090 BKN120 BKN210 18/13 A3021 RMK AC5AC1CS1 SLP231 DENSITY ALT 100FT
","Vancouver, British Columbia, Canada",2021-05-31 20:15:59 UTC
cyvr1_gnd,http://d.liveatc.net/cyvr1_gnd,CYVR Del/Gnd,CA,"CYVR 311900Z 29005KT 25SM BKN090 BKN120 BKN210 18/13 A3021 RMK AC5AC1CS1 SLP231 DENSITY ALT 100FT
","Vancouver, British Columbia, Canada",2021-05-31 20:15:59 UTC
cyvr1_gnd_twr,http://d.liveatc.net/cyvr1_gnd_twr,CYVR Del/Gnd/Twr #1,CA,"CYVR 311900Z 29005KT 25SM BKN090 BKN120 BKN210 18/13 A3021 RMK AC5AC1CS1 SLP231 DENSITY ALT 100FT
","Vancouver, British Columbia, Canada",2021-05-31 20:15:59 UTC
cyvr_s,http://d.liveatc.net/cyvr_s,CYVR Del/Gnd/Twr/App,CA,"CYVR 311900Z 29005KT 25SM BKN090 BKN120 BKN210 18/13 A3021 RMK AC5AC1CS1 SLP231 DENSITY ALT 100FT
","Vancouver, British Columbia, Canada",2021-05-31 20:15:59 UTC
cyvr1_twr,http://d.liveatc.net/cyvr1_twr,CYVR Tower,CA,"CYVR 311900Z 29005KT 25SM BKN090 BKN120 BKN210 18/13 A3021 RMK AC5AC1CS1 SLP231 DENSITY ALT 100FT
","Vancouver, British Columbia, Canada",2021-05-31 20:15:59 UTC
cyvr1_ctr,http://d.liveatc.net/cyvr1_ctr,CZVR Vancouver ACC,CA,"CYVR 311900Z 29005KT 25SM BKN090 BKN120 BKN210 18/13 A3021 RMK AC5AC1CS1 SLP231 DENSITY ALT 100FT
","Vancouver, British Columbia, Canada",2021-05-31 20:15:59 UTC
cywg2_misc1,http://d.liveatc.net/cywg2_misc1,CYWG App/Dep,CA,"CYWG 311900Z 21005KT 15SM FEW250 20/04 A3013 RMK CI1 SLP210 DENSITY ALT 1300FT
","Winnipeg, Manitoba, Canada",2021-05-31 20:15:59 UTC
cywg2_misc3,http://d.liveatc.net/cywg2_misc3,CYWG ATIS,CA,"CYWG 311900Z 21005KT 15SM FEW250 20/04 A3013 RMK CI1 SLP210 DENSITY ALT 1300FT
","Winnipeg, Manitoba, Canada",2021-05-31 20:15:59 UTC
cywg2_misc2,http://d.liveatc.net/cywg2_misc2,CYWG Center,CA,"CYWG 311900Z 21005KT 15SM FEW250 20/04 A3013 RMK CI1 SLP210 DENSITY ALT 1300FT
","Winnipeg, Manitoba, Canada",2021-05-31 20:15:59 UTC
cywg2_misc,http://d.liveatc.net/cywg2_misc,CYWG Del/Gnd/Twr,CA,"CYWG 311900Z 21005KT 15SM FEW250 20/04 A3013 RMK CI1 SLP210 DENSITY ALT 1300FT
","Winnipeg, Manitoba, Canada",2021-05-31 20:15:59 UTC
cywh2_misc,http://d.liveatc.net/cywh2_misc,CYWH FISE/Terminal,CA,"CYWH 311900Z CCA 21007KT 15SM FEW080 BKN140 BKN200 14/09 A3021 RMK AC2AC3CI2 SLP233
","Victoria, British Columbia, Canada",2021-05-31 20:15:59 UTC
cyxe_gnd_twr,http://d.liveatc.net/cyxe_gnd_twr,CYXE Gnd/Tower,CA,"CYXE 311900Z 21016KT 15SM FEW100 BKN250 26/01 A2994 RMK AC2CI5 SLP145 DENSITY ALT 3300FT
","Saskatoon, Saskatchewan, Canada",2021-05-31 20:15:59 UTC
cyxe_app_dep,http://d.liveatc.net/cyxe_app_dep,CYXE Terminal (App/Dep),CA,"CYXE 311900Z 21016KT 15SM FEW100 BKN250 26/01 A2994 RMK AC2CI5 SLP145 DENSITY ALT 3300FT
","Saskatoon, Saskatchewan, Canada",2021-05-31 20:15:59 UTC
cyxe_ctr,http://d.liveatc.net/cyxe_ctr,Winnipeg Centre (CYXE Area),CA,"CYXE 311900Z 21016KT 15SM FEW100 BKN250 26/01 A2994 RMK AC2CI5 SLP145 DENSITY ALT 3300FT
","Saskatoon, Saskatchewan, Canada",2021-05-31 20:15:59 UTC
cyxu1_app,http://d.liveatc.net/cyxu1_app,CYXU App/Dep (London Sector),CA,"CYXU 311900Z 17010G21KT 120V230 15SM FEW060 SCT170 BKN260 21/09 A3023 RMK CU1AC3CI3 CU TR SLP240 DENSITY ALT 1600FT
","London, Ontario, Canada",2021-05-31 20:15:59 UTC
cyxu1_gnd,http://d.liveatc.net/cyxu1_gnd,CYXU Ground,CA,"CYXU 311900Z 17010G21KT 120V230 15SM FEW060 SCT170 BKN260 21/09 A3023 RMK CU1AC3CI3 CU TR SLP240 DENSITY ALT 1600FT
","London, Ontario, Canada",2021-05-31 20:15:59 UTC
cyxu1_twr,http://d.liveatc.net/cyxu1_twr,CYXU Tower,CA,"CYXU 311900Z 17010G21KT 120V230 15SM FEW060 SCT170 BKN260 21/09 A3023 RMK CU1AC3CI3 CU TR SLP240 DENSITY ALT 1600FT
","London, Ontario, Canada",2021-05-31 20:15:59 UTC
cyxu1_czyz_135625,http://d.liveatc.net/cyxu1_czyz_135625,CZYZ Toronto Center (Kitchener Sector),CA,"CYXU 311900Z 17010G21KT 120V230 15SM FEW060 SCT170 BKN260 21/09 A3023 RMK CU1AC3CI3 CU TR SLP240 DENSITY ALT 1600FT
","London, Ontario, Canada",2021-05-31 20:15:59 UTC
cyxu1_czyz_135825,http://d.liveatc.net/cyxu1_czyz_135825,CZYZ Toronto Center (Lucan Sector),CA,"CYXU 311900Z 17010G21KT 120V230 15SM FEW060 SCT170 BKN260 21/09 A3023 RMK CU1AC3CI3 CU TR SLP240 DENSITY ALT 1600FT
","London, Ontario, Canada",2021-05-31 20:15:59 UTC
cyyb1_rdo,http://d.liveatc.net/cyyb1_rdo,CYYB RDO/CTAF,CA,"CYYB 311900Z 26008KT 190V290 30SM FEW060 BKN320 19/02 A3016 RMK CU1CI6 SLP220 DENSITY ALT 1800FT
","North Bay, Ontario, Canada",2021-05-31 20:15:59 UTC
cyyb1_ctr,http://d.liveatc.net/cyyb1_ctr,CYYB Toronto Center,CA,"CYYB 311900Z 26008KT 190V290 30SM FEW060 BKN320 19/02 A3016 RMK CU1CI6 SLP220 DENSITY ALT 1800FT
","North Bay, Ontario, Canada",2021-05-31 20:15:59 UTC
cyyc2_app,http://d.liveatc.net/cyyc2_app,CYYC App/Dep,CA,"CYYC 311900Z VRB10G15KT 40SM FEW067 FEW120 SCT250 22/03 A3011 RMK CU1AC1CI3 CU TR AC TR SLP191 DENSITY ALT 5000FT
","Calgary, Alberta, Canada",2021-05-31 20:15:59 UTC
cyyc2_twr,http://d.liveatc.net/cyyc2_twr,CYYC Tower #1,CA,"CYYC 311900Z VRB10G15KT 40SM FEW067 FEW120 SCT250 22/03 A3011 RMK CU1AC1CI3 CU TR AC TR SLP191 DENSITY ALT 5000FT
","Calgary, Alberta, Canada",2021-05-31 20:15:59 UTC
cyyc,http://d.liveatc.net/cyyc,CYYC Twr/App/Center,CA,"CYYC 311900Z VRB10G15KT 40SM FEW067 FEW120 SCT250 22/03 A3011 RMK CU1AC1CI3 CU TR AC TR SLP191 DENSITY ALT 5000FT
","Calgary, Alberta, Canada",2021-05-31 20:15:59 UTC
cyyc2_1,http://d.liveatc.net/cyyc2_1,CYYC Twr/App/Dep,CA,"CYYC 311900Z VRB10G15KT 40SM FEW067 FEW120 SCT250 22/03 A3011 RMK CU1AC1CI3 CU TR AC TR SLP191 DENSITY ALT 5000FT
","Calgary, Alberta, Canada",2021-05-31 20:15:59 UTC
cyyj,http://d.liveatc.net/cyyj,CYYJ Gnd/Twr,CA,"CYYJ 311900Z 09005KT 20SM FEW090 BKN180 19/10 A3020 RMK AC1AC7 AC TR SLP228 DENSITY ALT 300FT
","Victoria, British Columbia, Canada",2021-05-31 20:15:59 UTC
cyyr_local,http://d.liveatc.net/cyyr_local,CYYR Del/Gnd/Twr/App #1,CA,"CYYR 311900Z 18014G19KT 15SM BKN070 BKN090 16/02 A3013 RMK AC6AC2 SLP204
","Goose Bay, Newfoundland, Canada",2021-05-31 20:15:59 UTC
cyyr2,http://d.liveatc.net/cyyr2,CYYR Del/Gnd/Twr/App #2,CA,"CYYR 311900Z 18014G19KT 15SM BKN070 BKN090 16/02 A3013 RMK AC6AC2 SLP204
","Goose Bay, Newfoundland, Canada",2021-05-31 20:15:59 UTC
cyyr_s,http://d.liveatc.net/cyyr_s,CYYR Del/Gnd/Twr/App/Center,CA,"CYYR 311900Z 18014G19KT 15SM BKN070 BKN090 16/02 A3013 RMK AC6AC2 SLP204
","Goose Bay, Newfoundland, Canada",2021-05-31 20:15:59 UTC
cyyr_center,http://d.liveatc.net/cyyr_center,CYYR Gander Center,CA,"CYYR 311900Z 18014G19KT 15SM BKN070 BKN090 16/02 A3013 RMK AC6AC2 SLP204
","Goose Bay, Newfoundland, Canada",2021-05-31 20:15:59 UTC
cyyt1_atis,http://d.liveatc.net/cyyt1_atis,CYYT ATIS,CA,"CYYT 311900Z 20016G27KT 15SM FEW100 BKN220 17/M00 A3048 RMK AC2CI5 SLP326
","St. John's, Newfoundland, Canada",2021-05-31 20:15:59 UTC
cyyt1_gnd,http://d.liveatc.net/cyyt1_gnd,CYYT Ground,CA,"CYYT 311900Z 20016G27KT 15SM FEW100 BKN220 17/M00 A3048 RMK AC2CI5 SLP326
","St. John's, Newfoundland, Canada",2021-05-31 20:15:59 UTC
cyyt1_gnd_twr,http://d.liveatc.net/cyyt1_gnd_twr,CYYT Ground/Tower,CA,"CYYT 311900Z 20016G27KT 15SM FEW100 BKN220 17/M00 A3048 RMK AC2CI5 SLP326
","St. John's, Newfoundland, Canada",2021-05-31 20:15:59 UTC
cyyt1_twr,http://d.liveatc.net/cyyt1_twr,CYYT Tower,CA,"CYYT 311900Z 20016G27KT 15SM FEW100 BKN220 17/M00 A3048 RMK AC2CI5 SLP326
","St. John's, Newfoundland, Canada",2021-05-31 20:15:59 UTC
cyyt1_ctr_133150,http://d.liveatc.net/cyyt1_ctr_133150,Gander Center 133.150,CA,"CYYT 311900Z 20016G27KT 15SM FEW100 BKN220 17/M00 A3048 RMK AC2CI5 SLP326
","St. John's, Newfoundland, Canada",2021-05-31 20:15:59 UTC
cyyt1_iar_122375,http://d.liveatc.net/cyyt1_iar_122375,Gander Radio 122.375,CA,"CYYT 311900Z 20016G27KT 15SM FEW100 BKN220 17/M00 A3048 RMK AC2CI5 SLP326
","St. John's, Newfoundland, Canada",2021-05-31 20:15:59 UTC
cyyz9,http://d.liveatc.net/cyyz9,CYYZ Apron,CA,"CYYZ 311900Z 13009G15KT 100V170 15SM FEW080 SCT160 BKN240 22/05 A3019 RMK AC1AC2CI2 SLP227 DENSITY ALT 1300FT
","Toronto, Ontario, Canada",2021-05-31 20:15:59 UTC
cyyz_apr_bu,http://d.liveatc.net/cyyz_apr_bu,CYYZ Apron (Backup),CA,"CYYZ 311900Z 13009G15KT 100V170 15SM FEW080 SCT160 BKN240 22/05 A3019 RMK AC1AC2CI2 SLP227 DENSITY ALT 1300FT
","Toronto, Ontario, Canada",2021-05-31 20:15:59 UTC
cyyz_apr_n,http://d.liveatc.net/cyyz_apr_n,CYYZ Apron (North),CA,"CYYZ 311900Z 13009G15KT 100V170 15SM FEW080 SCT160 BKN240 22/05 A3019 RMK AC1AC2CI2 SLP227 DENSITY ALT 1300FT
","Toronto, Ontario, Canada",2021-05-31 20:15:59 UTC
cyyz_apr_s,http://d.liveatc.net/cyyz_apr_s,CYYZ Apron (South),CA,"CYYZ 311900Z 13009G15KT 100V170 15SM FEW080 SCT160 BKN240 22/05 A3019 RMK AC1AC2CI2 SLP227 DENSITY ALT 1300FT
","Toronto, Ontario, Canada",2021-05-31 20:15:59 UTC
cyyz_apr_coord,http://d.liveatc.net/cyyz_apr_coord,CYYZ Apron Coordinator,CA,"CYYZ 311900Z 13009G15KT 100V170 15SM FEW080 SCT160 BKN240 22/05 A3019 RMK AC1AC2CI2 SLP227 DENSITY ALT 1300FT
","Toronto, Ontario, Canada",2021-05-31 20:15:59 UTC
cyyz6,http://d.liveatc.net/cyyz6,CYYZ Arrival,CA,"CYYZ 311900Z 13009G15KT 100V170 15SM FEW080 SCT160 BKN240 22/05 A3019 RMK AC1AC2CI2 SLP227 DENSITY ALT 1300FT
","Toronto, Ontario, Canada",2021-05-31 20:15:59 UTC
cyyz3,http://d.liveatc.net/cyyz3,CYYZ ATIS,CA,"CYYZ 311900Z 13009G15KT 100V170 15SM FEW080 SCT160 BKN240 22/05 A3019 RMK AC1AC2CI2 SLP227 DENSITY ALT 1300FT
","Toronto, Ontario, Canada",2021-05-31 20:15:59 UTC
cyyz4,http://d.liveatc.net/cyyz4,CYYZ Clearance Delivery,CA,"CYYZ 311900Z 13009G15KT 100V170 15SM FEW080 SCT160 BKN240 22/05 A3019 RMK AC1AC2CI2 SLP227 DENSITY ALT 1300FT
","Toronto, Ontario, Canada",2021-05-31 20:15:59 UTC
cyyz8,http://d.liveatc.net/cyyz8,CYYZ Departure,CA,"CYYZ 311900Z 13009G15KT 100V170 15SM FEW080 SCT160 BKN240 22/05 A3019 RMK AC1AC2CI2 SLP227 DENSITY ALT 1300FT
","Toronto, Ontario, Canada",2021-05-31 20:15:59 UTC
cyyz5,http://d.liveatc.net/cyyz5,CYYZ Ground,CA,"CYYZ 311900Z 13009G15KT 100V170 15SM FEW080 SCT160 BKN240 22/05 A3019 RMK AC1AC2CI2 SLP227 DENSITY ALT 1300FT
","Toronto, Ontario, Canada",2021-05-31 20:15:59 UTC
cyyz7,http://d.liveatc.net/cyyz7,CYYZ Tower,CA,"CYYZ 311900Z 13009G15KT 100V170 15SM FEW080 SCT160 BKN240 22/05 A3019 RMK AC1AC2CI2 SLP227 DENSITY ALT 1300FT
","Toronto, Ontario, Canada",2021-05-31 20:15:59 UTC
czyz_yyz2_barrie,http://d.liveatc.net/czyz_yyz2_barrie,Toronto Center (Barrie),CA,CZYZ Flight Activity,"Toronto, Ontario, Canada",2021-05-31 20:15:59 UTC
czyz_yyz2_east_sat,http://d.liveatc.net/czyz_yyz2_east_sat,Toronto Center (East Satellite),CA,CZYZ Flight Activity,"Toronto, Ontario, Canada",2021-05-31 20:15:59 UTC
czyz_yyz2_ham,http://d.liveatc.net/czyz_yyz2_ham,Toronto Center (Hamilton) #1,CA,CZYZ Flight Activity,"Toronto, Ontario, Canada",2021-05-31 20:15:59 UTC
cytz_ctr_ham,http://d.liveatc.net/cytz_ctr_ham,Toronto Center (Hamilton) #2,CA,"CYTZ 311900Z AUTO 13008KT 9SM CLR 20/05 A3021 RMK SLP232 DENSITY ALT 600FT
","Toronto, Ontario, Canada",2021-05-31 20:15:59 UTC
czyz_yyz2_oak,http://d.liveatc.net/czyz_yyz2_oak,Toronto Center (Oakville),CA,CZYZ Flight Activity,"Toronto, Ontario, Canada",2021-05-31 20:15:59 UTC
cytz_app_west,http://d.liveatc.net/cytz_app_west,Toronto Terminal (West Satellite) #1,CA,"CYTZ 311900Z AUTO 13008KT 9SM CLR 20/05 A3021 RMK SLP232 DENSITY ALT 600FT
","Toronto, Ontario, Canada",2021-05-31 20:15:59 UTC
cyzd_unicom,http://d.liveatc.net/cyzd_unicom,CYZD CTAF/UNICOM,CA,CYZD Flight Activity,"Toronto, Ontario, Canada",2021-05-31 20:15:59 UTC
cyzd,http://d.liveatc.net/cyzd,CYZD Unicom/CYTZ Backup,CA,CYZD Flight Activity,"Toronto, Ontario, Canada",2021-05-31 20:15:59 UTC
cyzd_wx,http://d.liveatc.net/cyzd_wx,CYZD Weather,CA,CYZD Flight Activity,"Toronto, Ontario, Canada",2021-05-31 20:15:59 UTC
cyzx1_app,http://d.liveatc.net/cyzx1_app,CYZX App/Dep/PAR,CA,"CYZX 311900Z 18013G22KT 15SM FEW027 BKN250 24/17 A3012 RMK SC2CI2 SLP201
","Greenwood, Nova Scotia, Canada",2021-05-31 20:15:59 UTC
cyzx1_gnd,http://d.liveatc.net/cyzx1_gnd,CYZX Del/Ground,CA,"CYZX 311900Z 18013G22KT 15SM FEW027 BKN250 24/17 A3012 RMK SC2CI2 SLP201
","Greenwood, Nova Scotia, Canada",2021-05-31 20:15:59 UTC
cyzx1_twr,http://d.liveatc.net/cyzx1_twr,CYZX Tower,CA,"CYZX 311900Z 18013G22KT 15SM FEW027 BKN250 24/17 A3012 RMK SC2CI2 SLP201
","Greenwood, Nova Scotia, Canada",2021-05-31 20:15:59 UTC
czba_awos,http://d.liveatc.net/czba_awos,CZBA AWOS,CA,CZBA Flight Activity,"Burlington, Ontario, Canada",2021-05-31 20:15:59 UTC
czba_cfa3,http://d.liveatc.net/czba_cfa3,CZBA CFA3,CA,CZBA Flight Activity,"Burlington, Ontario, Canada",2021-05-31 20:15:59 UTC
czbb2,http://d.liveatc.net/czbb2,CZBB Tower (Inner),CA,CZBB Flight Activity,"Boundary Bay, British Columbia, Canada",2021-05-31 20:15:59 UTC
obbi,http://d.liveatc.net/obbi,OBBI Gnd/Twr/App,International-AS,"OBBI 312000Z 30009KT CAVOK 35/21 Q1002 NOSIG
","Muharraq, Bahrain",2021-05-31 20:16:01 UTC
okbk2,http://d.liveatc.net/okbk2,OKBK Gnd/Twr/App/Radar,International-AS,"OKBK 312000Z 36009KT CAVOK 39/04 Q1004 NOSIG
","Kuwait City, Kuwait",2021-05-31 20:16:01 UTC
opkc,http://d.liveatc.net/opkc,OPKC Gnd/Twr/Radar,International-AS,"OPKC 312000Z 25012KT 6000 SCT020 30/25 Q1000 NOSIG
","Karachi, Pakistan",2021-05-31 20:16:01 UTC
opla_atis,http://d.liveatc.net/opla_atis,OPLA ATIS,International-AS,"OPLA 311955Z 05010KT 5000 FU SCT040 BKN100 24/17 Q1000 TEMPO 34020G35KT 1500 TSRA FEW030CB RMK REVCTS RMK QFE972 RMK A29.54
","Lahore, Pakistan",2021-05-31 20:16:01 UTC
opla,http://d.liveatc.net/opla,OPLA/OPLH Gnd/Twr/App,International-AS,"OPLA 311955Z 05010KT 5000 FU SCT040 BKN100 24/17 Q1000 TEMPO 34020G35KT 1500 TSRA FEW030CB RMK REVCTS RMK QFE972 RMK A29.54
","Lahore, Pakistan",2021-05-31 20:16:01 UTC
rjaa_app_s,http://d.liveatc.net/rjaa_app_s,RJAA Approach,International-AS,"RJAA 311930Z 02004KT 4000 R16R/1000VP2000D R16L/P2000N MIFG BR FEW004 15/15 Q1015 TEMPO FEW005 BKN007 RMK 1ST004 A2999
","Tokyo, Japan",2021-05-31 20:16:01 UTC
rjaa_atis,http://d.liveatc.net/rjaa_atis,RJAA ATIS,International-AS,"RJAA 311930Z 02004KT 4000 R16R/1000VP2000D R16L/P2000N MIFG BR FEW004 15/15 Q1015 TEMPO FEW005 BKN007 RMK 1ST004 A2999
","Tokyo, Japan",2021-05-31 20:16:01 UTC
rjaa_del,http://d.liveatc.net/rjaa_del,RJAA Clearance Delivery,International-AS,"RJAA 311930Z 02004KT 4000 R16R/1000VP2000D R16L/P2000N MIFG BR FEW004 15/15 Q1015 TEMPO FEW005 BKN007 RMK 1ST004 A2999
","Tokyo, Japan",2021-05-31 20:16:01 UTC
rjaa_del1,http://d.liveatc.net/rjaa_del1,RJAA Clearance Delivery #1,International-AS,"RJAA 311930Z 02004KT 4000 R16R/1000VP2000D R16L/P2000N MIFG BR FEW004 15/15 Q1015 TEMPO FEW005 BKN007 RMK 1ST004 A2999
","Tokyo, Japan",2021-05-31 20:16:01 UTC
rjaa_del2,http://d.liveatc.net/rjaa_del2,RJAA Clearance Delivery #2,International-AS,"RJAA 311930Z 02004KT 4000 R16R/1000VP2000D R16L/P2000N MIFG BR FEW004 15/15 Q1015 TEMPO FEW005 BKN007 RMK 1ST004 A2999
","Tokyo, Japan",2021-05-31 20:16:01 UTC
rjaa_co,http://d.liveatc.net/rjaa_co,RJAA Company Channels,International-AS,"RJAA 311930Z 02004KT 4000 R16R/1000VP2000D R16L/P2000N MIFG BR FEW004 15/15 Q1015 TEMPO FEW005 BKN007 RMK 1ST004 A2999
","Tokyo, Japan",2021-05-31 20:16:01 UTC
rjaa_dep,http://d.liveatc.net/rjaa_dep,RJAA Departure,International-AS,"RJAA 311930Z 02004KT 4000 R16R/1000VP2000D R16L/P2000N MIFG BR FEW004 15/15 Q1015 TEMPO FEW005 BKN007 RMK 1ST004 A2999
","Tokyo, Japan",2021-05-31 20:16:01 UTC
rjaa_dep1,http://d.liveatc.net/rjaa_dep1,RJAA Departure #1,International-AS,"RJAA 311930Z 02004KT 4000 R16R/1000VP2000D R16L/P2000N MIFG BR FEW004 15/15 Q1015 TEMPO FEW005 BKN007 RMK 1ST004 A2999
","Tokyo, Japan",2021-05-31 20:16:01 UTC
rjaa_dep2,http://d.liveatc.net/rjaa_dep2,RJAA Departure #2,International-AS,"RJAA 311930Z 02004KT 4000 R16R/1000VP2000D R16L/P2000N MIFG BR FEW004 15/15 Q1015 TEMPO FEW005 BKN007 RMK 1ST004 A2999
","Tokyo, Japan",2021-05-31 20:16:01 UTC
rjaa_guard,http://d.liveatc.net/rjaa_guard,RJAA Emergency/Guard,International-AS,"RJAA 311930Z 02004KT 4000 R16R/1000VP2000D R16L/P2000N MIFG BR FEW004 15/15 Q1015 TEMPO FEW005 BKN007 RMK 1ST004 A2999
","Tokyo, Japan",2021-05-31 20:16:01 UTC
rjaa_gnd1,http://d.liveatc.net/rjaa_gnd1,RJAA Ground #1,International-AS,"RJAA 311930Z 02004KT 4000 R16R/1000VP2000D R16L/P2000N MIFG BR FEW004 15/15 Q1015 TEMPO FEW005 BKN007 RMK 1ST004 A2999
","Tokyo, Japan",2021-05-31 20:16:01 UTC
rjaa_gnd2,http://d.liveatc.net/rjaa_gnd2,RJAA Ground #2,International-AS,"RJAA 311930Z 02004KT 4000 R16R/1000VP2000D R16L/P2000N MIFG BR FEW004 15/15 Q1015 TEMPO FEW005 BKN007 RMK 1ST004 A2999
","Tokyo, Japan",2021-05-31 20:16:01 UTC
rjaa_rdr3,http://d.liveatc.net/rjaa_rdr3,RJAA Radar 119.025,International-AS,"RJAA 311930Z 02004KT 4000 R16R/1000VP2000D R16L/P2000N MIFG BR FEW004 15/15 Q1015 TEMPO FEW005 BKN007 RMK 1ST004 A2999
","Tokyo, Japan",2021-05-31 20:16:01 UTC
rjaa_rdr,http://d.liveatc.net/rjaa_rdr,RJAA Radar 120.2,International-AS,"RJAA 311930Z 02004KT 4000 R16R/1000VP2000D R16L/P2000N MIFG BR FEW004 15/15 Q1015 TEMPO FEW005 BKN007 RMK 1ST004 A2999
","Tokyo, Japan",2021-05-31 20:16:01 UTC
rjaa_rdr2,http://d.liveatc.net/rjaa_rdr2,RJAA Radar 120.6,International-AS,"RJAA 311930Z 02004KT 4000 R16R/1000VP2000D R16L/P2000N MIFG BR FEW004 15/15 Q1015 TEMPO FEW005 BKN007 RMK 1ST004 A2999
","Tokyo, Japan",2021-05-31 20:16:01 UTC
rjaa_rdr4,http://d.liveatc.net/rjaa_rdr4,RJAA Radar 132.1,International-AS,"RJAA 311930Z 02004KT 4000 R16R/1000VP2000D R16L/P2000N MIFG BR FEW004 15/15 Q1015 TEMPO FEW005 BKN007 RMK 1ST004 A2999
","Tokyo, Japan",2021-05-31 20:16:01 UTC
rjaa_rdr5,http://d.liveatc.net/rjaa_rdr5,RJAA Radar 133.35,International-AS,"RJAA 311930Z 02004KT 4000 R16R/1000VP2000D R16L/P2000N MIFG BR FEW004 15/15 Q1015 TEMPO FEW005 BKN007 RMK 1ST004 A2999
","Tokyo, Japan",2021-05-31 20:16:01 UTC
rjaa_ramp1,http://d.liveatc.net/rjaa_ramp1,RJAA Ramp #1,International-AS,"RJAA 311930Z 02004KT 4000 R16R/1000VP2000D R16L/P2000N MIFG BR FEW004 15/15 Q1015 TEMPO FEW005 BKN007 RMK 1ST004 A2999
","Tokyo, Japan",2021-05-31 20:16:01 UTC
rjaa_ramp2,http://d.liveatc.net/rjaa_ramp2,RJAA Ramp #2,International-AS,"RJAA 311930Z 02004KT 4000 R16R/1000VP2000D R16L/P2000N MIFG BR FEW004 15/15 Q1015 TEMPO FEW005 BKN007 RMK 1ST004 A2999
","Tokyo, Japan",2021-05-31 20:16:01 UTC
rjaa_tca,http://d.liveatc.net/rjaa_tca,RJAA TCA,International-AS,"RJAA 311930Z 02004KT 4000 R16R/1000VP2000D R16L/P2000N MIFG BR FEW004 15/15 Q1015 TEMPO FEW005 BKN007 RMK 1ST004 A2999
","Tokyo, Japan",2021-05-31 20:16:01 UTC
rjaa_control1,http://d.liveatc.net/rjaa_control1,RJAA Tokyo Control,International-AS,"RJAA 311930Z 02004KT 4000 R16R/1000VP2000D R16L/P2000N MIFG BR FEW004 15/15 Q1015 TEMPO FEW005 BKN007 RMK 1ST004 A2999
","Tokyo, Japan",2021-05-31 20:16:01 UTC
rjaa_twr1,http://d.liveatc.net/rjaa_twr1,RJAA Tower #1,International-AS,"RJAA 311930Z 02004KT 4000 R16R/1000VP2000D R16L/P2000N MIFG BR FEW004 15/15 Q1015 TEMPO FEW005 BKN007 RMK 1ST004 A2999
","Tokyo, Japan",2021-05-31 20:16:01 UTC
rjaa_twr2,http://d.liveatc.net/rjaa_twr2,RJAA Tower #2,International-AS,"RJAA 311930Z 02004KT 4000 R16R/1000VP2000D R16L/P2000N MIFG BR FEW004 15/15 Q1015 TEMPO FEW005 BKN007 RMK 1ST004 A2999
","Tokyo, Japan",2021-05-31 20:16:01 UTC
rjaa_twr,http://d.liveatc.net/rjaa_twr,RJAA Tower (Both),International-AS,"RJAA 311930Z 02004KT 4000 R16R/1000VP2000D R16L/P2000N MIFG BR FEW004 15/15 Q1015 TEMPO FEW005 BKN007 RMK 1ST004 A2999
","Tokyo, Japan",2021-05-31 20:16:01 UTC
rjoo1,http://d.liveatc.net/rjoo1,RJOO Tower,International-AS,,"Osaka, Japan",2021-05-31 20:16:01 UTC
rjsf,http://d.liveatc.net/rjsf,RJSF RDO,International-AS,,"Sukagawa, Japan",2021-05-31 20:16:01 UTC
rjtt_app_dep,http://d.liveatc.net/rjtt_app_dep,RJTT App/Dep,International-AS,"RJTT 311930Z 36007KT 9999 FEW015 17/15 Q1015 NOSIG RMK 2CU015 A2999
","Tokyo, Japan",2021-05-31 20:16:01 UTC
rjtt_app,http://d.liveatc.net/rjtt_app,RJTT Approach,International-AS,"RJTT 311930Z 36007KT 9999 FEW015 17/15 Q1015 NOSIG RMK 2CU015 A2999
","Tokyo, Japan",2021-05-31 20:16:01 UTC
rjtt_atis,http://d.liveatc.net/rjtt_atis,RJTT ATIS,International-AS,"RJTT 311930Z 36007KT 9999 FEW015 17/15 Q1015 NOSIG RMK 2CU015 A2999
","Tokyo, Japan",2021-05-31 20:16:01 UTC
rjtt2,http://d.liveatc.net/rjtt2,RJTT Company Channels,International-AS,"RJTT 311930Z 36007KT 9999 FEW015 17/15 Q1015 NOSIG RMK 2CU015 A2999
","Tokyo, Japan",2021-05-31 20:16:01 UTC
rjtt_gnd,http://d.liveatc.net/rjtt_gnd,RJTT Del/Ground,International-AS,"RJTT 311930Z 36007KT 9999 FEW015 17/15 Q1015 NOSIG RMK 2CU015 A2999
","Tokyo, Japan",2021-05-31 20:16:01 UTC
rjtt_twr_tca,http://d.liveatc.net/rjtt_twr_tca,RJTT Del/Twr/TCA/Gnd,International-AS,"RJTT 311930Z 36007KT 9999 FEW015 17/15 Q1015 NOSIG RMK 2CU015 A2999
","Tokyo, Japan",2021-05-31 20:16:01 UTC
rjtt_dep,http://d.liveatc.net/rjtt_dep,RJTT Departure,International-AS,"RJTT 311930Z 36007KT 9999 FEW015 17/15 Q1015 NOSIG RMK 2CU015 A2999
","Tokyo, Japan",2021-05-31 20:16:01 UTC
rjtt_control,http://d.liveatc.net/rjtt_control,RJTT Tokyo Control,International-AS,"RJTT 311930Z 36007KT 9999 FEW015 17/15 Q1015 NOSIG RMK 2CU015 A2999
","Tokyo, Japan",2021-05-31 20:16:01 UTC
rjtt_twr,http://d.liveatc.net/rjtt_twr,RJTT Twr/TCA,International-AS,"RJTT 311930Z 36007KT 9999 FEW015 17/15 Q1015 NOSIG RMK 2CU015 A2999
","Tokyo, Japan",2021-05-31 20:16:01 UTC
rjty1_app,http://d.liveatc.net/rjty1_app,RJTY Approach,International-AS,"RJTY 311956Z AUTO 36004KT 9SM CLR 14/14 A3005 RMK AO2 SLP177 T01420140 FZRANO $
","Tokyo, Japan",2021-05-31 20:16:01 UTC
rjty1_atis,http://d.liveatc.net/rjty1_atis,RJTY ATIS,International-AS,"RJTY 311956Z AUTO 36004KT 9SM CLR 14/14 A3005 RMK AO2 SLP177 T01420140 FZRANO $
","Tokyo, Japan",2021-05-31 20:16:01 UTC
rjty1_gnd,http://d.liveatc.net/rjty1_gnd,RJTY Ground,International-AS,"RJTY 311956Z AUTO 36004KT 9SM CLR 14/14 A3005 RMK AO2 SLP177 T01420140 FZRANO $
","Tokyo, Japan",2021-05-31 20:16:01 UTC
rjty1_gnd_twr,http://d.liveatc.net/rjty1_gnd_twr,RJTY Ground/Tower,International-AS,"RJTY 311956Z AUTO 36004KT 9SM CLR 14/14 A3005 RMK AO2 SLP177 T01420140 FZRANO $
","Tokyo, Japan",2021-05-31 20:16:01 UTC
rjty1_twr,http://d.liveatc.net/rjty1_twr,RJTY Tower,International-AS,"RJTY 311956Z AUTO 36004KT 9SM CLR 14/14 A3005 RMK AO2 SLP177 T01420140 FZRANO $
","Tokyo, Japan",2021-05-31 20:16:01 UTC
unnt,http://d.liveatc.net/unnt,UNNT Gnd/Twr/App/Radar/Misc,International-AS,"UNNT 311930Z 13003MPS CAVOK 15/10 Q1010 R07/090070 R34/090070 NOSIG RMK QFE748/0997
","Novosibirsk, Russia",2021-05-31 20:16:01 UTC
unoo,http://d.liveatc.net/unoo,UNOO Gnd/Tower/App,International-AS,"UNOO 311930Z 07002MPS 9999 SCT033CB 19/13 Q1003 R25/CLRD60 NOSIG RMK QFE744
","Omsk, Russia",2021-05-31 20:16:01 UTC
ustr,http://d.liveatc.net/ustr,USTR Gnd/Twr/App,International-AS,"USTR 311930Z 35004MPS CAVOK 05/03 Q1015 R30/CLRD65 R03/CLRD65 NOSIG
","Tyumen, Russia",2021-05-31 20:16:01 UTC
usuu,http://d.liveatc.net/usuu,USUU Twr/App/Control,International-AS,USUU Flight Activity,"Kurgan, Russia",2021-05-31 20:16:01 UTC
vmmc2,http://d.liveatc.net/vmmc2,VMMC Tower,International-AS,"VMMC 311930Z 12010KT 9000 -TSRA FEW007 SCT015CB BKN040 28/27 Q1003 TEMPO VRB15G25KT 2500 +TSRA FEW008 SCT015CB BKN040
","Taipa, China",2021-05-31 20:16:01 UTC
vtbs_app_east,http://d.liveatc.net/vtbs_app_east,VTBS Approach (East),International-AS,"VTBS 311930Z 27008KT 230V290 9999 FEW018CB BKN030 28/23 Q1006 NOSIG
","Bangkok, Thailand",2021-05-31 20:16:01 UTC
vtbs_app_119100,http://d.liveatc.net/vtbs_app_119100,VTBS Approach 119.1,International-AS,"VTBS 311930Z 27008KT 230V290 9999 FEW018CB BKN030 28/23 Q1006 NOSIG
","Bangkok, Thailand",2021-05-31 20:16:01 UTC
vtbs_app_119400,http://d.liveatc.net/vtbs_app_119400,VTBS Approach 119.4,International-AS,"VTBS 311930Z 27008KT 230V290 9999 FEW018CB BKN030 28/23 Q1006 NOSIG
","Bangkok, Thailand",2021-05-31 20:16:01 UTC
vtbs_app_120300,http://d.liveatc.net/vtbs_app_120300,VTBS Approach 120.3,International-AS,"VTBS 311930Z 27008KT 230V290 9999 FEW018CB BKN030 28/23 Q1006 NOSIG
","Bangkok, Thailand",2021-05-31 20:16:01 UTC
vtbs_app,http://d.liveatc.net/vtbs_app,VTBS Approach/Arrival,International-AS,"VTBS 311930Z 27008KT 230V290 9999 FEW018CB BKN030 28/23 Q1006 NOSIG
","Bangkok, Thailand",2021-05-31 20:16:01 UTC
vtbs_arr,http://d.liveatc.net/vtbs_arr,VTBS Arrival 121.1,International-AS,"VTBS 311930Z 27008KT 230V290 9999 FEW018CB BKN030 28/23 Q1006 NOSIG
","Bangkok, Thailand",2021-05-31 20:16:01 UTC
vtbs_atis,http://d.liveatc.net/vtbs_atis,VTBS ATIS,International-AS,"VTBS 311930Z 27008KT 230V290 9999 FEW018CB BKN030 28/23 Q1006 NOSIG
","Bangkok, Thailand",2021-05-31 20:16:01 UTC
vtbs_dep_119250,http://d.liveatc.net/vtbs_dep_119250,VTBS Departure,International-AS,"VTBS 311930Z 27008KT 230V290 9999 FEW018CB BKN030 28/23 Q1006 NOSIG
","Bangkok, Thailand",2021-05-31 20:16:01 UTC
vtbs_gnd,http://d.liveatc.net/vtbs_gnd,VTBS Ground (All),International-AS,"VTBS 311930Z 27008KT 230V290 9999 FEW018CB BKN030 28/23 Q1006 NOSIG
","Bangkok, Thailand",2021-05-31 20:16:01 UTC
vtbs_gnd_east,http://d.liveatc.net/vtbs_gnd_east,VTBS Ground (East),International-AS,"VTBS 311930Z 27008KT 230V290 9999 FEW018CB BKN030 28/23 Q1006 NOSIG
","Bangkok, Thailand",2021-05-31 20:16:01 UTC
vtbs_gnd_main,http://d.liveatc.net/vtbs_gnd_main,VTBS Ground (Main),International-AS,"VTBS 311930Z 27008KT 230V290 9999 FEW018CB BKN030 28/23 Q1006 NOSIG
","Bangkok, Thailand",2021-05-31 20:16:01 UTC
vtbs_gnd_west,http://d.liveatc.net/vtbs_gnd_west,VTBS Ground (West),International-AS,"VTBS 311930Z 27008KT 230V290 9999 FEW018CB BKN030 28/23 Q1006 NOSIG
","Bangkok, Thailand",2021-05-31 20:16:01 UTC
vtbs_twr,http://d.liveatc.net/vtbs_twr,VTBS Tower,International-AS,"VTBS 311930Z 27008KT 230V290 9999 FEW018CB BKN030 28/23 Q1006 NOSIG
","Bangkok, Thailand",2021-05-31 20:16:01 UTC
vtbs_twr_01l,http://d.liveatc.net/vtbs_twr_01l,VTBS Tower (Rwy 01L/19R),International-AS,"VTBS 311930Z 27008KT 230V290 9999 FEW018CB BKN030 28/23 Q1006 NOSIG
","Bangkok, Thailand",2021-05-31 20:16:01 UTC
vtbs_twr_01r,http://d.liveatc.net/vtbs_twr_01r,VTBS Tower (Rwy 01R/19L),International-AS,"VTBS 311930Z 27008KT 230V290 9999 FEW018CB BKN030 28/23 Q1006 NOSIG
","Bangkok, Thailand",2021-05-31 20:16:01 UTC
vtss,http://d.liveatc.net/vtss,VTSS Approach,International-AS,"VTSS 311930Z 10003KT 8000 FEW020 SCT100 26/26 Q1007 NOSIG
","Songkhla, Thailand",2021-05-31 20:16:01 UTC
wbkk2,http://d.liveatc.net/wbkk2,WBKK Gnd/Twr/Radar/Control,International-AS,"WBKK 311930Z VRB02KT 8000 -RA FEW013 FEW016CB SCT035 26/25 Q1007 NOSIG
","Kota Kinabalu, Malaysia",2021-05-31 20:16:01 UTC
wbks1_app,http://d.liveatc.net/wbks1_app,WBKS Approach,International-AS,"WBKS 311900Z 00000KT 9999 TS SCT014 FEW016CB 28/26 Q1007
","Sandakan, Malaysia",2021-05-31 20:16:01 UTC
wbks1_atis,http://d.liveatc.net/wbks1_atis,WBKS ATIS,International-AS,"WBKS 311900Z 00000KT 9999 TS SCT014 FEW016CB 28/26 Q1007
","Sandakan, Malaysia",2021-05-31 20:16:01 UTC
wbks1_guard,http://d.liveatc.net/wbks1_guard,WBKS Emergency/Guard,International-AS,"WBKS 311900Z 00000KT 9999 TS SCT014 FEW016CB 28/26 Q1007
","Sandakan, Malaysia",2021-05-31 20:16:01 UTC
wbks1_all,http://d.liveatc.net/wbks1_all,WBKS Gnd/Twr/App/Guard,International-AS,"WBKS 311900Z 00000KT 9999 TS SCT014 FEW016CB 28/26 Q1007
","Sandakan, Malaysia",2021-05-31 20:16:01 UTC
wbks1_gnd,http://d.liveatc.net/wbks1_gnd,WBKS Ground,International-AS,"WBKS 311900Z 00000KT 9999 TS SCT014 FEW016CB 28/26 Q1007
","Sandakan, Malaysia",2021-05-31 20:16:01 UTC
wbks1_twr,http://d.liveatc.net/wbks1_twr,WBKS Tower,International-AS,"WBKS 311900Z 00000KT 9999 TS SCT014 FEW016CB 28/26 Q1007
","Sandakan, Malaysia",2021-05-31 20:16:01 UTC
wmkb,http://d.liveatc.net/wmkb,WMKB Radar,International-AS,"WMKB 311900Z 10004KT 060V130 8000 TS FEW017CB 27/25 Q1006 NOSIG
","Penang, Malaysia",2021-05-31 20:16:01 UTC
zbaa,http://d.liveatc.net/zbaa,ZBAA Tower,International-AS,"ZBAA 311930Z VRB01MPS CAVOK 12/11 Q1009 NOSIG
","Beijing, China",2021-05-31 20:16:01 UTC
